"","Tea_ID","Tea_Type","Region","Site","Plot","Lat","Lon","Elevation","Initial","Depth","Burial","Recovery","Days","Season","Final","Label","Tea_init","Tea_final","Loss","Treatment","Contributor","Soil.moisture","Additional.information","latlon"
"1","K21","Rooibos","Kluane","Common Garden","CG_DT_HT_1",61.03248,-138.40834,792,2.224,8,2016-06-23,2016-06-24,1,"Summer","2.012","Yes",1.864,1.762943356,0.0542149377682404,"None","Haydn Thomas",NA,"","61.03248_-138.40834"
"2","K22","Rooibos","Kluane","Common Garden","CG_DT_HT_2",61.03248,-138.40834,792,2.229,8,2016-06-23,2016-06-25,2,"Summer","2.114","Yes",1.869,1.864943356,0.00217048903156769,"None","Haydn Thomas",NA,"","61.03248_-138.40834"
"3","K23","Rooibos","Kluane","Common Garden","CG_DT_HT_3",61.03248,-138.40834,792,2.28,8,2016-06-23,2016-06-26,3,"Summer","2.12","Yes",1.917,1.870943356,0.0240253750652061,"None","Haydn Thomas",NA,"","61.03248_-138.40834"
"4","K24","Rooibos","Kluane","Common Garden","CG_DT_HT_9",61.03248,-138.40834,792,2.305,8,2016-06-23,2016-07-02,9,"Summer","2.1","Yes",1.941,1.850943356,0.0463970345182896,"None","Haydn Thomas",NA,"","61.03248_-138.40834"
"5","K25","Rooibos","Kluane","Common Garden","CG_DT_HT_11",61.03248,-138.40834,792,2.282,8,2016-06-23,2016-07-04,11,"Summer","2.032","Yes",1.919,1.782943356,0.0708997623762376,"None","Haydn Thomas",NA,"","61.03248_-138.40834"
"6","K26","Rooibos","Kluane","Common Garden","CG_DT_HT_13",61.03248,-138.40834,792,2.283,8,2016-06-23,2016-07-06,13,"Summer","2.072","Yes",1.92,1.822943356,0.0505503354166666,"None","Haydn Thomas",NA,"","61.03248_-138.40834"
"7","K27","Rooibos","Kluane","Common Garden","CG_DT_HT_14",61.03248,-138.40834,792,2.236,8,2016-06-23,2016-07-07,14,"Summer","2.088","Yes",1.876,1.838943356,0.0197530085287846,"None","Haydn Thomas",NA,"","61.03248_-138.40834"
"8","K28","Rooibos","Kluane","Common Garden","CG_DT_HT_16",61.03248,-138.40834,792,2.252,8,2016-06-23,2016-07-09,16,"Summer","1.996","Yes",1.891,1.746943356,0.0761801396086726,"None","Haydn Thomas",NA,"","61.03248_-138.40834"
"9","K29","Rooibos","Kluane","Common Garden","CG_DT_HT_18",61.03248,-138.40834,792,2.222,8,2016-06-23,2016-07-11,18,"Summer","1.841","Yes",1.862,1.591943356,0.145035791621912,"None","Haydn Thomas",NA,"","61.03248_-138.40834"
"10","K30","Rooibos","Kluane","Common Garden","CG_DT_HT_20",61.03248,-138.40834,792,2.25,8,2016-06-23,2016-07-13,20,"Summer","1.854","Yes",1.889,1.604943356,0.150374083642139,"None","Haydn Thomas",NA,"","61.03248_-138.40834"
"11","K31","Rooibos","Kluane","Common Garden","CG_DT_HT_23",61.03248,-138.40834,792,2.249,8,2016-06-23,2016-07-16,23,"Summer","1.864","Yes",1.888,1.614943356,0.144627459745763,"None","Haydn Thomas",NA,"","61.03248_-138.40834"
"12","K32","Rooibos","Kluane","Common Garden","CG_DT_HT_27",61.03248,-138.40834,792,2.339,8,2016-06-23,2016-07-20,27,"Summer","1.88","Yes",1.973,1.630943356,0.173368800810948,"None","Haydn Thomas",NA,"","61.03248_-138.40834"
"13","K33","Rooibos","Kluane","Common Garden","CG_DT_HT_30",61.03248,-138.40834,792,2.281,8,2016-06-23,2016-07-23,30,"Summer","1.846","Yes",1.918,1.596943356,0.167391368091762,"None","Haydn Thomas",NA,"","61.03248_-138.40834"
"14","K34","Rooibos","Kluane","Common Garden","CG_DT_HT_34",61.03248,-138.40834,792,2.256,8,2016-06-23,2016-07-27,34,"Summer","1.771","Yes",1.894,1.521943356,0.196439621964097,"None","Haydn Thomas",NA,"","61.03248_-138.40834"
"15","K35","Rooibos","Kluane","Common Garden","CG_DT_HT_37",61.03248,-138.40834,792,2.196,8,2016-06-23,2016-07-30,37,"Summer","1.765","Yes",1.838,1.515943356,0.17522124265506,"None","Haydn Thomas",NA,"","61.03248_-138.40834"
"16","K36","Rooibos","Kluane","Common Garden","CG_DT_HT_42",61.03248,-138.40834,792,2.268,8,2016-06-23,2016-08-04,42,"Summer","1.748","Yes",1.906,1.498943356,0.213565920251836,"None","Haydn Thomas",NA,"","61.03248_-138.40834"
"17","K37","Rooibos","Kluane","Common Garden","CG_DT_HT_45",61.03248,-138.40834,792,2.25,8,2016-06-23,2016-08-07,45,"Summer","1.848","Yes",1.889,1.598943356,0.153550367390154,"None","Haydn Thomas",NA,"","61.03248_-138.40834"
"18","K38","Rooibos","Kluane","Common Garden","CG_DT_HT_46",61.03248,-138.40834,792,2.205,8,2016-06-23,2016-08-08,46,"Summer","1.775","Yes",1.846,1.525943356,0.173378463705309,"None","Haydn Thomas",NA,"","61.03248_-138.40834"
"19","K39","Rooibos","Kluane","Common Garden","CG_DT_HT_47",61.03248,-138.40834,792,2.261,8,2016-06-23,2016-08-09,47,"Summer","1.83","Yes",1.899,1.580943356,0.167486384412849,"None","Haydn Thomas",NA,"","61.03248_-138.40834"
"20","K40","Rooibos","Kluane","Common Garden","CG_DT_HT_48",61.03248,-138.40834,792,2.27,8,2016-06-23,2016-08-10,48,"Summer","1.754","Yes",1.908,1.504943356,0.211245620545073,"None","Haydn Thomas",NA,"","61.03248_-138.40834"
"21","K41","Rooibos","Kluane","Common Garden","CG_DT_HT_50",61.03248,-138.40834,792,2.233,8,2016-06-23,2016-08-12,50,"Summer","1.769","Yes",1.873,1.519943356,0.188497941270689,"None","Haydn Thomas",NA,"","61.03248_-138.40834"
"22","K42","Rooibos","Kluane","Common Garden","CG_DT_HT_52",61.03248,-138.40834,792,2.283,8,2016-06-23,2016-08-14,52,"Summer","1.837","Yes",1.92,1.587943356,0.17294616875,"None","Haydn Thomas",NA,"","61.03248_-138.40834"
"23","K43","Rooibos","Kluane","Common Garden","CG_DT_HT_54",61.03248,-138.40834,792,2.215,8,2016-06-23,2016-08-16,54,"Summer","1.756","Yes",1.856,1.506943356,0.1880693125,"None","Haydn Thomas",NA,"","61.03248_-138.40834"
"24","K44","Rooibos","Kluane","Common Garden","CG_DT_HT_55",61.03248,-138.40834,792,2.239,8,2016-06-23,2016-08-17,55,"Summer","1.8","Yes",1.878,1.550943356,0.174151567625133,"None","Haydn Thomas",NA,"","61.03248_-138.40834"
"25","K45","Rooibos","Kluane","Common Garden","CG_DT_HT_56",61.03248,-138.40834,792,2.197,8,2016-06-23,2016-08-18,56,"Summer","1.775","Yes",1.839,1.525943356,0.170231997824905,"None","Haydn Thomas",NA,"","61.03248_-138.40834"
"26","K46","Rooibos","Kluane","Common Garden","CG_DT_HT_1",61.03248,-138.40834,792,2.24,8,2016-06-23,2016-06-24,1,"Summer","2.191","Yes",1.879,1.941943356,-0.0334983267695583,"None","Haydn Thomas",NA,"","61.03248_-138.40834"
"27","K47","Rooibos","Kluane","Common Garden","CG_DT_HT_2",61.03248,-138.40834,792,2.236,8,2016-06-23,2016-06-25,2,"Summer","2.139","Yes",1.876,1.889943356,-0.00743249253731348,"None","Haydn Thomas",NA,"","61.03248_-138.40834"
"28","K48","Rooibos","Kluane","Common Garden","CG_DT_HT_3",61.03248,-138.40834,792,2.171,8,2016-06-23,2016-06-26,3,"Summer","2.04","Yes",1.814,1.790943356,0.0127103880926129,"None","Haydn Thomas",NA,"","61.03248_-138.40834"
"29","K49","Rooibos","Kluane","Common Garden","CG_DT_HT_9",61.03248,-138.40834,792,2.276,8,2016-06-23,2016-07-02,9,"Summer","2.085","Yes",1.913,1.835943356,0.0402805248301098,"None","Haydn Thomas",NA,"","61.03248_-138.40834"
"30","K50","Rooibos","Kluane","Common Garden","CG_DT_HT_11",61.03248,-138.40834,792,2.25,8,2016-06-23,2016-07-04,11,"Summer","2.054","Yes",1.889,1.804943356,0.0444979587083112,"None","Haydn Thomas",NA,"","61.03248_-138.40834"
"31","K51","Rooibos","Kluane","Common Garden","CG_DT_HT_13",61.03248,-138.40834,792,2.205,8,2016-06-23,2016-07-06,13,"Summer","2.033","Yes",1.846,1.783943356,0.0336168169014085,"None","Haydn Thomas",NA,"","61.03248_-138.40834"
"32","K52","Rooibos","Kluane","Common Garden","CG_DT_HT_14",61.03248,-138.40834,792,2.213,8,2016-06-23,2016-07-07,14,"Summer","2.022","Yes",1.854,1.772943356,0.0437198727076591,"None","Haydn Thomas",NA,"","61.03248_-138.40834"
"33","K53","Rooibos","Kluane","Common Garden","CG_DT_HT_16",61.03248,-138.40834,792,2.111,8,2016-06-23,2016-07-09,16,"Summer","1.868","Yes",1.758,1.618943356,0.0790993424345848,"None","Haydn Thomas",NA,"","61.03248_-138.40834"
"34","K54","Rooibos","Kluane","Common Garden","CG_DT_HT_18",61.03248,-138.40834,792,2.25,8,2016-06-23,2016-07-11,18,"Summer","1.881","Yes",1.889,1.631943356,0.136080806776072,"None","Haydn Thomas",NA,"","61.03248_-138.40834"
"35","K55","Rooibos","Kluane","Common Garden","CG_DT_HT_20",61.03248,-138.40834,792,2.198,8,2016-06-23,2016-07-13,20,"Summer","1.815","Yes",1.84,1.565943356,0.14894382826087,"None","Haydn Thomas",NA,"","61.03248_-138.40834"
"36","K56","Rooibos","Kluane","Common Garden","CG_DT_HT_23",61.03248,-138.40834,792,2.236,8,2016-06-23,2016-07-16,23,"Summer","1.852","Yes",1.876,1.602943356,0.145552582089552,"None","Haydn Thomas",NA,"","61.03248_-138.40834"
"37","K57","Rooibos","Kluane","Common Garden","CG_DT_HT_27",61.03248,-138.40834,792,2.2,8,2016-06-23,2016-07-20,27,"Summer","1.767","Yes",1.842,1.517943356,0.175926516829533,"None","Haydn Thomas",NA,"","61.03248_-138.40834"
"38","K58","Rooibos","Kluane","Common Garden","CG_DT_HT_30",61.03248,-138.40834,792,2.256,8,2016-06-23,2016-07-23,30,"Summer","1.852","Yes",1.894,1.602943356,0.153672990496304,"None","Haydn Thomas",NA,"","61.03248_-138.40834"
"39","K59","Rooibos","Kluane","Common Garden","CG_DT_HT_34",61.03248,-138.40834,792,2.265,8,2016-06-23,2016-07-27,34,"Summer","1.785","Yes",1.903,1.535943356,0.192883155018392,"None","Haydn Thomas",NA,"","61.03248_-138.40834"
"40","K60","Rooibos","Kluane","Common Garden","CG_DT_HT_37",61.03248,-138.40834,792,2.176,8,2016-06-23,2016-07-30,37,"Summer","1.754","Yes",1.819,1.504943356,0.172653460142936,"None","Haydn Thomas",NA,"","61.03248_-138.40834"
"41","K61","Rooibos","Kluane","Common Garden","CG_DT_HT_42",61.03248,-138.40834,792,2.253,8,2016-06-23,2016-08-04,42,"Summer","1.796","Yes",1.892,1.546943356,0.182376661733615,"None","Haydn Thomas",NA,"","61.03248_-138.40834"
"42","K62","Rooibos","Kluane","Common Garden","CG_DT_HT_45",61.03248,-138.40834,792,2.202,8,2016-06-23,2016-08-07,45,"Summer","1.769","Yes",1.843,1.519943356,0.175288466630494,"None","Haydn Thomas",NA,"","61.03248_-138.40834"
"43","K63","Rooibos","Kluane","Common Garden","CG_DT_HT_46",61.03248,-138.40834,792,2.173,8,2016-06-23,2016-08-08,46,"Summer","1.76","Yes",1.816,1.510943356,0.167982733480176,"None","Haydn Thomas",NA,"","61.03248_-138.40834"
"44","K64","Rooibos","Kluane","Common Garden","CG_DT_HT_47",61.03248,-138.40834,792,2.22,8,2016-06-23,2016-08-09,47,"Summer","1.713","Yes",1.86,1.463943356,0.212933679569893,"None","Haydn Thomas",NA,"","61.03248_-138.40834"
"45","K65","Rooibos","Kluane","Common Garden","CG_DT_HT_48",61.03248,-138.40834,792,2.246,8,2016-06-23,2016-08-10,48,"Summer","1.771","Yes",1.885,1.521943356,0.192602994164456,"None","Haydn Thomas",NA,"","61.03248_-138.40834"
"46","K66","Rooibos","Kluane","Common Garden","CG_DT_HT_50",61.03248,-138.40834,792,2.183,8,2016-06-23,2016-08-12,50,"Summer","1.765","Yes",1.826,1.515943356,0.169801009857612,"None","Haydn Thomas",NA,"","61.03248_-138.40834"
"47","K67","Rooibos","Kluane","Common Garden","CG_DT_HT_52",61.03248,-138.40834,792,2.288,8,2016-06-23,2016-08-14,52,"Summer","1.807","Yes",1.925,1.557943356,0.190678776103896,"None","Haydn Thomas",NA,"","61.03248_-138.40834"
"48","K68","Rooibos","Kluane","Common Garden","CG_DT_HT_54",61.03248,-138.40834,792,2.293,8,2016-06-23,2016-08-16,54,"Summer","1.795","Yes",1.929,1.545943356,0.198577835147745,"None","Haydn Thomas",NA,"","61.03248_-138.40834"
"49","K69","Rooibos","Kluane","Common Garden","CG_DT_HT_55",61.03248,-138.40834,792,2.184,8,2016-06-23,2016-08-17,55,"Summer","1.741","Yes",1.826,1.491943356,0.182944492880613,"None","Haydn Thomas",NA,"","61.03248_-138.40834"
"50","K70","Rooibos","Kluane","Common Garden","CG_DT_HT_56",61.03248,-138.40834,792,2.181,8,2016-06-23,2016-08-18,56,"Summer","1.751","Yes",1.824,1.501943356,0.17656614254386,"None","Haydn Thomas",NA,"","61.03248_-138.40834"
"51","K21","Green","Kluane","Common Garden","CG_DT_HT_1",61.03248,-138.40834,792,1.974,8,2016-06-23,2016-06-24,1,"Summer","1.75","Yes",1.66,1.501309356,0.0955967734939759,"None","Haydn Thomas",NA,"","61.03248_-138.40834"
"52","K22","Green","Kluane","Common Garden","CG_DT_HT_2",61.03248,-138.40834,792,1.931,8,2016-06-23,2016-06-25,2,"Summer","1.82","Yes",1.618,1.571309356,0.0288570111248455,"None","Haydn Thomas",NA,"","61.03248_-138.40834"
"53","K23","Green","Kluane","Common Garden","CG_DT_HT_3",61.03248,-138.40834,792,1.977,8,2016-06-23,2016-06-26,3,"Summer","1.829","Yes",1.663,1.580309356,0.0497237787131689,"None","Haydn Thomas",NA,"","61.03248_-138.40834"
"54","K24","Green","Kluane","Common Garden","CG_DT_HT_9",61.03248,-138.40834,792,2.081,8,2016-06-23,2016-07-02,9,"Summer","1.732","Yes",1.763,1.483309356,0.158644721497448,"None","Haydn Thomas",NA,"","61.03248_-138.40834"
"55","K25","Green","Kluane","Common Garden","CG_DT_HT_11",61.03248,-138.40834,792,1.934,8,2016-06-23,2016-07-04,11,"Summer","1.612","Yes",1.621,1.363309356,0.158970169031462,"None","Haydn Thomas",NA,"","61.03248_-138.40834"
"56","K26","Green","Kluane","Common Garden","CG_DT_HT_13",61.03248,-138.40834,792,2.062,8,2016-06-23,2016-07-06,13,"Summer","1.851","Yes",1.744,1.602309356,0.0812446353211009,"None","Haydn Thomas",NA,"","61.03248_-138.40834"
"57","K27","Green","Kluane","Common Garden","CG_DT_HT_14",61.03248,-138.40834,792,1.964,8,2016-06-23,2016-07-07,14,"Summer","1.593","Yes",1.65,1.344309356,0.185267056969697,"None","Haydn Thomas",NA,"","61.03248_-138.40834"
"58","K28","Green","Kluane","Common Garden","CG_DT_HT_16",61.03248,-138.40834,792,2.01,8,2016-06-23,2016-07-09,16,"Summer","1.324","Yes",1.694,1.075309356,0.365224701298701,"None","Haydn Thomas",NA,"","61.03248_-138.40834"
"59","K29","Green","Kluane","Common Garden","CG_DT_HT_18",61.03248,-138.40834,792,1.902,8,2016-06-23,2016-07-11,18,"Summer","1.069","Yes",1.591,0.820309356,0.484406438717788,"None","Haydn Thomas",NA,"","61.03248_-138.40834"
"60","K30","Green","Kluane","Common Garden","CG_DT_HT_20",61.03248,-138.40834,792,1.964,8,2016-06-23,2016-07-13,20,"Summer","1.199","Yes",1.65,0.950309356,0.424054935757576,"None","Haydn Thomas",NA,"","61.03248_-138.40834"
"61","K31","Green","Kluane","Common Garden","CG_DT_HT_23",61.03248,-138.40834,792,2.006,8,2016-06-23,2016-07-16,23,"Summer","1.051","Yes",1.691,0.802309356,0.525541480780603,"None","Haydn Thomas",NA,"","61.03248_-138.40834"
"62","K32","Green","Kluane","Common Garden","CG_DT_HT_27",61.03248,-138.40834,792,2.133,8,2016-06-23,2016-07-20,27,"Summer","1.041","Yes",1.813,0.792309356,0.562984359624931,"None","Haydn Thomas",NA,"","61.03248_-138.40834"
"63","K33","Green","Kluane","Common Garden","CG_DT_HT_30",61.03248,-138.40834,792,1.997,8,2016-06-23,2016-07-23,30,"Summer","0.969","Yes",1.682,0.720309356,0.571754247324614,"None","Haydn Thomas",NA,"","61.03248_-138.40834"
"64","K34","Green","Kluane","Common Garden","CG_DT_HT_34",61.03248,-138.40834,792,1.987,8,2016-06-23,2016-07-27,34,"Summer","0.993","Yes",1.672,0.744309356,0.554838901913876,"None","Haydn Thomas",NA,"","61.03248_-138.40834"
"65","K35","Green","Kluane","Common Garden","CG_DT_HT_37",61.03248,-138.40834,792,2.108,8,2016-06-23,2016-07-30,37,"Summer","0.99","Yes",1.789,0.741309356,0.585629202906652,"None","Haydn Thomas",NA,"","61.03248_-138.40834"
"66","K36","Green","Kluane","Common Garden","CG_DT_HT_42",61.03248,-138.40834,792,2.04,8,2016-06-23,2016-08-04,42,"Summer","0.93","Yes",1.723,0.681309356,0.604579596053395,"None","Haydn Thomas",NA,"","61.03248_-138.40834"
"67","K37","Green","Kluane","Common Garden","CG_DT_HT_45",61.03248,-138.40834,792,1.973,8,2016-06-23,2016-08-07,45,"Summer","0.92","Yes",1.659,0.671309356,0.595353010247137,"None","Haydn Thomas",NA,"","61.03248_-138.40834"
"68","K38","Green","Kluane","Common Garden","CG_DT_HT_46",61.03248,-138.40834,792,2.098,8,2016-06-23,2016-08-08,46,"Summer","1.013","Yes",1.779,0.764309356,0.570371356942102,"None","Haydn Thomas",NA,"","61.03248_-138.40834"
"69","K39","Green","Kluane","Common Garden","CG_DT_HT_47",61.03248,-138.40834,792,2.057,8,2016-06-23,2016-08-09,47,"Summer","0.956","Yes",1.74,0.707309356,0.593500370114942,"None","Haydn Thomas",NA,"","61.03248_-138.40834"
"70","K40","Green","Kluane","Common Garden","CG_DT_HT_48",61.03248,-138.40834,792,1.864,8,2016-06-23,2016-08-10,48,"Summer","0.915","Yes",1.554,0.666309356,0.571229500643501,"None","Haydn Thomas",NA,"","61.03248_-138.40834"
"71","K41","Green","Kluane","Common Garden","CG_DT_HT_50",61.03248,-138.40834,792,2.03,8,2016-06-23,2016-08-12,50,"Summer","0.976","Yes",1.714,0.727309356,0.575665486581097,"None","Haydn Thomas",NA,"","61.03248_-138.40834"
"72","K42","Green","Kluane","Common Garden","CG_DT_HT_52",61.03248,-138.40834,792,2.013,8,2016-06-23,2016-08-14,52,"Summer","0.961","Yes",1.697,0.712309356,0.580253767825575,"None","Haydn Thomas",NA,"","61.03248_-138.40834"
"73","K43","Green","Kluane","Common Garden","CG_DT_HT_54",61.03248,-138.40834,792,2.073,8,2016-06-23,2016-08-16,54,"Summer","1.03","Yes",1.755,0.781309356,0.554809483760684,"None","Haydn Thomas",NA,"","61.03248_-138.40834"
"74","K44","Green","Kluane","Common Garden","CG_DT_HT_55",61.03248,-138.40834,792,2.132,8,2016-06-23,2016-08-17,55,"Summer","1.012","Yes",1.812,0.763309356,0.57874759602649,"None","Haydn Thomas",NA,"","61.03248_-138.40834"
"75","K45","Green","Kluane","Common Garden","CG_DT_HT_56",61.03248,-138.40834,792,2.028,8,2016-06-23,2016-08-18,56,"Summer","0.951","Yes",1.712,0.702309356,0.589772572429907,"None","Haydn Thomas",NA,"","61.03248_-138.40834"
"76","K46","Green","Kluane","Common Garden","CG_DT_HT_1",61.03248,-138.40834,792,1.981,8,2016-06-23,2016-06-24,1,"Summer","1.785","Yes",1.667,1.536309356,0.0783987066586682,"None","Haydn Thomas",NA,"","61.03248_-138.40834"
"77","K47","Green","Kluane","Common Garden","CG_DT_HT_2",61.03248,-138.40834,792,2.122,8,2016-06-23,2016-06-25,2,"Summer","1.964","Yes",1.802,1.715309356,0.0481080155382909,"None","Haydn Thomas",NA,"","61.03248_-138.40834"
"78","K48","Green","Kluane","Common Garden","CG_DT_HT_3",61.03248,-138.40834,792,2.138,8,2016-06-23,2016-06-26,3,"Summer","2.018","Yes",1.818,1.769309356,0.0267825324532454,"None","Haydn Thomas",NA,"","61.03248_-138.40834"
"79","K49","Green","Kluane","Common Garden","CG_DT_HT_9",61.03248,-138.40834,792,2.083,8,2016-06-23,2016-07-02,9,"Summer","1.721","Yes",1.765,1.472309356,0.165830393201133,"None","Haydn Thomas",NA,"","61.03248_-138.40834"
"80","K50","Green","Kluane","Common Garden","CG_DT_HT_11",61.03248,-138.40834,792,2.034,8,2016-06-23,2016-07-04,11,"Summer","1.662","Yes",1.717,1.413309356,0.176872827023879,"None","Haydn Thomas",NA,"","61.03248_-138.40834"
"81","K51","Green","Kluane","Common Garden","CG_DT_HT_13",61.03248,-138.40834,792,2.074,8,2016-06-23,2016-07-06,13,"Summer","1.644","Yes",1.756,1.395309356,0.20540469476082,"None","Haydn Thomas",NA,"","61.03248_-138.40834"
"82","K52","Green","Kluane","Common Garden","CG_DT_HT_14",61.03248,-138.40834,792,1.933,8,2016-06-23,2016-07-07,14,"Summer","1.579","Yes",1.62,1.330309356,0.178821385185185,"None","Haydn Thomas",NA,"","61.03248_-138.40834"
"83","K53","Green","Kluane","Common Garden","CG_DT_HT_16",61.03248,-138.40834,792,1.985,8,2016-06-23,2016-07-09,16,"Summer","1.395","Yes",1.67,1.146309356,0.313587211976048,"None","Haydn Thomas",NA,"","61.03248_-138.40834"
"84","K54","Green","Kluane","Common Garden","CG_DT_HT_18",61.03248,-138.40834,792,2.016,8,2016-06-23,2016-07-11,18,"Summer","1.255","Yes",1.7,1.006309356,0.40805332,"None","Haydn Thomas",NA,"","61.03248_-138.40834"
"85","K55","Green","Kluane","Common Garden","CG_DT_HT_20",61.03248,-138.40834,792,2.111,8,2016-06-23,2016-07-13,20,"Summer","1.308","Yes",1.792,1.059309356,0.408867546875,"None","Haydn Thomas",NA,"","61.03248_-138.40834"
"86","K56","Green","Kluane","Common Garden","CG_DT_HT_23",61.03248,-138.40834,792,2.233,8,2016-06-23,2016-07-16,23,"Summer","1.26","Yes",1.909,1.011309356,0.470241301204819,"None","Haydn Thomas",NA,"","61.03248_-138.40834"
"87","K57","Green","Kluane","Common Garden","CG_DT_HT_27",61.03248,-138.40834,792,2.028,8,2016-06-23,2016-07-20,27,"Summer","1.137","Yes",1.712,0.888309356,0.481127712616822,"None","Haydn Thomas",NA,"","61.03248_-138.40834"
"88","K58","Green","Kluane","Common Garden","CG_DT_HT_30",61.03248,-138.40834,792,2.057,8,2016-06-23,2016-07-23,30,"Summer","1.021","Yes",1.74,0.772309356,0.556144048275862,"None","Haydn Thomas",NA,"","61.03248_-138.40834"
"89","K59","Green","Kluane","Common Garden","CG_DT_HT_34",61.03248,-138.40834,792,2.057,8,2016-06-23,2016-07-27,34,"Summer","1.023","Yes",1.74,0.774309356,0.554994622988506,"None","Haydn Thomas",NA,"","61.03248_-138.40834"
"90","K60","Green","Kluane","Common Garden","CG_DT_HT_37",61.03248,-138.40834,792,1.98,8,2016-06-23,2016-07-30,37,"Summer","0.86","Yes",1.666,0.611309356,0.633067613445378,"None","Haydn Thomas",NA,"","61.03248_-138.40834"
"91","K61","Green","Kluane","Common Garden","CG_DT_HT_42",61.03248,-138.40834,792,2.047,8,2016-06-23,2016-08-04,42,"Summer","1.006","Yes",1.73,0.757309356,0.56224892716763,"None","Haydn Thomas",NA,"","61.03248_-138.40834"
"92","K62","Green","Kluane","Common Garden","CG_DT_HT_45",61.03248,-138.40834,792,2.028,8,2016-06-23,2016-08-07,45,"Summer","0.989","Yes",1.712,0.740309356,0.567576310747663,"None","Haydn Thomas",NA,"","61.03248_-138.40834"
"93","K63","Green","Kluane","Common Garden","CG_DT_HT_46",61.03248,-138.40834,792,2.014,8,2016-06-23,2016-08-08,46,"Summer","0.99","Yes",1.698,0.741309356,0.563422051825677,"None","Haydn Thomas",NA,"","61.03248_-138.40834"
"94","K64","Green","Kluane","Common Garden","CG_DT_HT_47",61.03248,-138.40834,792,2.058,8,2016-06-23,2016-08-09,47,"Summer","1.067","Yes",1.741,0.818309356,0.529977394600804,"None","Haydn Thomas",NA,"","61.03248_-138.40834"
"95","K65","Green","Kluane","Common Garden","CG_DT_HT_48",61.03248,-138.40834,792,1.982,8,2016-06-23,2016-08-10,48,"Summer","1.039","Yes",1.667,0.790309356,0.525909204559088,"None","Haydn Thomas",NA,"","61.03248_-138.40834"
"96","K66","Green","Kluane","Common Garden","CG_DT_HT_50",61.03248,-138.40834,792,2.051,8,2016-06-23,2016-08-12,50,"Summer","0.902","Yes",1.734,0.653309356,0.623235665513264,"None","Haydn Thomas",NA,"","61.03248_-138.40834"
"97","K67","Green","Kluane","Common Garden","CG_DT_HT_52",61.03248,-138.40834,792,2.017,8,2016-06-23,2016-08-14,52,"Summer","0.998","Yes",1.701,0.749309356,0.559488914756026,"None","Haydn Thomas",NA,"","61.03248_-138.40834"
"98","K68","Green","Kluane","Common Garden","CG_DT_HT_54",61.03248,-138.40834,792,2.016,8,2016-06-23,2016-08-16,54,"Summer","1.219","Yes",1.7,0.970309356,0.429229790588235,"None","Haydn Thomas",NA,"","61.03248_-138.40834"
"99","K69","Green","Kluane","Common Garden","CG_DT_HT_55",61.03248,-138.40834,792,2.042,8,2016-06-23,2016-08-17,55,"Summer","0.983","Yes",1.725,0.734309356,0.574313416811594,"None","Haydn Thomas",NA,"","61.03248_-138.40834"
"100","K70","Green","Kluane","Common Garden","CG_DT_HT_56",61.03248,-138.40834,792,1.973,8,2016-06-23,2016-08-18,56,"Summer","1.047","Yes",1.659,0.798309356,0.518800870403858,"None","Haydn Thomas",NA,"","61.03248_-138.40834"
"101","K71","Rooibos","Kluane","Common Garden","LWC_1",61.03248,-138.40834,792,2.209,8,2016-06-23,2016-08-14,52,"Summer","1.657","Yes",1.85,1.407943356,0.238949537297297,"Warming + Moisture","Eleanor Walker, Haydn Thomas",NA,"light water, cover","61.03248_-138.40834"
"102","K72","Rooibos","Kluane","Common Garden","LWC_1",61.03248,-138.40834,792,2.204,8,2016-06-23,2016-08-14,52,"Summer","1.669","Yes",1.845,1.419943356,0.230383004878049,"Warming + Moisture","Eleanor Walker, Haydn Thomas",NA,"light water, cover","61.03248_-138.40834"
"103","K73","Rooibos","Kluane","Common Garden","LWC_1",61.03248,-138.40834,792,2.274,8,2016-06-23,2016-08-14,52,"Summer","1.717","Yes",1.911,1.467943356,0.231845444270016,"Warming + Moisture","Eleanor Walker, Haydn Thomas",NA,"light water, cover","61.03248_-138.40834"
"104","K74","Rooibos","Kluane","Common Garden","LWC_1",61.03248,-138.40834,792,2.288,8,2016-06-23,2016-08-14,52,"Summer","1.694","Yes",1.925,1.444943356,0.249380074805195,"Warming + Moisture","Eleanor Walker, Haydn Thomas",NA,"light water, cover","61.03248_-138.40834"
"105","K75","Rooibos","Kluane","Common Garden","LWC_1",61.03248,-138.40834,792,2.245,8,2016-06-23,2016-08-14,52,"Summer","1.705","Yes",1.884,1.455943356,0.227206286624204,"Warming + Moisture","Eleanor Walker, Haydn Thomas",NA,"light water, cover","61.03248_-138.40834"
"106","K76","Rooibos","Kluane","Common Garden","LWC_1",61.03248,-138.40834,792,2.21,8,2016-06-23,2016-08-14,52,"Summer","1.673","Yes",1.851,1.423943356,0.230716717450027,"Warming + Moisture","Eleanor Walker, Haydn Thomas",NA,"light water, cover","61.03248_-138.40834"
"107","K77","Rooibos","Kluane","Common Garden","S_1",61.03248,-138.40834,792,2.188,8,2016-06-23,2016-08-14,52,"Summer","1.665","Yes",1.83,1.415943356,0.226260461202186,"Moisture","Eleanor Walker, Haydn Thomas",NA,"saturated","61.03248_-138.40834"
"108","K78","Rooibos","Kluane","Common Garden","S_1",61.03248,-138.40834,792,2.255,8,2016-06-23,2016-08-14,52,"Summer","1.565","Yes",1.893,1.315943356,0.30483710723719,"Moisture","Eleanor Walker, Haydn Thomas",NA,"saturated","61.03248_-138.40834"
"109","K79","Rooibos","Kluane","Common Garden","S_1",61.03248,-138.40834,792,2.258,8,2016-06-23,2016-08-14,52,"Summer","1.766","Yes",1.896,1.516943356,0.199924390295359,"Moisture","Eleanor Walker, Haydn Thomas",NA,"saturated","61.03248_-138.40834"
"110","K80","Rooibos","Kluane","Common Garden","S_1",61.03248,-138.40834,792,2.303,8,2016-06-23,2016-08-14,52,"Summer","1.806","Yes",1.939,1.556943356,0.197037980402269,"Moisture","Eleanor Walker, Haydn Thomas",NA,"saturated","61.03248_-138.40834"
"111","K81","Rooibos","Kluane","Common Garden","S_1",61.03248,-138.40834,792,2.205,8,2016-06-23,2016-08-14,52,"Summer","1.697","Yes",1.846,1.447943356,0.215631984832069,"Moisture","Eleanor Walker, Haydn Thomas",NA,"saturated","61.03248_-138.40834"
"112","K82","Rooibos","Kluane","Common Garden","S_1",61.03248,-138.40834,792,2.227,8,2016-06-23,2016-08-14,52,"Summer","1.686","Yes",1.867,1.436943356,0.230346354579539,"Moisture","Eleanor Walker, Haydn Thomas",NA,"saturated","61.03248_-138.40834"
"113","K83","Rooibos","Kluane","Common Garden","D_1",61.03248,-138.40834,792,2.153,8,2016-06-23,2016-08-14,52,"Summer","1.718","Yes",1.797,1.468943356,0.182557954368392,"None","Eleanor Walker, Haydn Thomas",NA,"disturbance","61.03248_-138.40834"
"114","K84","Rooibos","Kluane","Common Garden","D_1",61.03248,-138.40834,792,2.238,8,2016-06-23,2016-08-14,52,"Summer","1.854","Yes",1.877,1.604943356,0.144942271710176,"None","Eleanor Walker, Haydn Thomas",NA,"disturbance","61.03248_-138.40834"
"115","K85","Rooibos","Kluane","Common Garden","D_1",61.03248,-138.40834,792,2.174,8,2016-06-23,2016-08-14,52,"Summer","1.777","Yes",1.817,1.527943356,0.159084559163456,"None","Eleanor Walker, Haydn Thomas",NA,"disturbance","61.03248_-138.40834"
"116","K86","Rooibos","Kluane","Common Garden","D_1",61.03248,-138.40834,792,2.206,8,2016-06-23,2016-08-14,52,"Summer","1.804","Yes",1.847,1.554943356,0.158124874932323,"None","Eleanor Walker, Haydn Thomas",NA,"disturbance","61.03248_-138.40834"
"117","K87","Rooibos","Kluane","Common Garden","D_1",61.03248,-138.40834,792,2.234,8,2016-06-23,2016-08-14,52,"Summer","1.801","Yes",1.874,1.551943356,0.171855199573106,"None","Eleanor Walker, Haydn Thomas",NA,"disturbance","61.03248_-138.40834"
"118","K88","Rooibos","Kluane","Common Garden","D_1",61.03248,-138.40834,792,2.222,8,2016-06-23,2016-08-14,52,"Summer","1.817","Yes",1.862,1.567943356,0.157925157894737,"None","Eleanor Walker, Haydn Thomas",NA,"disturbance","61.03248_-138.40834"
"119","K89","Rooibos","Kluane","Common Garden","DC_1",61.03248,-138.40834,792,2.193,8,2016-06-23,2016-08-14,52,"Summer","1.79","Yes",1.835,1.540943356,0.160248852316076,"Warming","Eleanor Walker, Haydn Thomas",NA,"disturbance, cover","61.03248_-138.40834"
"120","K90","Rooibos","Kluane","Common Garden","DC_1",61.03248,-138.40834,792,2.278,8,2016-06-23,2016-08-14,52,"Summer","1.859","Yes",1.915,1.609943356,0.159298508616188,"Warming","Eleanor Walker, Haydn Thomas",NA,"disturbance, cover","61.03248_-138.40834"
"121","K91","Rooibos","Kluane","Common Garden","DC_1",61.03248,-138.40834,792,2.254,8,2016-06-23,2016-08-14,52,"Summer","1.881","Yes",1.893,1.631943356,0.137906309561542,"Warming","Eleanor Walker, Haydn Thomas",NA,"disturbance, cover","61.03248_-138.40834"
"122","K92","Rooibos","Kluane","Common Garden","DC_1",61.03248,-138.40834,792,2.175,8,2016-06-23,2016-08-14,52,"Summer","1.807","Yes",1.818,1.557943356,0.143045458745875,"Warming","Eleanor Walker, Haydn Thomas",NA,"disturbance, cover","61.03248_-138.40834"
"123","K93","Rooibos","Kluane","Common Garden","DC_1",61.03248,-138.40834,792,2.206,8,2016-06-23,2016-08-14,52,"Summer","1.817","Yes",1.847,1.567943356,0.15108643421765,"Warming","Eleanor Walker, Haydn Thomas",NA,"disturbance, cover","61.03248_-138.40834"
"124","K94","Rooibos","Kluane","Common Garden","DC_1",61.03248,-138.40834,792,2.174,8,2016-06-23,2016-08-14,52,"Summer","1.768","Yes",1.817,1.518943356,0.164037778756191,"Warming","Eleanor Walker, Haydn Thomas",NA,"disturbance, cover","61.03248_-138.40834"
"125","K95","Rooibos","Kluane","Common Garden","LW_1",61.03248,-138.40834,792,2.183,8,2016-06-23,2016-08-14,52,"Summer","1.684","Yes",1.826,1.434943356,0.214160265060241,"Moisture","Eleanor Walker, Haydn Thomas",NA,"light water","61.03248_-138.40834"
"126","K96","Rooibos","Kluane","Common Garden","LW_1",61.03248,-138.40834,792,2.189,8,2016-06-23,2016-08-14,52,"Summer","1.681","Yes",1.831,1.431943356,0.217944644456581,"Moisture","Eleanor Walker, Haydn Thomas",NA,"light water","61.03248_-138.40834"
"127","K97","Rooibos","Kluane","Common Garden","LW_1",61.03248,-138.40834,792,2.216,8,2016-06-23,2016-08-14,52,"Summer","1.671","Yes",1.857,1.421943356,0.234279291330102,"Moisture","Eleanor Walker, Haydn Thomas",NA,"light water","61.03248_-138.40834"
"128","K98","Rooibos","Kluane","Common Garden","LW_1",61.03248,-138.40834,792,2.277,8,2016-06-23,2016-08-14,52,"Summer","1.83","Yes",1.914,1.580943356,0.174010785788924,"Moisture","Eleanor Walker, Haydn Thomas",NA,"light water","61.03248_-138.40834"
"129","K99","Rooibos","Kluane","Common Garden","LW_1",61.03248,-138.40834,792,2.319,8,2016-06-23,2016-08-14,52,"Summer","1.819","Yes",1.954,1.569943356,0.196548947799386,"Moisture","Eleanor Walker, Haydn Thomas",NA,"light water","61.03248_-138.40834"
"130","K100","Rooibos","Kluane","Common Garden","LW_1",61.03248,-138.40834,792,2.199,8,2016-06-23,2016-08-14,52,"Summer","1.721","Yes",1.841,1.471943356,0.200465314502988,"Moisture","Eleanor Walker, Haydn Thomas",NA,"light water","61.03248_-138.40834"
"131","K101","Rooibos","Kluane","Common Garden","NWC_1",61.03248,-138.40834,792,2.301,8,2016-06-23,2016-08-14,52,"Summer","1.865","Yes",1.937,1.615943356,0.165749429013939,"Warming","Eleanor Walker, Haydn Thomas",NA,"no water, cover","61.03248_-138.40834"
"132","K102","Rooibos","Kluane","Common Garden","NWC_1",61.03248,-138.40834,792,2.2,8,2016-06-23,2016-08-14,52,"Summer","1.852","Yes",1.842,1.602943356,0.129781022801303,"Warming","Eleanor Walker, Haydn Thomas",NA,"no water, cover","61.03248_-138.40834"
"133","K103","Rooibos","Kluane","Common Garden","NWC_1",61.03248,-138.40834,792,2.228,8,2016-06-23,2016-08-14,52,"Summer","1.775","Yes",1.868,1.525943356,0.183113835117773,"Warming","Eleanor Walker, Haydn Thomas",NA,"no water, cover","61.03248_-138.40834"
"134","K104","Rooibos","Kluane","Common Garden","NWC_1",61.03248,-138.40834,792,2.223,8,2016-06-23,2016-08-14,52,"Summer","1.787","Yes",1.863,1.537943356,0.174480216854536,"Warming","Eleanor Walker, Haydn Thomas",NA,"no water, cover","61.03248_-138.40834"
"135","K105","Rooibos","Kluane","Common Garden","NWC_1",61.03248,-138.40834,792,2.23,8,2016-06-23,2016-08-14,52,"Summer","1.802","Yes",1.87,1.552943356,0.169549007486631,"Warming","Eleanor Walker, Haydn Thomas",NA,"no water, cover","61.03248_-138.40834"
"136","K106","Rooibos","Kluane","Common Garden","NWC_1",61.03248,-138.40834,792,2.28,8,2016-06-23,2016-08-14,52,"Summer","1.953","Yes",1.917,1.703943356,0.111140659363589,"Warming","Eleanor Walker, Haydn Thomas",NA,"no water, cover","61.03248_-138.40834"
"137","K107","Rooibos","Kluane","Common Garden","LWC_2",61.03248,-138.40834,792,2.245,8,2016-06-23,2016-08-14,52,"Summer","1.714","Yes",1.884,1.464943356,0.22242921656051,"Warming + Moisture","Eleanor Walker, Haydn Thomas",NA,"light water, cover","61.03248_-138.40834"
"138","K108","Rooibos","Kluane","Common Garden","LWC_2",61.03248,-138.40834,792,2.215,8,2016-06-23,2016-08-14,52,"Summer","1.758","Yes",1.856,1.508943356,0.186991726293103,"Warming + Moisture","Eleanor Walker, Haydn Thomas",NA,"light water, cover","61.03248_-138.40834"
"139","K109","Rooibos","Kluane","Common Garden","LWC_2",61.03248,-138.40834,792,2.119,8,2016-06-23,2016-08-14,52,"Summer","1.744","Yes",1.765,1.494943356,0.153006597167139,"Warming + Moisture","Eleanor Walker, Haydn Thomas",NA,"light water, cover","61.03248_-138.40834"
"140","K110","Rooibos","Kluane","Common Garden","LWC_2",61.03248,-138.40834,792,2.249,8,2016-06-23,2016-08-14,52,"Summer","1.775","Yes",1.888,1.525943356,0.191767290254237,"Warming + Moisture","Eleanor Walker, Haydn Thomas",NA,"light water, cover","61.03248_-138.40834"
"141","K111","Rooibos","Kluane","Common Garden","LWC_2",61.03248,-138.40834,792,2.292,8,2016-06-23,2016-08-14,52,"Summer","1.789","Yes",1.928,1.539943356,0.201274192946058,"Warming + Moisture","Eleanor Walker, Haydn Thomas",NA,"light water, cover","61.03248_-138.40834"
"142","K112","Rooibos","Kluane","Common Garden","LWC_2",61.03248,-138.40834,792,2.217,8,2016-06-23,2016-08-14,52,"Summer","1.745","Yes",1.858,1.495943356,0.194863640473628,"Warming + Moisture","Eleanor Walker, Haydn Thomas",NA,"light water, cover","61.03248_-138.40834"
"143","K113","Rooibos","Kluane","Common Garden","NWC_2",61.03248,-138.40834,792,2.196,8,2016-06-23,2016-08-14,52,"Summer","1.74","Yes",1.838,1.490943356,0.188822983677911,"Warming","Eleanor Walker, Haydn Thomas",NA,"no water, cover","61.03248_-138.40834"
"144","K114","Rooibos","Kluane","Common Garden","NWC_2",61.03248,-138.40834,792,2.22,8,2016-06-23,2016-08-14,52,"Summer","1.894","Yes",1.86,1.644943356,0.115621851612903,"Warming","Eleanor Walker, Haydn Thomas",NA,"no water, cover","61.03248_-138.40834"
"145","K115","Rooibos","Kluane","Common Garden","NWC_2",61.03248,-138.40834,792,2.279,8,2016-06-23,2016-08-14,52,"Summer","1.848","Yes",1.916,1.598943356,0.165478415448852,"Warming","Eleanor Walker, Haydn Thomas",NA,"no water, cover","61.03248_-138.40834"
"146","K116","Rooibos","Kluane","Common Garden","NWC_2",61.03248,-138.40834,792,2.292,8,2016-06-23,2016-08-14,52,"Summer","1.946","Yes",1.928,1.696943356,0.119842657676348,"Warming","Eleanor Walker, Haydn Thomas",NA,"no water, cover","61.03248_-138.40834"
"147","K117","Rooibos","Kluane","Common Garden","NWC_2",61.03248,-138.40834,792,2.189,8,2016-06-23,2016-08-14,52,"Summer","1.859","Yes",1.831,1.609943356,0.120730007646095,"Warming","Eleanor Walker, Haydn Thomas",NA,"no water, cover","61.03248_-138.40834"
"148","K118","Rooibos","Kluane","Common Garden","NWC_2",61.03248,-138.40834,792,2.293,8,2016-06-23,2016-08-14,52,"Summer","1.92","Yes",1.929,1.670943356,0.133777420425091,"Warming","Eleanor Walker, Haydn Thomas",NA,"no water, cover","61.03248_-138.40834"
"149","K119","Rooibos","Kluane","Common Garden","S_2",61.03248,-138.40834,792,2.31,8,2016-06-23,2016-08-14,52,"Summer","1.68","Yes",1.945,1.430943356,0.264296475064267,"Moisture","Eleanor Walker, Haydn Thomas",NA,"saturated","61.03248_-138.40834"
"150","K120","Rooibos","Kluane","Common Garden","S_2",61.03248,-138.40834,792,2.233,8,2016-06-23,2016-08-14,52,"Summer","1.69","Yes",1.873,1.440943356,0.230676264815804,"Moisture","Eleanor Walker, Haydn Thomas",NA,"saturated","61.03248_-138.40834"
"151","K121","Rooibos","Kluane","Common Garden","S_2",61.03248,-138.40834,792,2.222,8,2016-06-23,2016-08-14,52,"Summer","1.641","Yes",1.862,1.391943356,0.252447177228786,"Moisture","Eleanor Walker, Haydn Thomas",NA,"saturated","61.03248_-138.40834"
"152","K122","Rooibos","Kluane","Common Garden","S_2",61.03248,-138.40834,792,2.266,8,2016-06-23,2016-08-14,52,"Summer","1.694","Yes",1.904,1.444943356,0.241101178571429,"Moisture","Eleanor Walker, Haydn Thomas",NA,"saturated","61.03248_-138.40834"
"153","K123","Rooibos","Kluane","Common Garden","S_2",61.03248,-138.40834,792,2.266,8,2016-06-23,2016-08-14,52,"Summer","1.705","Yes",1.904,1.455943356,0.235323867647059,"Moisture","Eleanor Walker, Haydn Thomas",NA,"saturated","61.03248_-138.40834"
"154","K124","Rooibos","Kluane","Common Garden","S_2",61.03248,-138.40834,792,2.179,8,2016-06-23,2016-08-14,52,"Summer","1.642","Yes",1.822,1.392943356,0.235486632272228,"Moisture","Eleanor Walker, Haydn Thomas",NA,"saturated","61.03248_-138.40834"
"155","K125","Rooibos","Kluane","Common Garden","LW_2",61.03248,-138.40834,792,2.168,8,2016-06-23,2016-08-14,52,"Summer","1.711","Yes",1.811,1.461943356,0.192742487023744,"Moisture","Eleanor Walker, Haydn Thomas",NA,"light water","61.03248_-138.40834"
"156","K126","Rooibos","Kluane","Common Garden","LW_2",61.03248,-138.40834,792,2.21,8,2016-06-23,2016-08-14,52,"Summer","1.652","Yes",1.851,1.402943356,0.242061936250675,"Moisture","Eleanor Walker, Haydn Thomas",NA,"light water","61.03248_-138.40834"
"157","K127","Rooibos","Kluane","Common Garden","LW_2",61.03248,-138.40834,792,2.19,8,2016-06-23,2016-08-14,52,"Summer","1.683","Yes",1.832,1.433943356,0.217279827510917,"Moisture","Eleanor Walker, Haydn Thomas",NA,"light water","61.03248_-138.40834"
"158","K128","Rooibos","Kluane","Common Garden","LW_2",61.03248,-138.40834,792,2.254,8,2016-06-23,2016-08-14,52,"Summer","1.748","Yes",1.893,1.498943356,0.208165157950343,"Moisture","Eleanor Walker, Haydn Thomas",NA,"light water","61.03248_-138.40834"
"159","K129","Rooibos","Kluane","Common Garden","LW_2",61.03248,-138.40834,792,2.197,8,2016-06-23,2016-08-14,52,"Summer","1.791","Yes",1.839,1.541943356,0.161531617183252,"Moisture","Eleanor Walker, Haydn Thomas",NA,"light water","61.03248_-138.40834"
"160","K130","Rooibos","Kluane","Common Garden","LW_2",61.03248,-138.40834,792,2.236,8,2016-06-23,2016-08-14,52,"Summer","1.704","Yes",1.876,1.454943356,0.224443840085288,"Moisture","Eleanor Walker, Haydn Thomas",NA,"light water","61.03248_-138.40834"
"161","K131","Rooibos","Kluane","Common Garden","SC_1",61.03248,-138.40834,792,2.18,8,2016-06-23,2016-08-14,52,"Summer","1.679","Yes",1.823,1.429943356,0.215609788261108,"Warming + Moisture","Eleanor Walker, Haydn Thomas",NA,"saturated, cover","61.03248_-138.40834"
"162","K132","Rooibos","Kluane","Common Garden","SC_1",61.03248,-138.40834,792,2.282,8,2016-06-23,2016-08-14,52,"Summer","1.699","Yes",1.919,1.449943356,0.244427641479938,"Warming + Moisture","Eleanor Walker, Haydn Thomas",NA,"saturated, cover","61.03248_-138.40834"
"163","K133","Rooibos","Kluane","Common Garden","SC_1",61.03248,-138.40834,792,2.287,8,2016-06-23,2016-08-14,52,"Summer","1.78","Yes",1.924,1.530943356,0.204291395010395,"Warming + Moisture","Eleanor Walker, Haydn Thomas",NA,"saturated, cover","61.03248_-138.40834"
"164","K134","Rooibos","Kluane","Common Garden","SC_1",61.03248,-138.40834,792,2.284,8,2016-06-23,2016-08-14,52,"Summer","1.69","Yes",1.921,1.440943356,0.249899346173868,"Warming + Moisture","Eleanor Walker, Haydn Thomas",NA,"saturated, cover","61.03248_-138.40834"
"165","K135","Rooibos","Kluane","Common Garden","SC_1",61.03248,-138.40834,792,2.18,8,2016-06-23,2016-08-14,52,"Summer","1.656","Yes",1.823,1.406943356,0.228226354360944,"Warming + Moisture","Eleanor Walker, Haydn Thomas",NA,"saturated, cover","61.03248_-138.40834"
"166","K136","Rooibos","Kluane","Common Garden","SC_1",61.03248,-138.40834,792,2.177,8,2016-06-23,2016-08-14,52,"Summer","1.605","Yes",1.82,1.355943356,0.254976178021978,"Warming + Moisture","Eleanor Walker, Haydn Thomas",NA,"saturated, cover","61.03248_-138.40834"
"167","K137","Rooibos","Kluane","Common Garden","NW_1",61.03248,-138.40834,792,2.185,8,2016-06-23,2016-08-14,52,"Summer","1.817","Yes",1.827,1.567943356,0.141793455938697,"None","Eleanor Walker, Haydn Thomas",NA,"no water","61.03248_-138.40834"
"168","K138","Rooibos","Kluane","Common Garden","NW_1",61.03248,-138.40834,792,2.191,8,2016-06-23,2016-08-14,52,"Summer","1.795","Yes",1.833,1.545943356,0.15660482487725,"None","Eleanor Walker, Haydn Thomas",NA,"no water","61.03248_-138.40834"
"169","K139","Rooibos","Kluane","Common Garden","NW_1",61.03248,-138.40834,792,2.162,8,2016-06-23,2016-08-14,52,"Summer","1.777","Yes",1.806,1.527943356,0.153962704318937,"None","Eleanor Walker, Haydn Thomas",NA,"no water","61.03248_-138.40834"
"170","K140","Rooibos","Kluane","Common Garden","NW_1",61.03248,-138.40834,792,2.243,8,2016-06-23,2016-08-14,52,"Summer","1.889","Yes",1.882,1.639943356,0.128616707757705,"None","Eleanor Walker, Haydn Thomas",NA,"no water","61.03248_-138.40834"
"171","K141","Rooibos","Kluane","Common Garden","NW_1",61.03248,-138.40834,792,2.134,8,2016-06-23,2016-08-14,52,"Summer","1.747","Yes",1.779,1.497943356,0.157985747048904,"None","Eleanor Walker, Haydn Thomas",NA,"no water","61.03248_-138.40834"
"172","K142","Rooibos","Kluane","Common Garden","NW_1",61.03248,-138.40834,792,2.23,8,2016-06-23,2016-08-14,52,"Summer","1.776","Yes",1.87,1.526943356,0.183452750802139,"None","Eleanor Walker, Haydn Thomas",NA,"no water","61.03248_-138.40834"
"173","K143","Rooibos","Kluane","Common Garden","NW_2",61.03248,-138.40834,792,2.227,8,2016-06-23,2016-08-14,52,"Summer","1.778","Yes",1.867,1.528943356,0.181069439742903,"None","Eleanor Walker, Haydn Thomas",NA,"no water","61.03248_-138.40834"
"174","K144","Rooibos","Kluane","Common Garden","NW_2",61.03248,-138.40834,792,2.231,8,2016-06-23,2016-08-14,52,"Summer","1.776","Yes",1.871,1.526943356,0.183889173703902,"None","Eleanor Walker, Haydn Thomas",NA,"no water","61.03248_-138.40834"
"175","K145","Rooibos","Kluane","Common Garden","NW_2",61.03248,-138.40834,792,2.159,8,2016-06-23,2016-08-14,52,"Summer","1.706","Yes",1.803,1.456943356,0.191933801442041,"None","Eleanor Walker, Haydn Thomas",NA,"no water","61.03248_-138.40834"
"176","K146","Rooibos","Kluane","Common Garden","NW_2",61.03248,-138.40834,792,2.216,8,2016-06-23,2016-08-14,52,"Summer","1.771","Yes",1.857,1.521943356,0.180428995153473,"None","Eleanor Walker, Haydn Thomas",NA,"no water","61.03248_-138.40834"
"177","K147","Rooibos","Kluane","Common Garden","NW_2",61.03248,-138.40834,792,2.226,8,2016-06-23,2016-08-14,52,"Summer","1.764","Yes",1.866,1.514943356,0.188133249732047,"None","Eleanor Walker, Haydn Thomas",NA,"no water","61.03248_-138.40834"
"178","K148","Rooibos","Kluane","Common Garden","NW_2",61.03248,-138.40834,792,2.269,8,2016-06-23,2016-08-14,52,"Summer","1.84","Yes",1.907,1.590943356,0.165734999475616,"None","Eleanor Walker, Haydn Thomas",NA,"no water","61.03248_-138.40834"
"179","K149","Rooibos","Kluane","Common Garden","CTL_1",61.03248,-138.40834,792,2.196,8,2016-06-23,2016-08-14,52,"Summer","1.771","Yes",1.838,1.521943356,0.171956824809576,"None","Eleanor Walker, Haydn Thomas",NA,"","61.03248_-138.40834"
"180","K150","Rooibos","Kluane","Common Garden","CTL_1",61.03248,-138.40834,792,2.174,8,2016-06-23,2016-08-14,52,"Summer","1.715","Yes",1.817,1.465943356,0.193206738580077,"None","Eleanor Walker, Haydn Thomas",NA,"","61.03248_-138.40834"
"181","K151","Rooibos","Kluane","Common Garden","CTL_1",61.03248,-138.40834,792,2.239,8,2016-06-23,2016-08-14,52,"Summer","1.83","Yes",1.878,1.580943356,0.158177126730564,"None","Eleanor Walker, Haydn Thomas",NA,"","61.03248_-138.40834"
"182","K152","Rooibos","Kluane","Common Garden","CTL_1",61.03248,-138.40834,792,2.269,8,2016-06-23,2016-08-14,52,"Summer","1.805","Yes",1.907,1.555943356,0.184088434189827,"None","Eleanor Walker, Haydn Thomas",NA,"","61.03248_-138.40834"
"183","K153","Rooibos","Kluane","Common Garden","CTL_1",61.03248,-138.40834,792,2.161,8,2016-06-23,2016-08-14,52,"Summer","1.755","Yes",1.805,1.505943356,0.165682351246537,"None","Eleanor Walker, Haydn Thomas",NA,"","61.03248_-138.40834"
"184","K154","Rooibos","Kluane","Common Garden","CTL_1",61.03248,-138.40834,792,2.216,8,2016-06-23,2016-08-14,52,"Summer","1.775","Yes",1.857,1.525943356,0.178274983306408,"None","Eleanor Walker, Haydn Thomas",NA,"","61.03248_-138.40834"
"185","K155","Rooibos","Kluane","Common Garden","SC_2",61.03248,-138.40834,792,2.255,8,2016-06-23,2016-08-14,52,"Summer","1.777","Yes",1.893,1.527943356,0.192845559429477,"Warming + Moisture","Eleanor Walker, Haydn Thomas",NA,"saturated, cover","61.03248_-138.40834"
"186","K156","Rooibos","Kluane","Common Garden","SC_2",61.03248,-138.40834,792,2.225,8,2016-06-23,2016-08-14,52,"Summer","1.701","Yes",1.865,1.451943356,0.221478093297587,"Warming + Moisture","Eleanor Walker, Haydn Thomas",NA,"saturated, cover","61.03248_-138.40834"
"187","K157","Rooibos","Kluane","Common Garden","SC_2",61.03248,-138.40834,792,2.271,8,2016-06-23,2016-08-14,52,"Summer","1.744","Yes",1.909,1.494943356,0.216897141959141,"Warming + Moisture","Eleanor Walker, Haydn Thomas",NA,"saturated, cover","61.03248_-138.40834"
"188","K158","Rooibos","Kluane","Common Garden","SC_2",61.03248,-138.40834,792,2.195,8,2016-06-23,2016-08-14,52,"Summer","1.721","Yes",1.837,1.471943356,0.198724357103974,"Warming + Moisture","Eleanor Walker, Haydn Thomas",NA,"saturated, cover","61.03248_-138.40834"
"189","K159","Rooibos","Kluane","Common Garden","SC_2",61.03248,-138.40834,792,2.227,8,2016-06-23,2016-08-14,52,"Summer","1.689","Yes",1.867,1.439943356,0.228739498660953,"Warming + Moisture","Eleanor Walker, Haydn Thomas",NA,"saturated, cover","61.03248_-138.40834"
"190","K160","Rooibos","Kluane","Common Garden","SC_2",61.03248,-138.40834,792,2.289,8,2016-06-23,2016-08-14,52,"Summer","1.725","Yes",1.926,1.475943356,0.233674269989616,"Warming + Moisture","Eleanor Walker, Haydn Thomas",NA,"saturated, cover","61.03248_-138.40834"
"191","K161","Rooibos","Kluane","Common Garden","CTL_2",61.03248,-138.40834,792,2.323,8,2016-06-23,2016-08-14,52,"Summer","1.864","Yes",1.958,1.614943356,0.175207683350358,"None","Eleanor Walker, Haydn Thomas",NA,"","61.03248_-138.40834"
"192","K162","Rooibos","Kluane","Common Garden","CTL_2",61.03248,-138.40834,792,2.18,8,2016-06-23,2016-08-14,52,"Summer","1.739","Yes",1.823,1.489943356,0.182697007131103,"None","Eleanor Walker, Haydn Thomas",NA,"","61.03248_-138.40834"
"193","K163","Rooibos","Kluane","Common Garden","CTL_2",61.03248,-138.40834,792,2.304,8,2016-06-23,2016-08-14,52,"Summer","1.89","Yes",1.94,1.640943356,0.15415290927835,"None","Eleanor Walker, Haydn Thomas",NA,"","61.03248_-138.40834"
"194","K164","Rooibos","Kluane","Common Garden","CTL_2",61.03248,-138.40834,792,2.322,8,2016-06-23,2016-08-14,52,"Summer","1.905","Yes",1.957,1.655943356,0.153835791517629,"None","Eleanor Walker, Haydn Thomas",NA,"","61.03248_-138.40834"
"195","K165","Rooibos","Kluane","Common Garden","CTL_2",61.03248,-138.40834,792,2.208,8,2016-06-23,2016-08-14,52,"Summer","1.797","Yes",1.849,1.547943356,0.162821332612223,"None","Eleanor Walker, Haydn Thomas",NA,"","61.03248_-138.40834"
"196","K166","Rooibos","Kluane","Common Garden","CTL_2",61.03248,-138.40834,792,2.252,8,2016-06-23,2016-08-14,52,"Summer","1.817","Yes",1.891,1.567943356,0.170839050237969,"None","Eleanor Walker, Haydn Thomas",NA,"","61.03248_-138.40834"
"197","K167","Rooibos","Kluane","Common Garden","DC_2",61.03248,-138.40834,792,2.234,8,2016-06-23,2016-08-14,52,"Summer","1.827","Yes",1.874,1.577943356,0.157981133404482,"Warming","Eleanor Walker, Haydn Thomas",NA,"disturbance, cover","61.03248_-138.40834"
"198","K168","Rooibos","Kluane","Common Garden","DC_2",61.03248,-138.40834,792,2.264,8,2016-06-23,2016-08-14,52,"Summer","1.813","Yes",1.902,1.563943356,0.177737457413249,"Warming","Eleanor Walker, Haydn Thomas",NA,"disturbance, cover","61.03248_-138.40834"
"199","K169","Rooibos","Kluane","Common Garden","DC_2",61.03248,-138.40834,792,2.314,8,2016-06-23,2016-08-14,52,"Summer","1.839","Yes",1.949,1.589943356,0.184226087224218,"Warming","Eleanor Walker, Haydn Thomas",NA,"disturbance, cover","61.03248_-138.40834"
"200","K170","Rooibos","Kluane","Common Garden","DC_2",61.03248,-138.40834,792,2.325,8,2016-06-23,2016-08-14,52,"Summer","1.902","Yes",1.96,1.652943356,0.156661553061225,"Warming","Eleanor Walker, Haydn Thomas",NA,"disturbance, cover","61.03248_-138.40834"
"201","K171","Rooibos","Kluane","Common Garden","DC_2",61.03248,-138.40834,792,2.251,8,2016-06-23,2016-08-14,52,"Summer","1.887","Yes",1.89,1.637943356,0.133363303703704,"Warming","Eleanor Walker, Haydn Thomas",NA,"disturbance, cover","61.03248_-138.40834"
"202","K172","Rooibos","Kluane","Common Garden","DC_2",61.03248,-138.40834,792,2.246,8,2016-06-23,2016-08-14,52,"Summer","1.823","Yes",1.885,1.573943356,0.165016787267904,"Warming","Eleanor Walker, Haydn Thomas",NA,"disturbance, cover","61.03248_-138.40834"
"203","K173","Rooibos","Kluane","Common Garden","D_2",61.03248,-138.40834,792,2.266,8,2016-06-23,2016-08-14,52,"Summer","1.9","Yes",1.904,1.650943356,0.132907901260504,"None","Eleanor Walker, Haydn Thomas",NA,"disturbance","61.03248_-138.40834"
"204","K174","Rooibos","Kluane","Common Garden","D_2",61.03248,-138.40834,792,2.248,8,2016-06-23,2016-08-14,52,"Summer","1.824","Yes",1.887,1.574943356,0.165371830418654,"None","Eleanor Walker, Haydn Thomas",NA,"disturbance","61.03248_-138.40834"
"205","K175","Rooibos","Kluane","Common Garden","D_2",61.03248,-138.40834,792,2.286,8,2016-06-23,2016-08-14,52,"Summer","1.87","Yes",1.923,1.620943356,0.157075737909516,"None","Eleanor Walker, Haydn Thomas",NA,"disturbance","61.03248_-138.40834"
"206","K176","Rooibos","Kluane","Common Garden","D_2",61.03248,-138.40834,792,2.273,8,2016-06-23,2016-08-14,52,"Summer","1.834","Yes",1.91,1.584943356,0.17018672460733,"None","Eleanor Walker, Haydn Thomas",NA,"disturbance","61.03248_-138.40834"
"207","K177","Rooibos","Kluane","Common Garden","D_2",61.03248,-138.40834,792,2.287,8,2016-06-23,2016-08-14,52,"Summer","1.813","Yes",1.924,1.563943356,0.187139627858628,"None","Eleanor Walker, Haydn Thomas",NA,"disturbance","61.03248_-138.40834"
"208","K178","Rooibos","Kluane","Common Garden","D_2",61.03248,-138.40834,792,2.303,8,2016-06-23,2016-08-14,52,"Summer","1.811","Yes",1.939,1.561943356,0.194459331614234,"None","Eleanor Walker, Haydn Thomas",NA,"disturbance","61.03248_-138.40834"
"209","K181","Green","Kluane","Common Garden","LWC_1",61.03248,-138.40834,792,2.188,8,2016-06-23,2016-08-14,52,"Summer","0.862","Yes",1.866,0.613309356,0.671324032154341,"Warming + Moisture","Eleanor Walker, Haydn Thomas",NA,"light water, cover","61.03248_-138.40834"
"210","K182","Green","Kluane","Common Garden","LWC_1",61.03248,-138.40834,792,2.008,8,2016-06-23,2016-08-14,52,"Summer","0.882","Yes",1.692,0.633309356,0.625703690307329,"Warming + Moisture","Eleanor Walker, Haydn Thomas",NA,"light water, cover","61.03248_-138.40834"
"211","K183","Green","Kluane","Common Garden","LWC_1",61.03248,-138.40834,792,2.025,8,2016-06-23,2016-08-14,52,"Summer","0.763","Yes",1.709,0.514309356,0.699058305441779,"Warming + Moisture","Eleanor Walker, Haydn Thomas",NA,"light water, cover","61.03248_-138.40834"
"212","K184","Green","Kluane","Common Garden","LWC_1",61.03248,-138.40834,792,2.067,8,2016-06-23,2016-08-14,52,"Summer","0.789","Yes",1.749,0.540309356,0.69107526815323,"Warming + Moisture","Eleanor Walker, Haydn Thomas",NA,"light water, cover","61.03248_-138.40834"
"213","K185","Green","Kluane","Common Garden","LWC_1",61.03248,-138.40834,792,2.114,8,2016-06-23,2016-08-14,52,"Summer","0.779","Yes",1.794,0.530309356,0.704398352285396,"Warming + Moisture","Eleanor Walker, Haydn Thomas",NA,"light water, cover","61.03248_-138.40834"
"214","K186","Green","Kluane","Common Garden","LWC_1",61.03248,-138.40834,792,2.026,8,2016-06-23,2016-08-14,52,"Summer","0.785","Yes",1.71,0.536309356,0.686368797660819,"Warming + Moisture","Eleanor Walker, Haydn Thomas",NA,"light water, cover","61.03248_-138.40834"
"215","K187","Green","Kluane","Common Garden","S_1",61.03248,-138.40834,792,2.097,8,2016-06-23,2016-08-14,52,"Summer","1.005","Yes",1.778,0.756309356,0.574629158605174,"Moisture","Eleanor Walker, Haydn Thomas",NA,"saturated","61.03248_-138.40834"
"216","K188","Green","Kluane","Common Garden","S_1",61.03248,-138.40834,792,2.018,8,2016-06-23,2016-08-14,52,"Summer","1.115","Yes",1.702,0.866309356,0.491005078730905,"Moisture","Eleanor Walker, Haydn Thomas",NA,"saturated","61.03248_-138.40834"
"217","K189","Green","Kluane","Common Garden","S_1",61.03248,-138.40834,792,2.018,8,2016-06-23,2016-08-14,52,"Summer","1.035","Yes",1.702,0.786309356,0.5380086039953,"Moisture","Eleanor Walker, Haydn Thomas",NA,"saturated","61.03248_-138.40834"
"218","K190","Green","Kluane","Common Garden","S_1",61.03248,-138.40834,792,2.164,8,2016-06-23,2016-08-14,52,"Summer","1.206","Yes",1.843,0.957309356,0.480570072707542,"Moisture","Eleanor Walker, Haydn Thomas",NA,"saturated","61.03248_-138.40834"
"219","K191","Green","Kluane","Common Garden","S_1",61.03248,-138.40834,792,2.152,8,2016-06-23,2016-08-14,52,"Summer","1.098","Yes",1.831,0.849309356,0.536149996723102,"Moisture","Eleanor Walker, Haydn Thomas",NA,"saturated","61.03248_-138.40834"
"220","K192","Green","Kluane","Common Garden","S_1",61.03248,-138.40834,792,2.189,8,2016-06-23,2016-08-14,52,"Summer","1.129","Yes",1.867,0.880309356,0.528489900374933,"Moisture","Eleanor Walker, Haydn Thomas",NA,"saturated","61.03248_-138.40834"
"221","K193","Green","Kluane","Common Garden","D_1",61.03248,-138.40834,792,2.153,8,2016-06-23,2016-08-14,52,"Summer","0.941","Yes",1.832,0.692309356,0.622101879912664,"None","Eleanor Walker, Haydn Thomas",NA,"disturbance","61.03248_-138.40834"
"222","K194","Green","Kluane","Common Garden","D_1",61.03248,-138.40834,792,2.165,8,2016-06-23,2016-08-14,52,"Summer","0.979","Yes",1.844,0.730309356,0.603953711496746,"None","Eleanor Walker, Haydn Thomas",NA,"disturbance","61.03248_-138.40834"
"223","K195","Green","Kluane","Common Garden","D_1",61.03248,-138.40834,792,2.201,8,2016-06-23,2016-08-14,52,"Summer","1.106","Yes",1.878,0.857309356,0.543498745473908,"None","Eleanor Walker, Haydn Thomas",NA,"disturbance","61.03248_-138.40834"
"224","K196","Green","Kluane","Common Garden","D_1",61.03248,-138.40834,792,2.064,8,2016-06-23,2016-08-14,52,"Summer","0.84","Yes",1.746,0.591309356,0.661334847651776,"None","Eleanor Walker, Haydn Thomas",NA,"disturbance","61.03248_-138.40834"
"225","K197","Green","Kluane","Common Garden","D_1",61.03248,-138.40834,792,2.175,8,2016-06-23,2016-08-14,52,"Summer","1.033","Yes",1.853,0.784309356,0.576735371829466,"None","Eleanor Walker, Haydn Thomas",NA,"disturbance","61.03248_-138.40834"
"226","K198","Green","Kluane","Common Garden","D_1",61.03248,-138.40834,792,2.254,8,2016-06-23,2016-08-14,52,"Summer","0.86","Yes",1.929,0.611309356,0.683095201658891,"None","Eleanor Walker, Haydn Thomas",NA,"disturbance","61.03248_-138.40834"
"227","K199","Green","Kluane","Common Garden","DC_1",61.03248,-138.40834,792,2.141,8,2016-06-23,2016-08-14,52,"Summer","0.962","Yes",1.82,0.713309356,0.608071782417582,"Warming","Eleanor Walker, Haydn Thomas",NA,"disturbance, cover","61.03248_-138.40834"
"228","K200","Green","Kluane","Common Garden","DC_1",61.03248,-138.40834,792,2.072,8,2016-06-23,2016-08-14,52,"Summer","0.933","Yes",1.754,0.684309356,0.609857835803877,"Warming","Eleanor Walker, Haydn Thomas",NA,"disturbance, cover","61.03248_-138.40834"
"229","K201","Green","Kluane","Common Garden","DC_1",61.03248,-138.40834,792,2.159,8,2016-06-23,2016-08-14,52,"Summer","1.042","Yes",1.838,0.793309356,0.568384463547334,"Warming","Eleanor Walker, Haydn Thomas",NA,"disturbance, cover","61.03248_-138.40834"
"230","K202","Green","Kluane","Common Garden","DC_1",61.03248,-138.40834,792,2.133,8,2016-06-23,2016-08-14,52,"Summer","0.98","Yes",1.813,0.731309356,0.596630250413679,"Warming","Eleanor Walker, Haydn Thomas",NA,"disturbance, cover","61.03248_-138.40834"
"231","K203","Green","Kluane","Common Garden","DC_1",61.03248,-138.40834,792,2.055,8,2016-06-23,2016-08-14,52,"Summer","0.769","Yes",1.738,0.520309356,0.700627528193326,"Warming","Eleanor Walker, Haydn Thomas",NA,"disturbance, cover","61.03248_-138.40834"
"232","K204","Green","Kluane","Common Garden","DC_1",61.03248,-138.40834,792,2.076,8,2016-06-23,2016-08-14,52,"Summer","0.831","Yes",1.758,0.582309356,0.668766009101252,"Warming","Eleanor Walker, Haydn Thomas",NA,"disturbance, cover","61.03248_-138.40834"
"233","K205","Green","Kluane","Common Garden","LW_1",61.03248,-138.40834,792,2.108,8,2016-06-23,2016-08-14,52,"Summer","0.92","Yes",1.789,0.671309356,0.624757207378424,"Moisture","Eleanor Walker, Haydn Thomas",NA,"light water","61.03248_-138.40834"
"234","K206","Green","Kluane","Common Garden","LW_1",61.03248,-138.40834,792,2.243,8,2016-06-23,2016-08-14,52,"Summer","0.959","Yes",1.919,0.710309356,0.629854426263679,"Moisture","Eleanor Walker, Haydn Thomas",NA,"light water","61.03248_-138.40834"
"235","K207","Green","Kluane","Common Garden","LW_1",61.03248,-138.40834,792,2.058,8,2016-06-23,2016-08-14,52,"Summer","0.944","Yes",1.741,0.695309356,0.600626446869615,"Moisture","Eleanor Walker, Haydn Thomas",NA,"light water","61.03248_-138.40834"
"236","K208","Green","Kluane","Common Garden","LW_1",61.03248,-138.40834,792,2.044,8,2016-06-23,2016-08-14,52,"Summer","0.978","Yes",1.727,0.729309356,0.577701588882455,"Moisture","Eleanor Walker, Haydn Thomas",NA,"light water","61.03248_-138.40834"
"237","K209","Green","Kluane","Common Garden","LW_1",61.03248,-138.40834,792,2.162,8,2016-06-23,2016-08-14,52,"Summer","0.998","Yes",1.841,0.749309356,0.592987856599674,"Moisture","Eleanor Walker, Haydn Thomas",NA,"light water","61.03248_-138.40834"
"238","K210","Green","Kluane","Common Garden","LW_1",61.03248,-138.40834,792,2.248,8,2016-06-23,2016-08-14,52,"Summer","0.919","Yes",1.923,0.670309356,0.651425191887676,"Moisture","Eleanor Walker, Haydn Thomas",NA,"light water","61.03248_-138.40834"
"239","K211","Green","Kluane","Common Garden","NWC_1",61.03248,-138.40834,792,2.052,8,2016-06-23,2016-08-14,52,"Summer","0.91","Yes",1.735,0.661309356,0.618841869740634,"Warming","Eleanor Walker, Haydn Thomas",NA,"no water, cover","61.03248_-138.40834"
"240","K212","Green","Kluane","Common Garden","NWC_1",61.03248,-138.40834,792,2.103,8,2016-06-23,2016-08-14,52,"Summer","0.944","Yes",1.784,0.695309356,0.610252603139013,"Warming","Eleanor Walker, Haydn Thomas",NA,"no water, cover","61.03248_-138.40834"
"241","K213","Green","Kluane","Common Garden","NWC_1",61.03248,-138.40834,792,2.174,8,2016-06-23,2016-08-14,52,"Summer","0.949","Yes",1.852,0.700309356,0.621863198704104,"Warming","Eleanor Walker, Haydn Thomas",NA,"no water, cover","61.03248_-138.40834"
"242","K214","Green","Kluane","Common Garden","NWC_1",61.03248,-138.40834,792,2.112,8,2016-06-23,2016-08-14,52,"Summer","0.934","Yes",1.793,0.685309356,0.617786192972672,"Warming","Eleanor Walker, Haydn Thomas",NA,"no water, cover","61.03248_-138.40834"
"243","K215","Green","Kluane","Common Garden","NWC_1",61.03248,-138.40834,792,2.174,8,2016-06-23,2016-08-14,52,"Summer","0.972","Yes",1.852,0.723309356,0.609444192224622,"Warming","Eleanor Walker, Haydn Thomas",NA,"no water, cover","61.03248_-138.40834"
"244","K216","Green","Kluane","Common Garden","NWC_1",61.03248,-138.40834,792,2.205,8,2016-06-23,2016-08-14,52,"Summer","1.085","Yes",1.882,0.836309356,0.555627334750266,"Warming","Eleanor Walker, Haydn Thomas",NA,"no water, cover","61.03248_-138.40834"
"245","K217","Green","Kluane","Common Garden","LWC_2",61.03248,-138.40834,792,2.201,8,2016-06-23,2016-08-14,52,"Summer","0.925","Yes",1.878,0.676309356,0.639877872204473,"Warming + Moisture","Eleanor Walker, Haydn Thomas",NA,"light water, cover","61.03248_-138.40834"
"246","K218","Green","Kluane","Common Garden","LWC_2",61.03248,-138.40834,792,2.102,8,2016-06-23,2016-08-14,52,"Summer","0.837","Yes",1.783,0.588309356,0.670045229388671,"Warming + Moisture","Eleanor Walker, Haydn Thomas",NA,"light water, cover","61.03248_-138.40834"
"247","K219","Green","Kluane","Common Garden","LWC_2",61.03248,-138.40834,792,2.133,8,2016-06-23,2016-08-14,52,"Summer","0.946","Yes",1.813,0.697309356,0.615383697738555,"Warming + Moisture","Eleanor Walker, Haydn Thomas",NA,"light water, cover","61.03248_-138.40834"
"248","K220","Green","Kluane","Common Garden","LWC_2",61.03248,-138.40834,792,2.04,8,2016-06-23,2016-08-14,52,"Summer","0.937","Yes",1.723,0.688309356,0.600516914683691,"Warming + Moisture","Eleanor Walker, Haydn Thomas",NA,"light water, cover","61.03248_-138.40834"
"249","K221","Green","Kluane","Common Garden","LWC_2",61.03248,-138.40834,792,2.172,8,2016-06-23,2016-08-14,52,"Summer","0.908","Yes",1.85,0.659309356,0.643616564324324,"Warming + Moisture","Eleanor Walker, Haydn Thomas",NA,"light water, cover","61.03248_-138.40834"
"250","K222","Green","Kluane","Common Garden","LWC_2",61.03248,-138.40834,792,2.133,8,2016-06-23,2016-08-14,52,"Summer","0.816","Yes",1.813,0.567309356,0.687088055157198,"Warming + Moisture","Eleanor Walker, Haydn Thomas",NA,"light water, cover","61.03248_-138.40834"
"251","K223","Green","Kluane","Common Garden","NWC_2",61.03248,-138.40834,792,2.08,8,2016-06-23,2016-08-14,52,"Summer","1.022","Yes",1.762,0.773309356,0.561118413166856,"Warming","Eleanor Walker, Haydn Thomas",NA,"no water, cover","61.03248_-138.40834"
"252","K224","Green","Kluane","Common Garden","NWC_2",61.03248,-138.40834,792,2.118,8,2016-06-23,2016-08-14,52,"Summer","0.915","Yes",1.798,0.666309356,0.629416375973304,"Warming","Eleanor Walker, Haydn Thomas",NA,"no water, cover","61.03248_-138.40834"
"253","K225","Green","Kluane","Common Garden","NWC_2",61.03248,-138.40834,792,2.229,8,2016-06-23,2016-08-14,52,"Summer","1.214","Yes",1.905,0.965309356,0.493275928608924,"Warming","Eleanor Walker, Haydn Thomas",NA,"no water, cover","61.03248_-138.40834"
"254","K226","Green","Kluane","Common Garden","NWC_2",61.03248,-138.40834,792,2.171,8,2016-06-23,2016-08-14,52,"Summer","1.197","Yes",1.849,0.948309356,0.487123117360736,"Warming","Eleanor Walker, Haydn Thomas",NA,"no water, cover","61.03248_-138.40834"
"255","K227","Green","Kluane","Common Garden","NWC_2",61.03248,-138.40834,792,2.133,8,2016-06-23,2016-08-14,52,"Summer","1.074","Yes",1.813,0.825309356,0.544782484280198,"Warming","Eleanor Walker, Haydn Thomas",NA,"no water, cover","61.03248_-138.40834"
"256","K228","Green","Kluane","Common Garden","NWC_2",61.03248,-138.40834,792,2.116,8,2016-06-23,2016-08-14,52,"Summer","1.186","Yes",1.796,0.937309356,0.478112830734967,"Warming","Eleanor Walker, Haydn Thomas",NA,"no water, cover","61.03248_-138.40834"
"257","K229","Green","Kluane","Common Garden","S_2",61.03248,-138.40834,792,2.115,8,2016-06-23,2016-08-14,52,"Summer","0.962","Yes",1.795,0.713309356,0.602613172144847,"Moisture","Eleanor Walker, Haydn Thomas",NA,"saturated","61.03248_-138.40834"
"258","K230","Green","Kluane","Common Garden","S_2",61.03248,-138.40834,792,2.149,8,2016-06-23,2016-08-14,52,"Summer","0.906","Yes",1.828,0.657309356,0.640421577680525,"Moisture","Eleanor Walker, Haydn Thomas",NA,"saturated","61.03248_-138.40834"
"259","K231","Green","Kluane","Common Garden","S_2",61.03248,-138.40834,792,2.104,8,2016-06-23,2016-08-14,52,"Summer","1.001","Yes",1.785,0.752309356,0.578538175910364,"Moisture","Eleanor Walker, Haydn Thomas",NA,"saturated","61.03248_-138.40834"
"260","K232","Green","Kluane","Common Garden","S_2",61.03248,-138.40834,792,2.027,8,2016-06-23,2016-08-14,52,"Summer","0.858","Yes",1.711,0.609309356,0.643886992402104,"Moisture","Eleanor Walker, Haydn Thomas",NA,"saturated","61.03248_-138.40834"
"261","K233","Green","Kluane","Common Garden","S_2",61.03248,-138.40834,792,2.112,8,2016-06-23,2016-08-14,52,"Summer","0.894","Yes",1.793,0.645309356,0.640095172336866,"Moisture","Eleanor Walker, Haydn Thomas",NA,"saturated","61.03248_-138.40834"
"262","K234","Green","Kluane","Common Garden","S_2",61.03248,-138.40834,792,2.124,8,2016-06-23,2016-08-14,52,"Summer","0.869","Yes",1.804,0.620309356,0.656147807095344,"Moisture","Eleanor Walker, Haydn Thomas",NA,"saturated","61.03248_-138.40834"
"263","K235","Green","Kluane","Common Garden","LW_2",61.03248,-138.40834,792,2.123,8,2016-06-23,2016-08-14,52,"Summer","0.927","Yes",1.803,0.678309356,0.62378848807543,"Moisture","Eleanor Walker, Haydn Thomas",NA,"light water","61.03248_-138.40834"
"264","K236","Green","Kluane","Common Garden","LW_2",61.03248,-138.40834,792,2.068,8,2016-06-23,2016-08-14,52,"Summer","1.095","Yes",1.75,0.846309356,0.516394653714286,"Moisture","Eleanor Walker, Haydn Thomas",NA,"light water","61.03248_-138.40834"
"265","K237","Green","Kluane","Common Garden","LW_2",61.03248,-138.40834,792,2.082,8,2016-06-23,2016-08-14,52,"Summer","1.011","Yes",1.764,0.762309356,0.567851839002268,"Moisture","Eleanor Walker, Haydn Thomas",NA,"light water","61.03248_-138.40834"
"266","K238","Green","Kluane","Common Garden","LW_2",61.03248,-138.40834,792,2.067,8,2016-06-23,2016-08-14,52,"Summer","1.102","Yes",1.749,0.853309356,0.512115862778731,"Moisture","Eleanor Walker, Haydn Thomas",NA,"light water","61.03248_-138.40834"
"267","K239","Green","Kluane","Common Garden","LW_2",61.03248,-138.40834,792,2.122,8,2016-06-23,2016-08-14,52,"Summer","1.033","Yes",1.802,0.784309356,0.564756184239734,"Moisture","Eleanor Walker, Haydn Thomas",NA,"light water","61.03248_-138.40834"
"268","K240","Green","Kluane","Common Garden","LW_2",61.03248,-138.40834,792,2.094,8,2016-06-23,2016-08-14,52,"Summer","1.082","Yes",1.775,0.833309356,0.53052994028169,"Moisture","Eleanor Walker, Haydn Thomas",NA,"light water","61.03248_-138.40834"
"269","K241","Green","Kluane","Common Garden","SC_1",61.03248,-138.40834,792,1.989,8,2016-06-23,2016-08-14,52,"Summer","0.972","Yes",1.674,0.723309356,0.567915557945042,"Warming + Moisture","Eleanor Walker, Haydn Thomas",NA,"saturated, cover","61.03248_-138.40834"
"270","K242","Green","Kluane","Common Garden","SC_1",61.03248,-138.40834,792,2.03,8,2016-06-23,2016-08-14,52,"Summer","0.75","Yes",1.714,0.501309356,0.7075207957993,"Warming + Moisture","Eleanor Walker, Haydn Thomas",NA,"saturated, cover","61.03248_-138.40834"
"271","K243","Green","Kluane","Common Garden","SC_1",61.03248,-138.40834,792,2.029,8,2016-06-23,2016-08-14,52,"Summer","0.903","Yes",1.713,0.654309356,0.618033067133684,"Warming + Moisture","Eleanor Walker, Haydn Thomas",NA,"saturated, cover","61.03248_-138.40834"
"272","K244","Green","Kluane","Common Garden","SC_1",61.03248,-138.40834,792,2.088,8,2016-06-23,2016-08-14,52,"Summer","0.773","Yes",1.769,0.524309356,0.703612574335783,"Warming + Moisture","Eleanor Walker, Haydn Thomas",NA,"saturated, cover","61.03248_-138.40834"
"273","K245","Green","Kluane","Common Garden","SC_1",61.03248,-138.40834,792,2.007,8,2016-06-23,2016-08-14,52,"Summer","0.845","Yes",1.692,0.596309356,0.647571302600473,"Warming + Moisture","Eleanor Walker, Haydn Thomas",NA,"saturated, cover","61.03248_-138.40834"
"274","K246","Green","Kluane","Common Garden","SC_1",61.03248,-138.40834,792,2.132,8,2016-06-23,2016-08-14,52,"Summer","0.957","Yes",1.812,0.708309356,0.609100796909492,"Warming + Moisture","Eleanor Walker, Haydn Thomas",NA,"saturated, cover","61.03248_-138.40834"
"275","K247","Green","Kluane","Common Garden","NW_1",61.03248,-138.40834,792,2.011,8,2016-06-23,2016-08-14,52,"Summer","1.085","Yes",1.695,0.836309356,0.506602149852507,"None","Eleanor Walker, Haydn Thomas",NA,"no water","61.03248_-138.40834"
"276","K248","Green","Kluane","Common Garden","NW_1",61.03248,-138.40834,792,1.982,8,2016-06-23,2016-08-14,52,"Summer","0.916","Yes",1.667,0.667309356,0.599694447510498,"None","Eleanor Walker, Haydn Thomas",NA,"no water","61.03248_-138.40834"
"277","K249","Green","Kluane","Common Garden","NW_1",61.03248,-138.40834,792,1.993,8,2016-06-23,2016-08-14,52,"Summer","0.827","Yes",1.678,0.578309356,0.655357952324195,"None","Eleanor Walker, Haydn Thomas",NA,"no water","61.03248_-138.40834"
"278","K250","Green","Kluane","Common Garden","NW_1",61.03248,-138.40834,792,2.057,8,2016-06-23,2016-08-14,52,"Summer","1.282","Yes",1.74,1.033309356,0.406144048275862,"None","Eleanor Walker, Haydn Thomas",NA,"no water","61.03248_-138.40834"
"279","K251","Green","Kluane","Common Garden","NW_1",61.03248,-138.40834,792,2.07,8,2016-06-23,2016-08-14,52,"Summer","1.014","Yes",1.752,0.765309356,0.563179591324201,"None","Eleanor Walker, Haydn Thomas",NA,"no water","61.03248_-138.40834"
"280","K252","Green","Kluane","Common Garden","NW_1",61.03248,-138.40834,792,2.021,8,2016-06-23,2016-08-14,52,"Summer","0.992","Yes",1.705,0.743309356,0.564041433431085,"None","Eleanor Walker, Haydn Thomas",NA,"no water","61.03248_-138.40834"
"281","K253","Green","Kluane","Common Garden","NW_2",61.03248,-138.40834,792,1.975,8,2016-06-23,2016-08-14,52,"Summer","0.72","Yes",1.661,0.471309356,0.716249635159542,"None","Eleanor Walker, Haydn Thomas",NA,"no water","61.03248_-138.40834"
"282","K254","Green","Kluane","Common Garden","NW_2",61.03248,-138.40834,792,1.95,8,2016-06-23,2016-08-14,52,"Summer","0.805","Yes",1.637,0.556309356,0.660165329260843,"None","Eleanor Walker, Haydn Thomas",NA,"no water","61.03248_-138.40834"
"283","K255","Green","Kluane","Common Garden","NW_2",61.03248,-138.40834,792,1.972,8,2016-06-23,2016-08-14,52,"Summer","0.824","Yes",1.658,0.575309356,0.653010038600724,"None","Eleanor Walker, Haydn Thomas",NA,"no water","61.03248_-138.40834"
"284","K256","Green","Kluane","Common Garden","NW_2",61.03248,-138.40834,792,2.074,8,2016-06-23,2016-08-14,52,"Summer","0.83","Yes",1.756,0.581309356,0.668958225512528,"None","Eleanor Walker, Haydn Thomas",NA,"no water","61.03248_-138.40834"
"285","K257","Green","Kluane","Common Garden","NW_2",61.03248,-138.40834,792,2.149,8,2016-06-23,2016-08-14,52,"Summer","0.86","Yes",1.828,0.611309356,0.665585691466083,"None","Eleanor Walker, Haydn Thomas",NA,"no water","61.03248_-138.40834"
"286","K258","Green","Kluane","Common Garden","NW_2",61.03248,-138.40834,792,1.92,8,2016-06-23,2016-08-14,52,"Summer","0.82","Yes",1.608,0.571309356,0.644708111940299,"None","Eleanor Walker, Haydn Thomas",NA,"no water","61.03248_-138.40834"
"287","K259","Green","Kluane","Common Garden","CTL_1",61.03248,-138.40834,792,2.04,8,2016-06-23,2016-08-14,52,"Summer","0.849","Yes",1.723,0.600309356,0.651590623331399,"None","Eleanor Walker, Haydn Thomas",NA,"","61.03248_-138.40834"
"288","K260","Green","Kluane","Common Garden","CTL_1",61.03248,-138.40834,792,2.043,8,2016-06-23,2016-08-14,52,"Summer","1.072","Yes",1.726,0.823309356,0.522995738122827,"None","Eleanor Walker, Haydn Thomas",NA,"","61.03248_-138.40834"
"289","K261","Green","Kluane","Common Garden","CTL_1",61.03248,-138.40834,792,2.032,8,2016-06-23,2016-08-14,52,"Summer","1.206","Yes",1.716,0.957309356,0.442127414918415,"None","Eleanor Walker, Haydn Thomas",NA,"","61.03248_-138.40834"
"290","K262","Green","Kluane","Common Garden","CTL_1",61.03248,-138.40834,792,2.051,8,2016-06-23,2016-08-14,52,"Summer","0.969","Yes",1.734,0.720309356,0.584596680507497,"None","Eleanor Walker, Haydn Thomas",NA,"","61.03248_-138.40834"
"291","K263","Green","Kluane","Common Garden","CTL_1",61.03248,-138.40834,792,1.998,8,2016-06-23,2016-08-14,52,"Summer","1.162","Yes",1.683,0.913309356,0.457332527629234,"None","Eleanor Walker, Haydn Thomas",NA,"","61.03248_-138.40834"
"292","K264","Green","Kluane","Common Garden","CTL_1",61.03248,-138.40834,792,2.162,8,2016-06-23,2016-08-14,52,"Summer","0.906","Yes",1.841,0.657309356,0.64296069744704,"None","Eleanor Walker, Haydn Thomas",NA,"","61.03248_-138.40834"
"293","K265","Green","Kluane","Common Garden","SC_2",61.03248,-138.40834,792,2.011,8,2016-06-23,2016-08-14,52,"Summer","0.977","Yes",1.695,0.728309356,0.570318964011799,"Warming + Moisture","Eleanor Walker, Haydn Thomas",NA,"saturated, cover","61.03248_-138.40834"
"294","K266","Green","Kluane","Common Garden","SC_2",61.03248,-138.40834,792,2.153,8,2016-06-23,2016-08-14,52,"Summer","0.99","Yes",1.832,0.741309356,0.595355155021834,"Warming + Moisture","Eleanor Walker, Haydn Thomas",NA,"saturated, cover","61.03248_-138.40834"
"295","K267","Green","Kluane","Common Garden","SC_2",61.03248,-138.40834,792,2.013,8,2016-06-23,2016-08-14,52,"Summer","0.823","Yes",1.697,0.574309356,0.661573744254567,"Warming + Moisture","Eleanor Walker, Haydn Thomas",NA,"saturated, cover","61.03248_-138.40834"
"296","K268","Green","Kluane","Common Garden","SC_2",61.03248,-138.40834,792,1.95,8,2016-06-23,2016-08-14,52,"Summer","0.862","Yes",1.637,0.613309356,0.62534553695785,"Warming + Moisture","Eleanor Walker, Haydn Thomas",NA,"saturated, cover","61.03248_-138.40834"
"297","K269","Green","Kluane","Common Garden","SC_2",61.03248,-138.40834,792,2.105,8,2016-06-23,2016-08-14,52,"Summer","0.968","Yes",1.786,0.719309356,0.597251200447928,"Warming + Moisture","Eleanor Walker, Haydn Thomas",NA,"saturated, cover","61.03248_-138.40834"
"298","K270","Green","Kluane","Common Garden","SC_2",61.03248,-138.40834,792,2.128,8,2016-06-23,2016-08-14,52,"Summer","0.887","Yes",1.808,0.638309356,0.646952789823009,"Warming + Moisture","Eleanor Walker, Haydn Thomas",NA,"saturated, cover","61.03248_-138.40834"
"299","K271","Green","Kluane","Common Garden","CTL_2",61.03248,-138.40834,792,1.984,8,2016-06-23,2016-08-14,52,"Summer","0.837","Yes",1.669,0.588309356,0.647507875374476,"None","Eleanor Walker, Haydn Thomas",NA,"","61.03248_-138.40834"
"300","K272","Green","Kluane","Common Garden","CTL_2",61.03248,-138.40834,792,2.138,8,2016-06-23,2016-08-14,52,"Summer","1.073","Yes",1.818,0.824309356,0.546584512651265,"None","Eleanor Walker, Haydn Thomas",NA,"","61.03248_-138.40834"
"301","K273","Green","Kluane","Common Garden","CTL_2",61.03248,-138.40834,792,2.056,8,2016-06-23,2016-08-14,52,"Summer","1.107","Yes",1.739,0.858309356,0.50643510293272,"None","Eleanor Walker, Haydn Thomas",NA,"","61.03248_-138.40834"
"302","K274","Green","Kluane","Common Garden","CTL_2",61.03248,-138.40834,792,1.948,8,2016-06-23,2016-08-14,52,"Summer","0.927","Yes",1.635,0.678309356,0.58513189235474,"None","Eleanor Walker, Haydn Thomas",NA,"","61.03248_-138.40834"
"303","K275","Green","Kluane","Common Garden","CTL_2",61.03248,-138.40834,792,2.064,8,2016-06-23,2016-08-14,52,"Summer","0.737","Yes",1.746,0.488309356,0.72032682932417,"None","Eleanor Walker, Haydn Thomas",NA,"","61.03248_-138.40834"
"304","K276","Green","Kluane","Common Garden","CTL_2",61.03248,-138.40834,792,1.987,8,2016-06-23,2016-08-14,52,"Summer","0.825","Yes",1.672,0.576309356,0.655317370813397,"None","Eleanor Walker, Haydn Thomas",NA,"","61.03248_-138.40834"
"305","K277","Green","Kluane","Common Garden","DC_2",61.03248,-138.40834,792,1.867,8,2016-06-23,2016-08-14,52,"Summer","0.922","Yes",1.557,0.673309356,0.567559822736031,"Warming","Eleanor Walker, Haydn Thomas",NA,"disturbance, cover","61.03248_-138.40834"
"306","K278","Green","Kluane","Common Garden","DC_2",61.03248,-138.40834,792,2.11,8,2016-06-23,2016-08-14,52,"Summer","0.833","Yes",1.791,0.584309356,0.673752453378001,"Warming","Eleanor Walker, Haydn Thomas",NA,"disturbance, cover","61.03248_-138.40834"
"307","K279","Green","Kluane","Common Garden","DC_2",61.03248,-138.40834,792,2.134,8,2016-06-23,2016-08-14,52,"Summer","0.984","Yes",1.814,0.735309356,0.594647543550165,"Warming","Eleanor Walker, Haydn Thomas",NA,"disturbance, cover","61.03248_-138.40834"
"308","K280","Green","Kluane","Common Garden","DC_2",61.03248,-138.40834,792,1.944,8,2016-06-23,2016-08-14,52,"Summer","0.814","Yes",1.631,0.565309356,0.653397083997548,"Warming","Eleanor Walker, Haydn Thomas",NA,"disturbance, cover","61.03248_-138.40834"
"309","K281","Green","Kluane","Common Garden","DC_2",61.03248,-138.40834,792,2.114,8,2016-06-23,2016-08-14,52,"Summer","0.93","Yes",1.794,0.681309356,0.620228898550725,"Warming","Eleanor Walker, Haydn Thomas",NA,"disturbance, cover","61.03248_-138.40834"
"310","K282","Green","Kluane","Common Garden","DC_2",61.03248,-138.40834,792,2.012,8,2016-06-23,2016-08-14,52,"Summer","0.861","Yes",1.696,0.612309356,0.63896854009434,"Warming","Eleanor Walker, Haydn Thomas",NA,"disturbance, cover","61.03248_-138.40834"
"311","K283","Green","Kluane","Common Garden","D_2",61.03248,-138.40834,792,2.12,8,2016-06-23,2016-08-14,52,"Summer","1.071","Yes",1.8,0.822309356,0.543161468888889,"None","Eleanor Walker, Haydn Thomas",NA,"disturbance","61.03248_-138.40834"
"312","K284","Green","Kluane","Common Garden","D_2",61.03248,-138.40834,792,2.063,8,2016-06-23,2016-08-14,52,"Summer","0.96","Yes",1.745,0.711309356,0.592372861891117,"None","Eleanor Walker, Haydn Thomas",NA,"disturbance","61.03248_-138.40834"
"313","K285","Green","Kluane","Common Garden","D_2",61.03248,-138.40834,792,2.01,8,2016-06-23,2016-08-14,52,"Summer","0.888","Yes",1.694,0.639309356,0.622603685950413,"None","Eleanor Walker, Haydn Thomas",NA,"disturbance","61.03248_-138.40834"
"314","K286","Green","Kluane","Common Garden","D_2",61.03248,-138.40834,792,2.185,8,2016-06-23,2016-08-14,52,"Summer","1.03","Yes",1.863,0.781309356,0.58061762962963,"None","Eleanor Walker, Haydn Thomas",NA,"disturbance","61.03248_-138.40834"
"315","K287","Green","Kluane","Common Garden","D_2",61.03248,-138.40834,792,2.013,8,2016-06-23,2016-08-14,52,"Summer","0.881","Yes",1.697,0.632309356,0.62739578314673,"None","Eleanor Walker, Haydn Thomas",NA,"disturbance","61.03248_-138.40834"
"316","K288","Green","Kluane","Common Garden","D_2",61.03248,-138.40834,792,1.985,8,2016-06-23,2016-08-14,52,"Summer","0.857","Yes",1.67,0.608309356,0.635742900598802,"None","Eleanor Walker, Haydn Thomas",NA,"disturbance","61.03248_-138.40834"
"317","Cgr11","Rooibos","Kluane","Common Garden","CG_HT_year",61.03248,-138.40834,792,2.214,8,2015-06-20,2016-06-22,368,"Year","1.604","No",1.855,1.48046,0.201908355795148,"None","Haydn Thomas",NA,"","61.03248_-138.40834"
"318","Cgr12","Rooibos","Kluane","Common Garden","CG_HT_year",61.03248,-138.40834,792,2.235,8,2015-06-20,2016-06-22,368,"Year","1.468","No",1.875,1.34446,0.282954666666667,"None","Haydn Thomas",NA,"","61.03248_-138.40834"
"319","Cgr13","Rooibos","Kluane","Common Garden","CG_HT_year",61.03248,-138.40834,792,2.23,8,2015-06-20,2016-06-22,368,"Year","1.491","No",1.87,1.36746,0.268737967914439,"None","Haydn Thomas",NA,"","61.03248_-138.40834"
"320","Cgr14","Rooibos","Kluane","Common Garden","CG_HT_year",61.03248,-138.40834,792,2.29,8,2015-06-20,2016-06-22,368,"Year","1.560","No",1.927,1.43646,0.254561494551116,"None","Haydn Thomas",NA,"","61.03248_-138.40834"
"321","Cgr15","Rooibos","Kluane","Common Garden","CG_HT_year",61.03248,-138.40834,792,2.173,8,2015-06-20,2016-06-22,368,"Year","1.515","No",1.816,1.39146,0.233777533039648,"None","Haydn Thomas",NA,"","61.03248_-138.40834"
"322","Cgr16","Rooibos","Kluane","Common Garden","CG_HT_year",61.03248,-138.40834,792,2.286,8,2015-06-20,2016-06-22,368,"Year","1.613","No",1.923,1.48946,0.22544981799272,"None","Haydn Thomas",NA,"","61.03248_-138.40834"
"323","Cgr17","Rooibos","Kluane","Common Garden","CG_HT_year",61.03248,-138.40834,792,2.279,8,2015-06-20,2016-06-22,368,"Year","1.639","No",1.916,1.51546,0.209050104384134,"None","Haydn Thomas",NA,"","61.03248_-138.40834"
"324","Cgr18","Rooibos","Kluane","Common Garden","CG_HT_year",61.03248,-138.40834,792,2.195,8,2015-06-20,2016-06-22,368,"Year","1.567","No",1.837,1.44346,0.214229722373435,"None","Haydn Thomas",NA,"","61.03248_-138.40834"
"325","Cgr19","Rooibos","Kluane","Common Garden","CG_HT_year",61.03248,-138.40834,792,2.249,8,2015-06-20,2016-06-22,368,"Year","1.626","No",1.888,1.50246,0.204205508474576,"None","Haydn Thomas",NA,"","61.03248_-138.40834"
"326","Cgr20","Rooibos","Kluane","Common Garden","CG_HT_year",61.03248,-138.40834,792,2.313,8,2015-06-20,2016-06-22,368,"Year","1.672","No",1.948,1.54846,0.205102669404517,"None","Haydn Thomas",NA,"","61.03248_-138.40834"
"327","Cgg11","Green","Kluane","Common Garden","CG_HT_year",61.03248,-138.40834,792,2.104,8,2015-06-20,2016-06-22,368,"Year","0.662","No",1.785,0.53884,0.698128851540616,"None","Haydn Thomas",NA,"","61.03248_-138.40834"
"328","Cgg12","Green","Kluane","Common Garden","CG_HT_year",61.03248,-138.40834,792,2.178,8,2015-06-20,2016-06-22,368,"Year","0.655","No",1.856,0.53184,0.713448275862069,"None","Haydn Thomas",NA,"","61.03248_-138.40834"
"329","Cgg14","Green","Kluane","Common Garden","CG_HT_year",61.03248,-138.40834,792,2.045,8,2015-06-20,2016-06-22,368,"Year","0.646","No",1.728,0.52284,0.697430555555556,"None","Haydn Thomas",NA,"","61.03248_-138.40834"
"330","Cgg15","Green","Kluane","Common Garden","CG_HT_year",61.03248,-138.40834,792,1.875,8,2015-06-20,2016-06-22,368,"Year","0.684","No",1.565,0.56084,0.641635782747604,"None","Haydn Thomas",NA,"","61.03248_-138.40834"
"331","Cgg16","Green","Kluane","Common Garden","CG_HT_year",61.03248,-138.40834,792,2.11,8,2015-06-20,2016-06-22,368,"Year","0.643","No",1.791,0.51984,0.709748743718593,"None","Haydn Thomas",NA,"","61.03248_-138.40834"
"332","Cgg17","Green","Kluane","Common Garden","CG_HT_year",61.03248,-138.40834,792,2.096,8,2015-06-20,2016-06-22,368,"Year","0.681","No",1.777,0.55784,0.686077658975802,"None","Haydn Thomas",NA,"","61.03248_-138.40834"
"333","Cgg18","Green","Kluane","Common Garden","CG_HT_year",61.03248,-138.40834,792,2.065,8,2015-06-20,2016-06-22,368,"Year","0.795","No",1.747,0.67184,0.615432169433314,"None","Haydn Thomas",NA,"","61.03248_-138.40834"
"334","Cgg19","Green","Kluane","Common Garden","CG_HT_year",61.03248,-138.40834,792,2.076,8,2015-06-20,2016-06-22,368,"Year","0.862","No",1.758,0.73884,0.579726962457338,"None","Haydn Thomas",NA,"","61.03248_-138.40834"
"335","Cgg20","Green","Kluane","Common Garden","CG_HT_year",61.03248,-138.40834,792,2.084,8,2015-06-20,2016-06-22,368,"Year","0.764","No",1.766,0.64084,0.637123442808607,"None","Haydn Thomas",NA,"","61.03248_-138.40834"
"336","Cgg41","Green","Kluane","Common Garden","CG_HT_winter",61.03248,-138.40834,792,2.146,8,2015-08-17,2016-06-22,310,"Winter","1.115","No",1.825,0.99184,0.45652602739726,"None","Haydn Thomas",NA,"","61.03248_-138.40834"
"337","Cgg42","Green","Kluane","Common Garden","CG_HT_winter",61.03248,-138.40834,792,1.998,8,2015-08-17,2016-06-22,310,"Winter","1.062","No",1.683,0.93884,0.442162804515746,"None","Haydn Thomas",NA,"","61.03248_-138.40834"
"338","Cgg43","Green","Kluane","Common Garden","CG_HT_winter",61.03248,-138.40834,792,1.913,8,2015-08-17,2016-06-22,310,"Winter","1.071","No",1.601,0.94784,0.407970018738289,"None","Haydn Thomas",NA,"","61.03248_-138.40834"
"339","Cgg44","Green","Kluane","Common Garden","CG_HT_winter",61.03248,-138.40834,792,2.097,8,2015-08-17,2016-06-22,310,"Winter","1.109","No",1.778,0.98584,0.445534308211474,"None","Haydn Thomas",NA,"","61.03248_-138.40834"
"340","Cgg45","Green","Kluane","Common Garden","CG_HT_winter",61.03248,-138.40834,792,2.084,8,2015-08-17,2016-06-22,310,"Winter","1.067","No",1.766,0.94384,0.46554926387316,"None","Haydn Thomas",NA,"","61.03248_-138.40834"
"341","Cgg46","Green","Kluane","Common Garden","CG_HT_winter",61.03248,-138.40834,792,2.128,8,2015-08-17,2016-06-22,310,"Winter","1.044","No",1.808,0.92084,0.490685840707965,"None","Haydn Thomas",NA,"","61.03248_-138.40834"
"342","Cgg47","Green","Kluane","Common Garden","CG_HT_winter",61.03248,-138.40834,792,2.188,8,2015-08-17,2016-06-22,310,"Winter","1.156","No",1.866,1.03284,0.446495176848875,"None","Haydn Thomas",NA,"","61.03248_-138.40834"
"343","Cgg48","Green","Kluane","Common Garden","CG_HT_winter",61.03248,-138.40834,792,2.184,8,2015-08-17,2016-06-22,310,"Winter","1.108","No",1.862,0.98484,0.471084854994629,"None","Haydn Thomas",NA,"","61.03248_-138.40834"
"344","Cgg49","Green","Kluane","Common Garden","CG_HT_winter",61.03248,-138.40834,792,2.003,8,2015-08-17,2016-06-22,310,"Winter","0.985","No",1.688,0.86184,0.489431279620853,"None","Haydn Thomas",NA,"","61.03248_-138.40834"
"345","Cgg50","Green","Kluane","Common Garden","CG_HT_winter",61.03248,-138.40834,792,2.086,8,2015-08-17,2016-06-22,310,"Winter","1.164","No",1.768,1.04084,0.411289592760181,"None","Haydn Thomas",NA,"","61.03248_-138.40834"
"346","Cgr41","Rooibos","Kluane","Common Garden","CG_HT_winter",61.03248,-138.40834,792,2.208,8,2015-08-17,2016-06-22,310,"Winter","1.679","No",1.849,1.55546,0.15875608436993,"None","Haydn Thomas",NA,"","61.03248_-138.40834"
"347","Cgr42","Rooibos","Kluane","Common Garden","CG_HT_winter",61.03248,-138.40834,792,2.243,8,2015-08-17,2016-06-22,310,"Winter","1.594","No",1.882,1.47046,0.218671625929862,"None","Haydn Thomas",NA,"","61.03248_-138.40834"
"348","Cgr43","Rooibos","Kluane","Common Garden","CG_HT_winter",61.03248,-138.40834,792,2.274,8,2015-08-17,2016-06-22,310,"Winter","1.761","No",1.911,1.63746,0.143139717425432,"None","Haydn Thomas",NA,"","61.03248_-138.40834"
"349","Cgr44","Rooibos","Kluane","Common Garden","CG_HT_winter",61.03248,-138.40834,792,2.188,8,2015-08-17,2016-06-22,310,"Winter","1.658","No",1.83,1.53446,0.161497267759563,"None","Haydn Thomas",NA,"","61.03248_-138.40834"
"350","Cgr45","Rooibos","Kluane","Common Garden","CG_HT_winter",61.03248,-138.40834,792,2.24,8,2015-08-17,2016-06-22,310,"Winter","1.665","No",1.879,1.54146,0.1796381053752,"None","Haydn Thomas",NA,"","61.03248_-138.40834"
"351","Cgr46","Rooibos","Kluane","Common Garden","CG_HT_winter",61.03248,-138.40834,792,2.287,8,2015-08-17,2016-06-22,310,"Winter","1.614","No",1.924,1.49046,0.22533264033264,"None","Haydn Thomas",NA,"","61.03248_-138.40834"
"352","Cgr47","Rooibos","Kluane","Common Garden","CG_HT_winter",61.03248,-138.40834,792,2.292,8,2015-08-17,2016-06-22,310,"Winter","1.707","No",1.928,1.58346,0.178703319502075,"None","Haydn Thomas",NA,"","61.03248_-138.40834"
"353","Cgr48","Rooibos","Kluane","Common Garden","CG_HT_winter",61.03248,-138.40834,792,2.236,8,2015-08-17,2016-06-22,310,"Winter","1.725","No",1.876,1.60146,0.146343283582089,"None","Haydn Thomas",NA,"","61.03248_-138.40834"
"354","Cgr49","Rooibos","Kluane","Common Garden","CG_HT_winter",61.03248,-138.40834,792,2.216,8,2015-08-17,2016-06-22,310,"Winter","1.662","No",1.857,1.53846,0.171534733441034,"None","Haydn Thomas",NA,"","61.03248_-138.40834"
"355","Cgr50","Rooibos","Kluane","Common Garden","CG_HT_winter",61.03248,-138.40834,792,2.168,8,2015-08-17,2016-06-22,310,"Winter","1.583","No",1.811,1.45946,0.194113749309774,"None","Haydn Thomas",NA,"","61.03248_-138.40834"
"356","DCG11","Green","Kluane","Common Garden","DC_HT_1yr",61.03248,-138.40834,792,2.091,8,2015-07-21,2016-07-12,357,"Year","1.181","No",1.772,1.05784,0.403024830699774,"None","Haydn Thomas",NA,"Decomp Experiment","61.03248_-138.40834"
"357","DCG12","Green","Kluane","Common Garden","DC_HT_1yr",61.03248,-138.40834,792,2.174,8,2015-07-21,2016-07-12,357,"Year","0.963","No",1.852,0.83984,0.546522678185745,"None","Haydn Thomas",NA,"Decomp Experiment","61.03248_-138.40834"
"358","DCG13","Green","Kluane","Common Garden","DC_HT_1yr",61.03248,-138.40834,792,2.173,8,2015-07-21,2016-07-12,357,"Year","1.062","No",1.851,0.93884,0.492793084819017,"None","Haydn Thomas",NA,"Decomp Experiment","61.03248_-138.40834"
"359","DCG14","Green","Kluane","Common Garden","DC_HT_1yr",61.03248,-138.40834,792,2.095,8,2015-07-21,2016-07-12,357,"Year","0.952","No",1.776,0.82884,0.533310810810811,"None","Haydn Thomas",NA,"Decomp Experiment","61.03248_-138.40834"
"360","DCG15","Green","Kluane","Common Garden","DC_HT_1yr",61.03248,-138.40834,792,2.08,8,2015-07-21,2016-07-12,357,"Year","0.651","No",1.762,0.52784,0.700431328036322,"None","Haydn Thomas",NA,"Decomp Experiment","61.03248_-138.40834"
"361","DCG16","Green","Kluane","Common Garden","DC_HT_1yr",61.03248,-138.40834,792,2.153,8,2015-07-21,2016-07-12,357,"Year","1.050","No",1.832,0.92684,0.494082969432314,"None","Haydn Thomas",NA,"Decomp Experiment","61.03248_-138.40834"
"362","DCG17","Green","Kluane","Common Garden","DC_HT_1yr",61.03248,-138.40834,792,2.035,8,2015-07-21,2016-07-12,357,"Year","0.852","No",1.718,0.72884,0.575762514551804,"None","Haydn Thomas",NA,"Decomp Experiment","61.03248_-138.40834"
"363","DCG18","Green","Kluane","Common Garden","DC_HT_1yr",61.03248,-138.40834,792,2.044,8,2015-07-21,2016-07-12,357,"Year","0.930","No",1.727,0.80684,0.532808338158657,"None","Haydn Thomas",NA,"Decomp Experiment","61.03248_-138.40834"
"364","DCG19","Green","Kluane","Common Garden","DC_HT_1yr",61.03248,-138.40834,792,2.081,8,2015-07-21,2016-07-12,357,"Year","1.040","No",1.763,0.91684,0.479954622802042,"None","Haydn Thomas",NA,"Decomp Experiment","61.03248_-138.40834"
"365","DCG20","Green","Kluane","Common Garden","DC_HT_1yr",61.03248,-138.40834,792,2.071,8,2015-07-21,2016-07-12,357,"Year","1.082","No",1.753,0.95884,0.453029092983457,"None","Haydn Thomas",NA,"Decomp Experiment","61.03248_-138.40834"
"366","DCR11","Rooibos","Kluane","Common Garden","DC_HT_1yr",61.03248,-138.40834,792,2.293,8,2015-07-21,2016-07-12,357,"Year","1.482","No",1.929,1.35846,0.295769828926905,"None","Haydn Thomas",NA,"Decomp Experiment","61.03248_-138.40834"
"367","DCR12","Rooibos","Kluane","Common Garden","DC_HT_1yr",61.03248,-138.40834,792,2.234,8,2015-07-21,2016-07-12,357,"Year","1.665","No",1.874,1.54146,0.177449306296692,"None","Haydn Thomas",NA,"Decomp Experiment","61.03248_-138.40834"
"368","DCR13","Rooibos","Kluane","Common Garden","DC_HT_1yr",61.03248,-138.40834,792,2.29,8,2015-07-21,2016-07-12,357,"Year","1.688","No",1.927,1.56446,0.188137000518941,"None","Haydn Thomas",NA,"Decomp Experiment","61.03248_-138.40834"
"369","DCR14","Rooibos","Kluane","Common Garden","DC_HT_1yr",61.03248,-138.40834,792,2.257,8,2015-07-21,2016-07-12,357,"Year","1.573","No",1.895,1.44946,0.23511345646438,"None","Haydn Thomas",NA,"Decomp Experiment","61.03248_-138.40834"
"370","DCR15","Rooibos","Kluane","Common Garden","DC_HT_1yr",61.03248,-138.40834,792,2.296,8,2015-07-21,2016-07-12,357,"Year","1.641","No",1.932,1.51746,0.214565217391304,"None","Haydn Thomas",NA,"Decomp Experiment","61.03248_-138.40834"
"371","DCR16","Rooibos","Kluane","Common Garden","DC_HT_1yr",61.03248,-138.40834,792,2.311,8,2015-07-21,2016-07-12,357,"Year","1.681","No",1.946,1.55746,0.199660842754368,"None","Haydn Thomas",NA,"Decomp Experiment","61.03248_-138.40834"
"372","DCR17","Rooibos","Kluane","Common Garden","DC_HT_1yr",61.03248,-138.40834,792,2.239,8,2015-07-21,2016-07-12,357,"Year","1.575","No",1.878,1.45146,0.227124600638978,"None","Haydn Thomas",NA,"Decomp Experiment","61.03248_-138.40834"
"373","DCR18","Rooibos","Kluane","Common Garden","DC_HT_1yr",61.03248,-138.40834,792,2.289,8,2015-07-21,2016-07-12,357,"Year","1.602","No",1.926,1.47846,0.232367601246106,"None","Haydn Thomas",NA,"Decomp Experiment","61.03248_-138.40834"
"374","DCR19","Rooibos","Kluane","Common Garden","DC_HT_1yr",61.03248,-138.40834,792,2.288,8,2015-07-21,2016-07-12,357,"Year","1.648","No",1.925,1.52446,0.208072727272727,"None","Haydn Thomas",NA,"Decomp Experiment","61.03248_-138.40834"
"375","DCR20","Rooibos","Kluane","Common Garden","DC_HT_1yr",61.03248,-138.40834,792,2.295,8,2015-07-21,2016-07-12,357,"Year","1.642","No",1.931,1.51846,0.213640600725013,"None","Haydn Thomas",NA,"Decomp Experiment","61.03248_-138.40834"
"376","Cgr1","Rooibos","Kluane","Common Garden","CG_Y1_3m",61.03248,-138.40834,792,2.253,8,2015-06-20,2015-08-17,58,"Summer","1.848","Yes",1.892,1.598943356,0.154892517970402,"None","Haydn Thomas",NA,"","61.03248_-138.40834"
"377","Cgr2","Rooibos","Kluane","Common Garden","CG_Y1_3m",61.03248,-138.40834,792,2.224,8,2015-06-20,2015-08-17,58,"Summer","1.819","Yes",1.864,1.569943356,0.157755710300429,"None","Haydn Thomas",NA,"","61.03248_-138.40834"
"378","Cgr3","Rooibos","Kluane","Common Garden","CG_Y1_3m",61.03248,-138.40834,792,2.25,8,2015-06-20,2015-08-17,58,"Summer","1.723","Yes",1.889,1.473943356,0.219722945473796,"None","Haydn Thomas",NA,"","61.03248_-138.40834"
"379","Cgr4","Rooibos","Kluane","Common Garden","CG_Y1_3m",61.03248,-138.40834,792,2.283,8,2015-06-20,2015-08-17,58,"Summer","1.778","Yes",1.92,1.528943356,0.203675335416667,"None","Haydn Thomas",NA,"","61.03248_-138.40834"
"380","Cgr5","Rooibos","Kluane","Common Garden","CG_Y1_3m",61.03248,-138.40834,792,2.316,8,2015-06-20,2015-08-17,58,"Summer","1.853","Yes",1.951,1.603943356,0.177886542286007,"None","Haydn Thomas",NA,"","61.03248_-138.40834"
"381","Cgr6","Rooibos","Kluane","Common Garden","CG_Y1_3m",61.03248,-138.40834,792,2.207,8,2015-06-20,2015-08-17,58,"Summer","1.810","Yes",1.848,1.560943356,0.155333681818182,"None","Haydn Thomas",NA,"","61.03248_-138.40834"
"382","Cgr7","Rooibos","Kluane","Common Garden","CG_Y1_3m",61.03248,-138.40834,792,2.256,8,2015-06-20,2015-08-17,58,"Summer","1.963","Yes",1.894,1.713943356,0.0950668658922914,"None","Haydn Thomas",NA,"","61.03248_-138.40834"
"383","Cgr8","Rooibos","Kluane","Common Garden","CG_Y1_3m",61.03248,-138.40834,792,2.284,8,2015-06-20,2015-08-17,58,"Summer","1.954","Yes",1.921,1.704943356,0.112470923477356,"None","Haydn Thomas",NA,"","61.03248_-138.40834"
"384","Cgr9","Rooibos","Kluane","Common Garden","CG_Y1_3m",61.03248,-138.40834,792,2.284,8,2015-06-20,2015-08-17,58,"Summer","1.819","Yes",1.921,1.569943356,0.182746821447163,"None","Haydn Thomas",NA,"","61.03248_-138.40834"
"385","Cgr10","Rooibos","Kluane","Common Garden","CG_Y1_3m",61.03248,-138.40834,792,2.329,8,2015-06-20,2015-08-17,58,"Summer","1.887","Yes",1.963,1.637943356,0.165591769740194,"None","Haydn Thomas",NA,"","61.03248_-138.40834"
"386","Cgg1","Green","Kluane","Common Garden","CG_Y1_3m",61.03248,-138.40834,792,2.049,8,2015-06-20,2015-08-17,58,"Summer","0.964","Yes",1.732,0.715309356,0.587003836027714,"None","Haydn Thomas",NA,"","61.03248_-138.40834"
"387","Cgg2","Green","Kluane","Common Garden","CG_Y1_3m",61.03248,-138.40834,792,2.061,8,2015-06-20,2015-08-17,58,"Summer","0.829","Yes",1.743,0.580309356,0.667062905335628,"None","Haydn Thomas",NA,"","61.03248_-138.40834"
"388","Cgg3","Green","Kluane","Common Garden","CG_Y1_3m",61.03248,-138.40834,792,2.113,8,2015-06-20,2015-08-17,58,"Summer","0.996","Yes",1.793,0.747309356,0.583207274958171,"None","Haydn Thomas",NA,"","61.03248_-138.40834"
"389","Cgg4","Green","Kluane","Common Garden","CG_Y1_3m",61.03248,-138.40834,792,2.127,8,2015-06-20,2015-08-17,58,"Summer","0.945","Yes",1.807,0.696309356,0.614660013281682,"None","Haydn Thomas",NA,"","61.03248_-138.40834"
"390","Cgg5","Green","Kluane","Common Garden","CG_Y1_3m",61.03248,-138.40834,792,2.148,8,2015-06-20,2015-08-17,58,"Summer","0.821","Yes",1.827,0.572309356,0.686749120963328,"None","Haydn Thomas",NA,"","61.03248_-138.40834"
"391","Cgg6","Green","Kluane","Common Garden","CG_Y1_3m",61.03248,-138.40834,792,2.117,8,2015-06-20,2015-08-17,58,"Summer","0.963","Yes",1.797,0.714309356,0.602498967167501,"None","Haydn Thomas",NA,"","61.03248_-138.40834"
"392","Cgg7","Green","Kluane","Common Garden","CG_Y1_3m",61.03248,-138.40834,792,2.169,8,2015-06-20,2015-08-17,58,"Summer","0.910","Yes",1.847,0.661309356,0.641954869518138,"None","Haydn Thomas",NA,"","61.03248_-138.40834"
"393","Cgg8","Green","Kluane","Common Garden","CG_Y1_3m",61.03248,-138.40834,792,2.116,8,2015-06-20,2015-08-17,58,"Summer","0.993","Yes",1.796,0.744309356,0.585573855233853,"None","Haydn Thomas",NA,"","61.03248_-138.40834"
"394","Cgg9","Green","Kluane","Common Garden","CG_Y1_3m",61.03248,-138.40834,792,2.172,8,2015-06-20,2015-08-17,58,"Summer","1.038","Yes",1.85,0.789309356,0.573346294054054,"None","Haydn Thomas",NA,"","61.03248_-138.40834"
"395","Cgg10","Green","Kluane","Common Garden","CG_Y1_3m",61.03248,-138.40834,792,2.171,8,2015-06-20,2015-08-17,58,"Summer","0.954","Yes",1.849,0.705309356,0.618545507842077,"None","Haydn Thomas",NA,"","61.03248_-138.40834"
"396","1A1","Green","Kluane","Kluane Elevation Transect 1","1A",61.00889,-138.42467,794,2.136,8,2016-06-24,2016-08-13,50,"Summer","1.525","Yes",1.816,1.276309356,0.297186477973568,"None","Eleanor Walker, Haydn Thomas",NA,"","61.00889_-138.42467"
"397","1A2","Green","Kluane","Kluane Elevation Transect 1","1A",61.00889,-138.42467,794,2.056,8,2016-06-24,2016-08-13,50,"Summer","1.196","Yes",1.739,0.947309356,0.455256264519839,"None","Eleanor Walker, Haydn Thomas",NA,"","61.00889_-138.42467"
"398","1A3","Green","Kluane","Kluane Elevation Transect 1","1A",61.00889,-138.42467,794,2.128,8,2016-06-24,2016-08-13,50,"Summer","1.258","Yes",1.808,1.009309356,0.441753674778761,"None","Eleanor Walker, Haydn Thomas",NA,"","61.00889_-138.42467"
"399","1A4","Green","Kluane","Kluane Elevation Transect 1","1A",61.00889,-138.42467,794,2.058,8,2016-06-24,2016-08-13,50,"Summer","1.299","Yes",1.741,1.050309356,0.396720645605974,"None","Eleanor Walker, Haydn Thomas",NA,"","61.00889_-138.42467"
"400","1M1","Green","Kluane","Kluane Elevation Transect 1","1M",61.00889,-138.42467,794,2.117,8,2016-06-24,2016-08-13,50,"Summer","1.147","Yes",1.797,0.898309356,0.50010609015025,"Moisture","Eleanor Walker, Haydn Thomas",NA,"","61.00889_-138.42467"
"401","1M2","Green","Kluane","Kluane Elevation Transect 1","1M",61.00889,-138.42467,794,2.129,8,2016-06-24,2016-08-13,50,"Summer","1.246","Yes",1.809,0.997309356,0.448695767827529,"Moisture","Eleanor Walker, Haydn Thomas",NA,"","61.00889_-138.42467"
"402","1M3","Green","Kluane","Kluane Elevation Transect 1","1M",61.00889,-138.42467,794,2.065,8,2016-06-24,2016-08-13,50,"Summer","1.2","Yes",1.747,0.951309356,0.455461158557527,"Moisture","Eleanor Walker, Haydn Thomas",NA,"","61.00889_-138.42467"
"403","1M4","Green","Kluane","Kluane Elevation Transect 1","1M",61.00889,-138.42467,794,2.11,8,2016-06-24,2016-08-13,50,"Summer","1.18","Yes",1.791,0.931309356,0.480005943048576,"Moisture","Eleanor Walker, Haydn Thomas",NA,"","61.00889_-138.42467"
"404","1T1","Green","Kluane","Kluane Elevation Transect 1","1T",61.00889,-138.42467,794,2.16,8,2016-06-24,2016-08-13,50,"Summer","1.366","Yes",1.839,1.117309356,0.392436456769984,"Warming","Eleanor Walker, Haydn Thomas",NA,"","61.00889_-138.42467"
"405","1T2","Green","Kluane","Kluane Elevation Transect 1","1T",61.00889,-138.42467,794,1.96,8,2016-06-24,2016-08-13,50,"Summer","1.308","Yes",1.646,1.059309356,0.356434170109356,"Warming","Eleanor Walker, Haydn Thomas",NA,"","61.00889_-138.42467"
"406","1T3","Green","Kluane","Kluane Elevation Transect 1","1T",61.00889,-138.42467,794,2.069,8,2016-06-24,2016-08-13,50,"Summer","1.188","Yes",1.751,0.939309356,0.463558334665905,"Warming","Eleanor Walker, Haydn Thomas",NA,"","61.00889_-138.42467"
"407","1T4","Green","Kluane","Kluane Elevation Transect 1","1T",61.00889,-138.42467,794,2.213,8,2016-06-24,2016-08-13,50,"Summer","1.203","Yes",1.89,0.954309356,0.495074414814815,"Warming","Eleanor Walker, Haydn Thomas",NA,"","61.00889_-138.42467"
"408","1B1","Green","Kluane","Kluane Elevation Transect 1","1B",61.00889,-138.42467,794,2.172,8,2016-06-24,2016-08-13,50,"Summer","1.102","Yes",1.85,0.853309356,0.538751699459459,"Warming + Moisture","Eleanor Walker, Haydn Thomas",NA,"","61.00889_-138.42467"
"409","1B2","Green","Kluane","Kluane Elevation Transect 1","1B",61.00889,-138.42467,794,2.07,8,2016-06-24,2016-08-13,50,"Summer","1.13","Yes",1.752,0.881309356,0.4969695456621,"Warming + Moisture","Eleanor Walker, Haydn Thomas",NA,"","61.00889_-138.42467"
"410","1B4","Green","Kluane","Kluane Elevation Transect 1","1B",61.00889,-138.42467,794,2.106,8,2016-06-24,2016-08-13,50,"Summer","1.212","Yes",1.787,0.963309356,0.460934887520985,"Warming + Moisture","Eleanor Walker, Haydn Thomas",NA,"","61.00889_-138.42467"
"411","1B3","Green","Kluane","Kluane Elevation Transect 1","1B",61.00889,-138.42467,794,2.134,8,2016-06-24,2016-08-13,50,"Summer","1.206","Yes",1.814,0.957309356,0.47226606615215,"Warming + Moisture","Eleanor Walker, Haydn Thomas",NA,"","61.00889_-138.42467"
"412","1A1","Rooibos","Kluane","Kluane Elevation Transect 1","1A",61.00889,-138.42467,794,2.262,8,2016-06-24,2016-08-13,50,"Summer","1.951","Yes",1.9,1.701943356,0.104240338947368,"None","Eleanor Walker, Haydn Thomas",NA,"","61.00889_-138.42467"
"413","1A2","Rooibos","Kluane","Kluane Elevation Transect 1","1A",61.00889,-138.42467,794,2.175,8,2016-06-24,2016-08-13,50,"Summer","1.833","Yes",1.818,1.583943356,0.12874402860286,"None","Eleanor Walker, Haydn Thomas",NA,"","61.00889_-138.42467"
"414","1A3","Rooibos","Kluane","Kluane Elevation Transect 1","1A",61.00889,-138.42467,794,2.244,8,2016-06-24,2016-08-13,50,"Summer","1.922","Yes",1.883,1.672943356,0.11155424535316,"None","Eleanor Walker, Haydn Thomas",NA,"","61.00889_-138.42467"
"415","1A4","Rooibos","Kluane","Kluane Elevation Transect 1","1A",61.00889,-138.42467,794,2.329,8,2016-06-24,2016-08-13,50,"Summer","2","Yes",1.963,1.750943356,0.108026818135507,"None","Eleanor Walker, Haydn Thomas",NA,"","61.00889_-138.42467"
"416","1M1","Rooibos","Kluane","Kluane Elevation Transect 1","1M",61.00889,-138.42467,794,2.25,8,2016-06-24,2016-08-13,50,"Summer","1.841","Yes",1.889,1.591943356,0.157256031762837,"Moisture","Eleanor Walker, Haydn Thomas",NA,"","61.00889_-138.42467"
"417","1M2","Rooibos","Kluane","Kluane Elevation Transect 1","1M",61.00889,-138.42467,794,2.239,8,2016-06-24,2016-08-13,50,"Summer","1.795","Yes",1.878,1.545943356,0.176813974440895,"Moisture","Eleanor Walker, Haydn Thomas",NA,"","61.00889_-138.42467"
"418","1M3","Rooibos","Kluane","Kluane Elevation Transect 1","1M",61.00889,-138.42467,794,2.193,8,2016-06-24,2016-08-13,50,"Summer","1.809","Yes",1.835,1.559943356,0.149894628882834,"Moisture","Eleanor Walker, Haydn Thomas",NA,"","61.00889_-138.42467"
"419","1M4","Rooibos","Kluane","Kluane Elevation Transect 1","1M",61.00889,-138.42467,794,2.234,8,2016-06-24,2016-08-13,50,"Summer","1.8","Yes",1.874,1.550943356,0.172388817502668,"Moisture","Eleanor Walker, Haydn Thomas",NA,"","61.00889_-138.42467"
"420","1T1","Rooibos","Kluane","Kluane Elevation Transect 1","1T",61.00889,-138.42467,794,2.24,8,2016-06-24,2016-08-13,50,"Summer","1.815","Yes",1.879,1.565943356,0.166608112825971,"Warming","Eleanor Walker, Haydn Thomas",NA,"","61.00889_-138.42467"
"421","1T2","Rooibos","Kluane","Kluane Elevation Transect 1","1T",61.00889,-138.42467,794,2.174,8,2016-06-24,2016-08-13,50,"Summer","1.8","Yes",1.817,1.550943356,0.146426331315355,"Warming","Eleanor Walker, Haydn Thomas",NA,"","61.00889_-138.42467"
"422","1T3","Rooibos","Kluane","Kluane Elevation Transect 1","1T",61.00889,-138.42467,794,2.211,8,2016-06-24,2016-08-13,50,"Summer","1.797","Yes",1.852,1.547943356,0.164177453563715,"Warming","Eleanor Walker, Haydn Thomas",NA,"","61.00889_-138.42467"
"423","1T4","Rooibos","Kluane","Kluane Elevation Transect 1","1T",61.00889,-138.42467,794,2.241,8,2016-06-24,2016-08-13,50,"Summer","1.808","Yes",1.88,1.558943356,0.170774810638298,"Warming","Eleanor Walker, Haydn Thomas",NA,"","61.00889_-138.42467"
"424","1B1","Rooibos","Kluane","Kluane Elevation Transect 1","1B",61.00889,-138.42467,794,2.233,8,2016-06-24,2016-08-13,50,"Summer","1.781","Yes",1.873,1.531943356,0.182091107314469,"Warming + Moisture","Eleanor Walker, Haydn Thomas",NA,"","61.00889_-138.42467"
"425","1B2","Rooibos","Kluane","Kluane Elevation Transect 1","1B",61.00889,-138.42467,794,2.195,8,2016-06-24,2016-08-13,50,"Summer","1.772","Yes",1.837,1.522943356,0.170961700598802,"Warming + Moisture","Eleanor Walker, Haydn Thomas",NA,"","61.00889_-138.42467"
"426","1B4","Rooibos","Kluane","Kluane Elevation Transect 1","1B",61.00889,-138.42467,794,2.22,8,2016-06-24,2016-08-13,50,"Summer","1.806","Yes",1.86,1.556943356,0.162933679569893,"Warming + Moisture","Eleanor Walker, Haydn Thomas",NA,"","61.00889_-138.42467"
"427","1B3","Rooibos","Kluane","Kluane Elevation Transect 1","1B",61.00889,-138.42467,794,2.252,8,2016-06-24,2016-08-13,50,"Summer","1.863","Yes",1.891,1.613943356,0.146513296668429,"Warming + Moisture","Eleanor Walker, Haydn Thomas",NA,"","61.00889_-138.42467"
"428","2A1","Green","Kluane","Kluane Elevation Transect 2","2A",61.00323,-138.41573,922,2.065,8,2016-06-24,2016-08-13,50,"Summer","1.203","Yes",1.747,0.954309356,0.453743929021179,"None","Eleanor Walker, Haydn Thomas",NA,"","61.00323_-138.41573"
"429","2A2","Green","Kluane","Kluane Elevation Transect 2","2A",61.00323,-138.41573,922,1.973,8,2016-06-24,2016-08-13,50,"Summer","1.394","Yes",1.659,1.145309356,0.309638724532851,"None","Eleanor Walker, Haydn Thomas",NA,"","61.00323_-138.41573"
"430","2A3","Green","Kluane","Kluane Elevation Transect 2","2A",61.00323,-138.41573,922,2.106,8,2016-06-24,2016-08-13,50,"Summer","1.339","Yes",1.787,1.090309356,0.389866057078903,"None","Eleanor Walker, Haydn Thomas",NA,"","61.00323_-138.41573"
"431","2A4","Green","Kluane","Kluane Elevation Transect 2","2A",61.00323,-138.41573,922,2.043,8,2016-06-24,2016-08-13,50,"Summer","1.215","Yes",1.726,0.966309356,0.440145216685979,"None","Eleanor Walker, Haydn Thomas",NA,"","61.00323_-138.41573"
"432","2A1","Rooibos","Kluane","Kluane Elevation Transect 2","2A",61.00323,-138.41573,922,2.244,8,2016-06-24,2016-08-13,50,"Summer","1.813","Yes",1.883,1.563943356,0.169440596919809,"None","Eleanor Walker, Haydn Thomas",NA,"","61.00323_-138.41573"
"433","2A2","Rooibos","Kluane","Kluane Elevation Transect 2","2A",61.00323,-138.41573,922,2.155,8,2016-06-24,2016-08-13,50,"Summer","1.811","Yes",1.799,1.561943356,0.131771341856587,"None","Eleanor Walker, Haydn Thomas",NA,"","61.00323_-138.41573"
"434","2A3","Rooibos","Kluane","Kluane Elevation Transect 2","2A",61.00323,-138.41573,922,2.212,8,2016-06-24,2016-08-13,50,"Summer","1.857","Yes",1.853,1.607943356,0.132248593631948,"None","Eleanor Walker, Haydn Thomas",NA,"","61.00323_-138.41573"
"435","2A4","Rooibos","Kluane","Kluane Elevation Transect 2","2A",61.00323,-138.41573,922,2.233,8,2016-06-24,2016-08-13,50,"Summer","1.776","Yes",1.873,1.526943356,0.184760621462894,"None","Eleanor Walker, Haydn Thomas",NA,"","61.00323_-138.41573"
"436","3A1","Green","Kluane","Kluane Elevation Transect 3","3A",60.99925,-138.41131,1049,2.063,8,2016-06-24,2016-08-13,50,"Summer","1.152","Yes",1.745,0.903309356,0.482344208595989,"None","Eleanor Walker, Haydn Thomas",NA,"","60.99925_-138.41131"
"437","3A2","Green","Kluane","Kluane Elevation Transect 3","3A",60.99925,-138.41131,1049,2.058,8,2016-06-24,2016-08-13,50,"Summer","1.241","Yes",1.741,0.992309356,0.430034832854681,"None","Eleanor Walker, Haydn Thomas",NA,"","60.99925_-138.41131"
"438","3A3","Green","Kluane","Kluane Elevation Transect 3","3A",60.99925,-138.41131,1049,2.016,8,2016-06-24,2016-08-13,50,"Summer","1.401","Yes",1.7,1.152309356,0.322170967058824,"None","Eleanor Walker, Haydn Thomas",NA,"","60.99925_-138.41131"
"439","3A4","Green","Kluane","Kluane Elevation Transect 3","3A",60.99925,-138.41131,1049,2.094,8,2016-06-24,2016-08-13,50,"Summer","1.339","Yes",1.775,1.090309356,0.385741207887324,"None","Eleanor Walker, Haydn Thomas",NA,"","60.99925_-138.41131"
"440","3A1","Rooibos","Kluane","Kluane Elevation Transect 3","3A",60.99925,-138.41131,1049,2.228,8,2016-06-24,2016-08-13,50,"Summer","1.775","Yes",1.868,1.525943356,0.183113835117773,"None","Eleanor Walker, Haydn Thomas",NA,"","60.99925_-138.41131"
"441","3A2","Rooibos","Kluane","Kluane Elevation Transect 3","3A",60.99925,-138.41131,1049,2.267,8,2016-06-24,2016-08-13,50,"Summer","1.892","Yes",1.905,1.642943356,0.137562542782152,"None","Eleanor Walker, Haydn Thomas",NA,"","60.99925_-138.41131"
"442","3A3","Rooibos","Kluane","Kluane Elevation Transect 3","3A",60.99925,-138.41131,1049,2.298,8,2016-06-24,2016-08-13,50,"Summer","2.027","Yes",1.934,1.777943356,0.0806911292657704,"None","Eleanor Walker, Haydn Thomas",NA,"","60.99925_-138.41131"
"443","3A4","Rooibos","Kluane","Kluane Elevation Transect 3","3A",60.99925,-138.41131,1049,2.24,8,2016-06-24,2016-08-13,50,"Summer","1.912","Yes",1.879,1.662943356,0.114984908994146,"None","Eleanor Walker, Haydn Thomas",NA,"","60.99925_-138.41131"
"444","4A1","Green","Kluane","Kluane Elevation Transect 4","4A",60.99343,-138.41123,1175,2.103,8,2016-06-24,2016-08-13,50,"Summer","1.363","Yes",1.784,1.114309356,0.375387132286996,"None","Eleanor Walker, Haydn Thomas",NA,"","60.99343_-138.41123"
"445","4A2","Green","Kluane","Kluane Elevation Transect 4","4A",60.99343,-138.41123,1175,2.161,8,2016-06-24,2016-08-13,50,"Summer","1.522","Yes",1.84,1.273309356,0.307984045652174,"None","Eleanor Walker, Haydn Thomas",NA,"","60.99343_-138.41123"
"446","4A3","Green","Kluane","Kluane Elevation Transect 4","4A",60.99343,-138.41123,1175,2.057,8,2016-06-24,2016-08-13,50,"Summer","1.372","Yes",1.74,1.123309356,0.354419910344828,"None","Eleanor Walker, Haydn Thomas",NA,"","60.99343_-138.41123"
"447","4A4","Green","Kluane","Kluane Elevation Transect 4","4A",60.99343,-138.41123,1175,2.129,8,2016-06-24,2016-08-13,50,"Summer","1.31","Yes",1.809,1.061309356,0.413317105583195,"None","Eleanor Walker, Haydn Thomas",NA,"","60.99343_-138.41123"
"448","4M1","Green","Kluane","Kluane Elevation Transect 4","4M",60.99343,-138.41123,1175,2.056,8,2016-06-24,2016-08-13,50,"Summer","1.18","Yes",1.739,0.931309356,0.464456954571593,"Moisture","Eleanor Walker, Haydn Thomas",NA,"","60.99343_-138.41123"
"449","4M2","Green","Kluane","Kluane Elevation Transect 4","4M",60.99343,-138.41123,1175,2.08,8,2016-06-24,2016-08-13,50,"Summer","1.121","Yes",1.762,0.872309356,0.504932261066969,"Moisture","Eleanor Walker, Haydn Thomas",NA,"","60.99343_-138.41123"
"450","4M3","Green","Kluane","Kluane Elevation Transect 4","4M",60.99343,-138.41123,1175,2.085,8,2016-06-24,2016-08-13,50,"Summer","1.228","Yes",1.767,0.979309356,0.445778519524618,"Moisture","Eleanor Walker, Haydn Thomas",NA,"","60.99343_-138.41123"
"451","4M4","Green","Kluane","Kluane Elevation Transect 4","4M",60.99343,-138.41123,1175,2.114,8,2016-06-24,2016-08-13,50,"Summer","1.152","Yes",1.794,0.903309356,0.496483079152731,"Moisture","Eleanor Walker, Haydn Thomas",NA,"","60.99343_-138.41123"
"452","4T1","Green","Kluane","Kluane Elevation Transect 4","4T",60.99343,-138.41123,1175,2.047,8,2016-06-24,2016-08-13,50,"Summer","1.28","Yes",1.73,1.031309356,0.403867424277457,"Warming","Eleanor Walker, Haydn Thomas",NA,"","60.99343_-138.41123"
"453","4T2","Green","Kluane","Kluane Elevation Transect 4","4T",60.99343,-138.41123,1175,2.104,8,2016-06-24,2016-08-13,50,"Summer","1.286","Yes",1.785,1.037309356,0.418874310364146,"Warming","Eleanor Walker, Haydn Thomas",NA,"","60.99343_-138.41123"
"454","4T3","Green","Kluane","Kluane Elevation Transect 4","4T",60.99343,-138.41123,1175,1.994,8,2016-06-24,2016-08-13,50,"Summer","1.255","Yes",1.679,1.006309356,0.400649579511614,"Warming","Eleanor Walker, Haydn Thomas",NA,"","60.99343_-138.41123"
"455","4T4","Green","Kluane","Kluane Elevation Transect 4","4T",60.99343,-138.41123,1175,2.004,8,2016-06-24,2016-08-13,50,"Summer","1.23","Yes",1.689,0.981309356,0.418999789224393,"Warming","Eleanor Walker, Haydn Thomas",NA,"","60.99343_-138.41123"
"456","4B1","Green","Kluane","Kluane Elevation Transect 4","4B",60.99343,-138.41123,1175,2.031,8,2016-06-24,2016-08-13,50,"Summer","1.568","Yes",1.715,1.319309356,0.230723407580175,"Warming + Moisture","Eleanor Walker, Haydn Thomas",NA,"","60.99343_-138.41123"
"457","4B2","Green","Kluane","Kluane Elevation Transect 4","4B",60.99343,-138.41123,1175,1.951,8,2016-06-24,2016-08-13,50,"Summer","1.813","Yes",1.638,1.564309356,0.044988183150183,"Warming + Moisture","Eleanor Walker, Haydn Thomas",NA,"","60.99343_-138.41123"
"458","4B3","Green","Kluane","Kluane Elevation Transect 4","4B",60.99343,-138.41123,1175,2.066,8,2016-06-24,2016-08-13,50,"Summer","1.515","Yes",1.748,1.266309356,0.275566729977117,"Warming + Moisture","Eleanor Walker, Haydn Thomas",NA,"","60.99343_-138.41123"
"459","4B4","Green","Kluane","Kluane Elevation Transect 4","4B",60.99343,-138.41123,1175,2.085,8,2016-06-24,2016-08-13,50,"Summer","1.783","Yes",1.767,1.534309356,0.131686838709677,"Warming + Moisture","Eleanor Walker, Haydn Thomas",NA,"","60.99343_-138.41123"
"460","4A1","Rooibos","Kluane","Kluane Elevation Transect 4","4A",60.99343,-138.41123,1175,2.27,8,2016-06-24,2016-08-13,50,"Summer","1.914","Yes",1.908,1.664943356,0.127388178197065,"None","Eleanor Walker, Haydn Thomas",NA,"","60.99343_-138.41123"
"461","4A2","Rooibos","Kluane","Kluane Elevation Transect 4","4A",60.99343,-138.41123,1175,2.226,8,2016-06-24,2016-08-13,50,"Summer","1.971","Yes",1.866,1.721943356,0.0772007738478029,"None","Eleanor Walker, Haydn Thomas",NA,"","60.99343_-138.41123"
"462","4A3","Rooibos","Kluane","Kluane Elevation Transect 4","4A",60.99343,-138.41123,1175,2.294,8,2016-06-24,2016-08-13,50,"Summer","1.931","Yes",1.93,1.681943356,0.128526758549223,"None","Eleanor Walker, Haydn Thomas",NA,"","60.99343_-138.41123"
"463","4A4","Rooibos","Kluane","Kluane Elevation Transect 4","4A",60.99343,-138.41123,1175,2.197,8,2016-06-24,2016-08-13,50,"Summer","1.792","Yes",1.839,1.542943356,0.160987843393148,"None","Eleanor Walker, Haydn Thomas",NA,"","60.99343_-138.41123"
"464","4M1","Rooibos","Kluane","Kluane Elevation Transect 4","4M",60.99343,-138.41123,1175,2.251,8,2016-06-24,2016-08-13,50,"Summer","1.838","Yes",1.89,1.588943356,0.15928922962963,"Moisture","Eleanor Walker, Haydn Thomas",NA,"","60.99343_-138.41123"
"465","4M2","Rooibos","Kluane","Kluane Elevation Transect 4","4M",60.99343,-138.41123,1175,2.229,8,2016-06-24,2016-08-13,50,"Summer","1.768","Yes",1.869,1.518943356,0.187296224719101,"Moisture","Eleanor Walker, Haydn Thomas",NA,"","60.99343_-138.41123"
"466","4M3","Rooibos","Kluane","Kluane Elevation Transect 4","4M",60.99343,-138.41123,1175,2.241,8,2016-06-24,2016-08-13,50,"Summer","1.828","Yes",1.88,1.578943356,0.160136512765957,"Moisture","Eleanor Walker, Haydn Thomas",NA,"","60.99343_-138.41123"
"467","4M4","Rooibos","Kluane","Kluane Elevation Transect 4","4M",60.99343,-138.41123,1175,2.278,8,2016-06-24,2016-08-13,50,"Summer","1.833","Yes",1.915,1.583943356,0.172875532114882,"Moisture","Eleanor Walker, Haydn Thomas",NA,"","60.99343_-138.41123"
"468","4T1","Rooibos","Kluane","Kluane Elevation Transect 4","4T",60.99343,-138.41123,1175,2.237,8,2016-06-24,2016-08-13,50,"Summer","1.936","Yes",1.877,1.686943356,0.101255537559936,"Warming","Eleanor Walker, Haydn Thomas",NA,"","60.99343_-138.41123"
"469","4T2","Rooibos","Kluane","Kluane Elevation Transect 4","4T",60.99343,-138.41123,1175,2.292,8,2016-06-24,2016-08-13,50,"Summer","1.884","Yes",1.928,1.634943356,0.152000334024896,"Warming","Eleanor Walker, Haydn Thomas",NA,"","60.99343_-138.41123"
"470","4T3","Rooibos","Kluane","Kluane Elevation Transect 4","4T",60.99343,-138.41123,1175,2.306,8,2016-06-24,2016-08-13,50,"Summer","1.904","Yes",1.942,1.654943356,0.147814955715757,"Warming","Eleanor Walker, Haydn Thomas",NA,"","60.99343_-138.41123"
"471","4T4","Rooibos","Kluane","Kluane Elevation Transect 4","4T",60.99343,-138.41123,1175,2.268,8,2016-06-24,2016-08-13,50,"Summer","1.849","Yes",1.906,1.599943356,0.160575364113326,"Warming","Eleanor Walker, Haydn Thomas",NA,"","60.99343_-138.41123"
"472","4B1","Rooibos","Kluane","Kluane Elevation Transect 4","4B",60.99343,-138.41123,1175,2.22,8,2016-06-24,2016-08-13,50,"Summer","2.088","Yes",1.86,1.838943356,0.0113207763440861,"Warming + Moisture","Eleanor Walker, Haydn Thomas",NA,"","60.99343_-138.41123"
"473","4B2","Rooibos","Kluane","Kluane Elevation Transect 4","4B",60.99343,-138.41123,1175,2.23,8,2016-06-24,2016-08-13,50,"Summer","2.104","Yes",1.87,1.854943356,0.0080516812834226,"Warming + Moisture","Eleanor Walker, Haydn Thomas",NA,"","60.99343_-138.41123"
"474","4B3","Rooibos","Kluane","Kluane Elevation Transect 4","4B",60.99343,-138.41123,1175,2.255,8,2016-06-24,2016-08-13,50,"Summer","1.929","Yes",1.893,1.679943356,0.112549732699419,"Warming + Moisture","Eleanor Walker, Haydn Thomas",NA,"","60.99343_-138.41123"
"475","4B4","Rooibos","Kluane","Kluane Elevation Transect 4","4B",60.99343,-138.41123,1175,2.24,8,2016-06-24,2016-08-13,50,"Summer","1.958","Yes",1.879,1.708943356,0.0905038020223523,"Warming + Moisture","Eleanor Walker, Haydn Thomas",NA,"","60.99343_-138.41123"
"476","5A1","Green","Kluane","Kluane Elevation Transect 5","5A",60.98505,-138.412,1299,2.035,8,2016-06-24,2016-08-13,50,"Summer","1.224","Yes",1.718,0.975309356,0.432299559953434,"None","Eleanor Walker, Haydn Thomas",NA,"","60.98505_-138.412"
"477","5A2","Green","Kluane","Kluane Elevation Transect 5","5A",60.98505,-138.412,1299,2.195,8,2016-06-24,2016-08-13,50,"Summer","1.382","Yes",1.872,1.133309356,0.394599702991453,"None","Eleanor Walker, Haydn Thomas",NA,"","60.98505_-138.412"
"478","5A3","Green","Kluane","Kluane Elevation Transect 5","5A",60.98505,-138.412,1299,2.112,8,2016-06-24,2016-08-13,50,"Summer","1.189","Yes",1.793,0.940309356,0.475566449525934,"None","Eleanor Walker, Haydn Thomas",NA,"","60.98505_-138.412"
"479","5A4","Green","Kluane","Kluane Elevation Transect 5","5A",60.98505,-138.412,1299,2.054,8,2016-06-24,2016-08-13,50,"Summer","1.131","No",1.737,1.00784,0.419781232009211,"None","Eleanor Walker, Haydn Thomas",NA,"","60.98505_-138.412"
"480","5A1","Rooibos","Kluane","Kluane Elevation Transect 5","5A",60.98505,-138.412,1299,2.245,8,2016-06-24,2016-08-13,50,"Summer","1.822","Yes",1.884,1.572943356,0.165104375796178,"None","Eleanor Walker, Haydn Thomas",NA,"","60.98505_-138.412"
"481","5A2","Rooibos","Kluane","Kluane Elevation Transect 5","5A",60.98505,-138.412,1299,2.267,8,2016-06-24,2016-08-13,50,"Summer","1.785","No",1.905,1.66146,0.127842519685039,"None","Eleanor Walker, Haydn Thomas",NA,"","60.98505_-138.412"
"482","5A3","Rooibos","Kluane","Kluane Elevation Transect 5","5A",60.98505,-138.412,1299,2.228,8,2016-06-24,2016-08-13,50,"Summer","1.737","Yes",1.868,1.487943356,0.203456447537473,"None","Eleanor Walker, Haydn Thomas",NA,"","60.98505_-138.412"
"483","5A4","Rooibos","Kluane","Kluane Elevation Transect 5","5A",60.98505,-138.412,1299,2.225,8,2016-06-24,2016-08-13,50,"Summer","1.822","Yes",1.865,1.572943356,0.156598736729223,"None","Eleanor Walker, Haydn Thomas",NA,"","60.98505_-138.412"
"484","Ppr11","Rooibos","Kluane","Printers Pass","PP_HT_1yr",61.18908,-138.34446,1420,2.197,8,2015-06-23,2016-07-01,374,"Year","1.587","No",1.839,1.46346,0.2042088091354,"None","Haydn Thomas",NA,"","61.18908_-138.34446"
"485","Ppr12","Rooibos","Kluane","Printers Pass","PP_HT_1yr",61.18908,-138.34446,1420,2.226,8,2015-06-23,2016-07-01,374,"Year","1.481","No",1.866,1.35746,0.272529474812433,"None","Haydn Thomas",NA,"","61.18908_-138.34446"
"486","Ppr13","Rooibos","Kluane","Printers Pass","PP_HT_1yr",61.18908,-138.34446,1420,2.234,8,2015-06-23,2016-07-01,374,"Year","1.530","No",1.874,1.40646,0.24948772678762,"None","Haydn Thomas",NA,"","61.18908_-138.34446"
"487","Ppr14","Rooibos","Kluane","Printers Pass","PP_HT_1yr",61.18908,-138.34446,1420,2.305,8,2015-06-23,2016-07-01,374,"Year","1.654","No",1.941,1.53046,0.2115095311695,"None","Haydn Thomas",NA,"","61.18908_-138.34446"
"488","Ppr15","Rooibos","Kluane","Printers Pass","PP_HT_1yr",61.18908,-138.34446,1420,2.26,8,2015-06-23,2016-07-01,374,"Year","1.605","No",1.898,1.48146,0.219462592202318,"None","Haydn Thomas",NA,"","61.18908_-138.34446"
"489","Ppr16","Rooibos","Kluane","Printers Pass","PP_HT_1yr",61.18908,-138.34446,1420,2.201,8,2015-06-23,2016-07-01,374,"Year","1.519","No",1.843,1.39546,0.242832338578405,"None","Haydn Thomas",NA,"","61.18908_-138.34446"
"490","Ppr17","Rooibos","Kluane","Printers Pass","PP_HT_1yr",61.18908,-138.34446,1420,2.188,8,2015-06-23,2016-07-01,374,"Year","1.503","No",1.83,1.37946,0.246196721311476,"None","Haydn Thomas",NA,"","61.18908_-138.34446"
"491","Ppr18","Rooibos","Kluane","Printers Pass","PP_HT_1yr",61.18908,-138.34446,1420,2.211,8,2015-06-23,2016-07-01,374,"Year","1.518","No",1.852,1.39446,0.247051835853132,"None","Haydn Thomas",NA,"","61.18908_-138.34446"
"492","Ppr19","Rooibos","Kluane","Printers Pass","PP_HT_1yr",61.18908,-138.34446,1420,2.194,8,2015-06-23,2016-07-01,374,"Year","1.442","No",1.836,1.31846,0.281884531590414,"None","Haydn Thomas",NA,"","61.18908_-138.34446"
"493","Ppr20","Rooibos","Kluane","Printers Pass","PP_HT_1yr",61.18908,-138.34446,1420,2.154,8,2015-06-23,2016-07-01,374,"Year","1.407","No",1.798,1.28346,0.286173526140156,"None","Haydn Thomas",NA,"","61.18908_-138.34446"
"494","Ppg11","Green","Kluane","Printers Pass","PP_HT_1yr",61.18908,-138.34446,1420,2.144,8,2015-06-23,2016-07-01,374,"Year","0.518","No",1.823,0.39484,0.783411958310477,"None","Haydn Thomas",NA,"","61.18908_-138.34446"
"495","Ppg12","Green","Kluane","Printers Pass","PP_HT_1yr",61.18908,-138.34446,1420,1.984,8,2015-06-23,2016-07-01,374,"Year","0.559","No",1.669,0.43584,0.738861593768724,"None","Haydn Thomas",NA,"","61.18908_-138.34446"
"496","Ppg13","Green","Kluane","Printers Pass","PP_HT_1yr",61.18908,-138.34446,1420,2.259,8,2015-06-23,2016-07-01,374,"Year","0.519","No",1.934,0.39584,0.795325749741468,"None","Haydn Thomas",NA,"","61.18908_-138.34446"
"497","Ppg14","Green","Kluane","Printers Pass","PP_HT_1yr",61.18908,-138.34446,1420,2.138,8,2015-06-23,2016-07-01,374,"Year","0.527","No",1.818,0.40384,0.777865786578658,"None","Haydn Thomas",NA,"","61.18908_-138.34446"
"498","Ppg15","Green","Kluane","Printers Pass","PP_HT_1yr",61.18908,-138.34446,1420,2.122,8,2015-06-23,2016-07-01,374,"Year","0.632","No",1.802,0.50884,0.717624861265261,"None","Haydn Thomas",NA,"","61.18908_-138.34446"
"499","Ppg16","Green","Kluane","Printers Pass","PP_HT_1yr",61.18908,-138.34446,1420,2.125,8,2015-06-23,2016-07-01,374,"Year","0.672","No",1.805,0.54884,0.69593351800554,"None","Haydn Thomas",NA,"","61.18908_-138.34446"
"500","Ppg17","Green","Kluane","Printers Pass","PP_HT_1yr",61.18908,-138.34446,1420,2.009,8,2015-06-23,2016-07-01,374,"Year","0.551","No",1.693,0.42784,0.747288836385115,"None","Haydn Thomas",NA,"","61.18908_-138.34446"
"501","Ppg18","Green","Kluane","Printers Pass","PP_HT_1yr",61.18908,-138.34446,1420,2.072,8,2015-06-23,2016-07-01,374,"Year","0.603","No",1.754,0.47984,0.726431014823261,"None","Haydn Thomas",NA,"","61.18908_-138.34446"
"502","Ppg19","Green","Kluane","Printers Pass","PP_HT_1yr",61.18908,-138.34446,1420,2.111,8,2015-06-23,2016-07-01,374,"Year","0.543","No",1.792,0.41984,0.765714285714286,"None","Haydn Thomas",NA,"","61.18908_-138.34446"
"503","Ppg20","Green","Kluane","Printers Pass","PP_HT_1yr",61.18908,-138.34446,1420,2.177,8,2015-06-23,2016-07-01,374,"Year","0.614","No",1.855,0.49084,0.735396226415094,"None","Haydn Thomas",NA,"","61.18908_-138.34446"
"504","6A1","Green","Kluane","Kluane Elevation Transect 6","6A",60.97888,-138.41052,1425,2.03,8,2016-06-24,2016-08-13,50,"Summer","1.205","Yes",1.714,0.956309356,0.442059885647608,"None","Eleanor Walker, Haydn Thomas",NA,"","60.97888_-138.41052"
"505","6A2","Green","Kluane","Kluane Elevation Transect 6","6A",60.97888,-138.41052,1425,2.091,8,2016-06-24,2016-08-13,50,"Summer","1.27","Yes",1.772,1.021309356,0.423640318284424,"None","Eleanor Walker, Haydn Thomas",NA,"","60.97888_-138.41052"
"506","6A3","Green","Kluane","Kluane Elevation Transect 6","6A",60.97888,-138.41052,1425,2.049,8,2016-06-24,2016-08-13,50,"Summer","1.257","Yes",1.732,1.008309356,0.417835244803695,"None","Eleanor Walker, Haydn Thomas",NA,"","60.97888_-138.41052"
"507","6A4","Green","Kluane","Kluane Elevation Transect 6","6A",60.97888,-138.41052,1425,2.105,8,2016-06-24,2016-08-13,50,"Summer","1.203","Yes",1.786,0.954309356,0.465672253079507,"None","Eleanor Walker, Haydn Thomas",NA,"","60.97888_-138.41052"
"508","6A1","Rooibos","Kluane","Kluane Elevation Transect 6","6A",60.97888,-138.41052,1425,2.258,8,2016-06-24,2016-08-13,50,"Summer","1.813","Yes",1.896,1.563943356,0.175135360759494,"None","Eleanor Walker, Haydn Thomas",NA,"","60.97888_-138.41052"
"509","6A2","Rooibos","Kluane","Kluane Elevation Transect 6","6A",60.97888,-138.41052,1425,2.228,8,2016-06-24,2016-08-13,50,"Summer","1.831","Yes",1.868,1.581943356,0.153135248394004,"None","Eleanor Walker, Haydn Thomas",NA,"","60.97888_-138.41052"
"510","6A3","Rooibos","Kluane","Kluane Elevation Transect 6","6A",60.97888,-138.41052,1425,2.245,8,2016-06-24,2016-08-13,50,"Summer","1.841","Yes",1.884,1.591943356,0.155019450106157,"None","Eleanor Walker, Haydn Thomas",NA,"","60.97888_-138.41052"
"511","6A4","Rooibos","Kluane","Kluane Elevation Transect 6","6A",60.97888,-138.41052,1425,2.268,8,2016-06-24,2016-08-13,50,"Summer","1.827","Yes",1.906,1.577943356,0.172117861490031,"None","Eleanor Walker, Haydn Thomas",NA,"","60.97888_-138.41052"
"512","7A1","Green","Kluane","Kluane Elevation Transect 7","7A",60.97134,-138.41157,1551,2.092,8,2016-06-24,2016-08-13,50,"Summer","1.388","Yes",1.773,1.139309356,0.357411530738861,"None","Eleanor Walker, Haydn Thomas",NA,"","60.97134_-138.41157"
"513","7A2","Green","Kluane","Kluane Elevation Transect 7","7A",60.97134,-138.41157,1551,1.951,8,2016-06-24,2016-08-13,50,"Summer","1.24","Yes",1.638,0.991309356,0.394805032967033,"None","Eleanor Walker, Haydn Thomas",NA,"","60.97134_-138.41157"
"514","7A3","Green","Kluane","Kluane Elevation Transect 7","7A",60.97134,-138.41157,1551,2.019,8,2016-06-24,2016-08-13,50,"Summer","1.258","Yes",1.703,1.009309356,0.407334494421609,"None","Eleanor Walker, Haydn Thomas",NA,"","60.97134_-138.41157"
"515","7A4","Green","Kluane","Kluane Elevation Transect 7","7A",60.97134,-138.41157,1551,2.025,8,2016-06-24,2016-08-13,50,"Summer","1.199","Yes",1.709,0.950309356,0.443938352252779,"None","Eleanor Walker, Haydn Thomas",NA,"","60.97134_-138.41157"
"516","7M1","Green","Kluane","Kluane Elevation Transect 7","7M",60.97134,-138.41157,1551,1.965,8,2016-06-24,2016-08-13,50,"Summer","1.032","Yes",1.651,0.783309356,0.525554599636584,"Moisture","Eleanor Walker, Haydn Thomas",NA,"","60.97134_-138.41157"
"517","7M2","Green","Kluane","Kluane Elevation Transect 7","7M",60.97134,-138.41157,1551,2.128,8,2016-06-24,2016-08-13,50,"Summer","1.193","Yes",1.808,0.944309356,0.477705002212389,"Moisture","Eleanor Walker, Haydn Thomas",NA,"","60.97134_-138.41157"
"518","7M3","Green","Kluane","Kluane Elevation Transect 7","7M",60.97134,-138.41157,1551,2.024,8,2016-06-24,2016-08-13,50,"Summer","1.14","Yes",1.708,0.891309356,0.478156114754098,"Moisture","Eleanor Walker, Haydn Thomas",NA,"","60.97134_-138.41157"
"519","7M4","Green","Kluane","Kluane Elevation Transect 7","7M",60.97134,-138.41157,1551,2.126,8,2016-06-24,2016-08-13,50,"Summer","1.188","Yes",1.806,0.939309356,0.479895151716501,"Moisture","Eleanor Walker, Haydn Thomas",NA,"","60.97134_-138.41157"
"520","7T2","Green","Kluane","Kluane Elevation Transect 7","7T",60.97134,-138.41157,1551,2.033,8,2016-06-24,2016-08-13,50,"Summer","1.272","Yes",1.717,1.023309356,0.404013188118812,"Warming","Eleanor Walker, Haydn Thomas",NA,"","60.97134_-138.41157"
"521","7T3","Green","Kluane","Kluane Elevation Transect 7","7T",60.97134,-138.41157,1551,2.133,8,2016-06-24,2016-08-13,50,"Summer","1.224","Yes",1.813,0.975309356,0.462046687258687,"Warming","Eleanor Walker, Haydn Thomas",NA,"","60.97134_-138.41157"
"522","7T4","Green","Kluane","Kluane Elevation Transect 7","7T",60.97134,-138.41157,1551,2.078,8,2016-06-24,2016-08-13,50,"Summer","1.245","Yes",1.76,0.996309356,0.433915138636364,"Warming","Eleanor Walker, Haydn Thomas",NA,"","60.97134_-138.41157"
"523","7B1","Green","Kluane","Kluane Elevation Transect 7","7B",60.97134,-138.41157,1551,2.006,8,2016-06-24,2016-08-13,50,"Summer","1.238","Yes",1.691,0.989309356,0.414956028385571,"Warming + Moisture","Eleanor Walker, Haydn Thomas",NA,"","60.97134_-138.41157"
"524","7B2","Green","Kluane","Kluane Elevation Transect 7","7B",60.97134,-138.41157,1551,2.021,8,2016-06-24,2016-08-13,50,"Summer","1.276","Yes",1.705,1.027309356,0.397472518475073,"Warming + Moisture","Eleanor Walker, Haydn Thomas",NA,"","60.97134_-138.41157"
"525","7B3","Green","Kluane","Kluane Elevation Transect 7","7B",60.97134,-138.41157,1551,2.121,8,2016-06-24,2016-08-13,50,"Summer","1.275","Yes",1.801,1.026309356,0.43014472182121,"Warming + Moisture","Eleanor Walker, Haydn Thomas",NA,"","60.97134_-138.41157"
"526","7B4","Green","Kluane","Kluane Elevation Transect 7","7B",60.97134,-138.41157,1551,1.85,8,2016-06-24,2016-08-13,50,"Summer","1.198","Yes",1.54,0.949309356,0.383565353246753,"Warming + Moisture","Eleanor Walker, Haydn Thomas",NA,"","60.97134_-138.41157"
"527","7A1","Rooibos","Kluane","Kluane Elevation Transect 7","7A",60.97134,-138.41157,1551,2.292,8,2016-06-24,2016-08-13,50,"Summer","1.887","Yes",1.928,1.637943356,0.150444317427386,"None","Eleanor Walker, Haydn Thomas",NA,"","60.97134_-138.41157"
"528","7A2","Rooibos","Kluane","Kluane Elevation Transect 7","7A",60.97134,-138.41157,1551,2.256,8,2016-06-24,2016-08-13,50,"Summer","1.889","Yes",1.894,1.639943356,0.1341376156283,"None","Eleanor Walker, Haydn Thomas",NA,"","60.97134_-138.41157"
"529","7A3","Rooibos","Kluane","Kluane Elevation Transect 7","7A",60.97134,-138.41157,1551,2.215,8,2016-06-24,2016-08-13,50,"Summer","1.876","Yes",1.856,1.626943356,0.123414140086207,"None","Eleanor Walker, Haydn Thomas",NA,"","60.97134_-138.41157"
"530","7A4","Rooibos","Kluane","Kluane Elevation Transect 7","7A",60.97134,-138.41157,1551,2.244,8,2016-06-24,2016-08-13,50,"Summer","1.802","Yes",1.883,1.552943356,0.17528233882103,"None","Eleanor Walker, Haydn Thomas",NA,"","60.97134_-138.41157"
"531","7M1","Rooibos","Kluane","Kluane Elevation Transect 7","7M",60.97134,-138.41157,1551,2.305,8,2016-06-24,2016-08-13,50,"Summer","1.835","Yes",1.941,1.585943356,0.182924597630088,"Moisture","Eleanor Walker, Haydn Thomas",NA,"","60.97134_-138.41157"
"532","7M2","Rooibos","Kluane","Kluane Elevation Transect 7","7M",60.97134,-138.41157,1551,2.212,8,2016-06-24,2016-08-13,50,"Summer","1.753","Yes",1.853,1.503943356,0.188373796006476,"Moisture","Eleanor Walker, Haydn Thomas",NA,"","60.97134_-138.41157"
"533","7M3","Rooibos","Kluane","Kluane Elevation Transect 7","7M",60.97134,-138.41157,1551,2.229,8,2016-06-24,2016-08-13,50,"Summer","1.785","Yes",1.869,1.535943356,0.178200451578384,"Moisture","Eleanor Walker, Haydn Thomas",NA,"","60.97134_-138.41157"
"534","7M4","Rooibos","Kluane","Kluane Elevation Transect 7","7M",60.97134,-138.41157,1551,2.277,8,2016-06-24,2016-08-13,50,"Summer","1.765","Yes",1.914,1.515943356,0.207971078369906,"Moisture","Eleanor Walker, Haydn Thomas",NA,"","60.97134_-138.41157"
"535","7T1","Rooibos","Kluane","Kluane Elevation Transect 7","7T",60.97134,-138.41157,1551,2.201,8,2016-06-24,2016-08-13,50,"Summer","1.858","Yes",1.843,1.608943356,0.12699763646229,"Warming","Eleanor Walker, Haydn Thomas",NA,"","60.97134_-138.41157"
"536","7T2","Rooibos","Kluane","Kluane Elevation Transect 7","7T",60.97134,-138.41157,1551,2.219,8,2016-06-24,2016-08-13,50,"Summer","1.814","Yes",1.86,1.564943356,0.158632604301075,"Warming","Eleanor Walker, Haydn Thomas",NA,"","60.97134_-138.41157"
"537","7T3","Rooibos","Kluane","Kluane Elevation Transect 7","7T",60.97134,-138.41157,1551,2.203,8,2016-06-24,2016-08-13,50,"Summer","1.76","Yes",1.844,1.510943356,0.180616401301518,"Warming","Eleanor Walker, Haydn Thomas",NA,"","60.97134_-138.41157"
"538","7T4","Rooibos","Kluane","Kluane Elevation Transect 7","7T",60.97134,-138.41157,1551,2.254,8,2016-06-24,2016-08-13,50,"Summer","1.801","Yes",1.893,1.551943356,0.180167270998415,"Warming","Eleanor Walker, Haydn Thomas",NA,"","60.97134_-138.41157"
"539","7B1","Rooibos","Kluane","Kluane Elevation Transect 7","7B",60.97134,-138.41157,1551,2.234,8,2016-06-24,2016-08-13,50,"Summer","1.856","Yes",1.874,1.606943356,0.142506213447172,"Warming + Moisture","Eleanor Walker, Haydn Thomas",NA,"","60.97134_-138.41157"
"540","7B2","Rooibos","Kluane","Kluane Elevation Transect 7","7B",60.97134,-138.41157,1551,2.205,8,2016-06-24,2016-08-13,50,"Summer","1.894","Yes",1.846,1.644943356,0.108914758396533,"Warming + Moisture","Eleanor Walker, Haydn Thomas",NA,"","60.97134_-138.41157"
"541","7B3","Rooibos","Kluane","Kluane Elevation Transect 7","7B",60.97134,-138.41157,1551,2.19,8,2016-06-24,2016-08-13,50,"Summer","1.843","Yes",1.832,1.593943356,0.129943582969432,"Warming + Moisture","Eleanor Walker, Haydn Thomas",NA,"","60.97134_-138.41157"
"542","7B4","Rooibos","Kluane","Kluane Elevation Transect 7","7B",60.97134,-138.41157,1551,2.259,8,2016-06-24,2016-08-13,50,"Summer","1.901","Yes",1.897,1.651943356,0.129181151291513,"Warming + Moisture","Eleanor Walker, Haydn Thomas",NA,"","60.97134_-138.41157"
"543","8A1","Green","Kluane","Kluane Elevation Transect 8","8A",60.96417,-138.41731,1684,2.053,8,2016-06-24,2016-08-13,50,"Summer","1.17","Yes",1.736,0.921309356,0.46929184562212,"None","Eleanor Walker, Haydn Thomas",NA,"","60.96417_-138.41731"
"544","8A2","Green","Kluane","Kluane Elevation Transect 8","8A",60.96417,-138.41731,1684,2.076,8,2016-06-24,2016-08-13,50,"Summer","1.17","Yes",1.758,0.921309356,0.475933244596132,"None","Eleanor Walker, Haydn Thomas",NA,"","60.96417_-138.41731"
"545","8A3","Green","Kluane","Kluane Elevation Transect 8","8A",60.96417,-138.41731,1684,2.138,8,2016-06-24,2016-08-13,50,"Summer","1.208","Yes",1.818,0.959309356,0.472327086908691,"None","Eleanor Walker, Haydn Thomas",NA,"","60.96417_-138.41731"
"546","8A4","Green","Kluane","Kluane Elevation Transect 8","8A",60.96417,-138.41731,1684,2.086,8,2016-06-24,2016-08-13,50,"Summer","1.158","Yes",1.768,0.909309356,0.485684753393665,"None","Eleanor Walker, Haydn Thomas",NA,"","60.96417_-138.41731"
"547","8A1","Rooibos","Kluane","Kluane Elevation Transect 8","8A",60.96417,-138.41731,1684,2.232,8,2016-06-24,2016-08-13,50,"Summer","1.836","Yes",1.872,1.586943356,0.152273848290598,"None","Eleanor Walker, Haydn Thomas",NA,"","60.96417_-138.41731"
"548","8A2","Rooibos","Kluane","Kluane Elevation Transect 8","8A",60.96417,-138.41731,1684,2.229,8,2016-06-24,2016-08-13,50,"Summer","1.761","Yes",1.869,1.511943356,0.191041543071161,"None","Eleanor Walker, Haydn Thomas",NA,"","60.96417_-138.41731"
"549","8A3","Rooibos","Kluane","Kluane Elevation Transect 8","8A",60.96417,-138.41731,1684,2.191,8,2016-06-24,2016-08-13,50,"Summer","1.718","Yes",1.833,1.468943356,0.198612462629569,"None","Eleanor Walker, Haydn Thomas",NA,"","60.96417_-138.41731"
"550","8A4","Rooibos","Kluane","Kluane Elevation Transect 8","8A",60.96417,-138.41731,1684,2.275,8,2016-06-24,2016-08-13,50,"Summer","1.74","Yes",1.912,1.490943356,0.220217910041841,"None","Eleanor Walker, Haydn Thomas",NA,"","60.96417_-138.41731"
"551","K11","Rooibos","Kluane","Kluane Plateau","KP_HT_s2",60.96195,-138.4127,1734,2.267,8,2016-07-04,2016-08-14,41,"Summer","1.856","Yes",1.905,1.606943356,0.156460180577428,"None","Haydn Thomas",NA,"","60.96195_-138.4127"
"552","K12","Rooibos","Kluane","Kluane Plateau","KP_HT_s2",60.96195,-138.4127,1734,2.306,8,2016-07-04,2016-08-14,41,"Summer","1.869","Yes",1.942,1.619943356,0.16583761277034,"None","Haydn Thomas",NA,"","60.96195_-138.4127"
"553","K13","Rooibos","Kluane","Kluane Plateau","KP_HT_s2",60.96195,-138.4127,1734,2.305,8,2016-07-04,2016-08-14,41,"Summer","1.877","Yes",1.941,1.627943356,0.161286266872746,"None","Haydn Thomas",NA,"","60.96195_-138.4127"
"554","K14","Rooibos","Kluane","Kluane Plateau","KP_HT_s2",60.96195,-138.4127,1734,2.194,8,2016-07-04,2016-08-14,41,"Summer","1.838","Yes",1.836,1.588943356,0.134562442265795,"None","Haydn Thomas",NA,"","60.96195_-138.4127"
"555","K15","Rooibos","Kluane","Kluane Plateau","KP_HT_s2",60.96195,-138.4127,1734,2.308,8,2016-07-04,2016-08-14,41,"Summer","1.908","Yes",1.944,1.658943356,0.146634076131687,"None","Haydn Thomas",NA,"","60.96195_-138.4127"
"556","K16","Rooibos","Kluane","Kluane Plateau","KP_HT_s2",60.96195,-138.4127,1734,2.266,8,2016-07-04,2016-08-14,41,"Summer","1.868","Yes",1.904,1.618943356,0.14971462394958,"None","Haydn Thomas",NA,"","60.96195_-138.4127"
"557","K17","Rooibos","Kluane","Kluane Plateau","KP_HT_s2",60.96195,-138.4127,1734,2.19,8,2016-07-04,2016-08-14,41,"Summer","1.851","Yes",1.832,1.601943356,0.125576770742358,"None","Haydn Thomas",NA,"","60.96195_-138.4127"
"558","K18","Rooibos","Kluane","Kluane Plateau","KP_HT_s2",60.96195,-138.4127,1734,2.153,8,2016-07-04,2016-08-14,41,"Summer","1.806","Yes",1.797,1.556943356,0.133587447968837,"None","Haydn Thomas",NA,"","60.96195_-138.4127"
"559","K19","Rooibos","Kluane","Kluane Plateau","KP_HT_s2",60.96195,-138.4127,1734,2.19,8,2016-07-04,2016-08-14,41,"Summer","1.821","Yes",1.832,1.571943356,0.141952316593887,"None","Haydn Thomas",NA,"","60.96195_-138.4127"
"560","K20","Rooibos","Kluane","Kluane Plateau","KP_HT_s2",60.96195,-138.4127,1734,2.22,8,2016-07-04,2016-08-14,41,"Summer","1.849","Yes",1.86,1.599943356,0.1398154,"None","Haydn Thomas",NA,"","60.96195_-138.4127"
"561","K11","Green","Kluane","Kluane Plateau","KP_HT_s2",60.96195,-138.4127,1734,2.063,8,2016-07-04,2016-08-14,41,"Summer","1.28","Yes",1.745,1.031309356,0.408991773065903,"None","Haydn Thomas",NA,"","60.96195_-138.4127"
"562","K12","Green","Kluane","Kluane Plateau","KP_HT_s2",60.96195,-138.4127,1734,2.002,8,2016-07-04,2016-08-14,41,"Summer","1.199","Yes",1.687,0.950309356,0.436686807350326,"None","Haydn Thomas",NA,"","60.96195_-138.4127"
"563","K13","Green","Kluane","Kluane Plateau","KP_HT_s2",60.96195,-138.4127,1734,2.046,8,2016-07-04,2016-08-14,41,"Summer","1.266","Yes",1.729,1.017309356,0.411619805668016,"None","Haydn Thomas",NA,"","60.96195_-138.4127"
"564","K14","Green","Kluane","Kluane Plateau","KP_HT_s2",60.96195,-138.4127,1734,2.059,8,2016-07-04,2016-08-14,41,"Summer","1.239","Yes",1.742,0.990309356,0.43151012858783,"None","Haydn Thomas",NA,"","60.96195_-138.4127"
"565","K15","Green","Kluane","Kluane Plateau","KP_HT_s2",60.96195,-138.4127,1734,2.127,8,2016-07-04,2016-08-14,41,"Summer","1.296","Yes",1.807,1.047309356,0.420415408965136,"None","Haydn Thomas",NA,"","60.96195_-138.4127"
"566","K16","Green","Kluane","Kluane Plateau","KP_HT_s2",60.96195,-138.4127,1734,1.994,8,2016-07-04,2016-08-14,41,"Summer","1.258","Yes",1.679,1.009309356,0.398862801667659,"None","Haydn Thomas",NA,"","60.96195_-138.4127"
"567","K17","Green","Kluane","Kluane Plateau","KP_HT_s2",60.96195,-138.4127,1734,2.141,8,2016-07-04,2016-08-14,41,"Summer","1.436","Yes",1.82,1.187309356,0.347632221978022,"None","Haydn Thomas",NA,"","60.96195_-138.4127"
"568","K18","Green","Kluane","Kluane Plateau","KP_HT_s2",60.96195,-138.4127,1734,2.095,8,2016-07-04,2016-08-14,41,"Summer","1.251","Yes",1.776,1.002309356,0.435636623873874,"None","Haydn Thomas",NA,"","60.96195_-138.4127"
"569","K19","Green","Kluane","Kluane Plateau","KP_HT_s2",60.96195,-138.4127,1734,2.086,8,2016-07-04,2016-08-14,41,"Summer","1.196","Yes",1.768,0.947309356,0.464191540723982,"None","Haydn Thomas",NA,"","60.96195_-138.4127"
"570","K20","Green","Kluane","Kluane Plateau","KP_HT_s2",60.96195,-138.4127,1734,1.98,8,2016-07-04,2016-08-14,41,"Summer","1.136","Yes",1.666,0.887309356,0.467401346938775,"None","Haydn Thomas",NA,"","60.96195_-138.4127"
"571","Kr11","Rooibos","Kluane","Kluane Plateau","KP_HT_year",60.96195,-138.4127,1734,2.249,8,2015-07-01,2016-07-04,369,"Year","1.627","No",1.888,1.50346,0.203675847457627,"None","Haydn Thomas",NA,"","60.96195_-138.4127"
"572","Kr12","Rooibos","Kluane","Kluane Plateau","KP_HT_year",60.96195,-138.4127,1734,2.204,8,2015-07-01,2016-07-04,369,"Year","1.646","No",1.845,1.52246,0.174818428184282,"None","Haydn Thomas",NA,"","60.96195_-138.4127"
"573","Kr13","Rooibos","Kluane","Kluane Plateau","KP_HT_year",60.96195,-138.4127,1734,2.195,8,2015-07-01,2016-07-04,369,"Year","1.577","No",1.837,1.45346,0.208786064235166,"None","Haydn Thomas",NA,"","60.96195_-138.4127"
"574","Kr14","Rooibos","Kluane","Kluane Plateau","KP_HT_year",60.96195,-138.4127,1734,2.24,8,2015-07-01,2016-07-04,369,"Year","1.668","No",1.879,1.54446,0.178041511442257,"None","Haydn Thomas",NA,"","60.96195_-138.4127"
"575","Kr15","Rooibos","Kluane","Kluane Plateau","KP_HT_year",60.96195,-138.4127,1734,2.301,8,2015-07-01,2016-07-04,369,"Year","1.704","No",1.937,1.58046,0.184068146618482,"None","Haydn Thomas",NA,"","60.96195_-138.4127"
"576","Kr16","Rooibos","Kluane","Kluane Plateau","KP_HT_year",60.96195,-138.4127,1734,2.308,8,2015-07-01,2016-07-04,369,"Year","1.685","No",1.944,1.56146,0.196779835390946,"None","Haydn Thomas",NA,"","60.96195_-138.4127"
"577","Kr17","Rooibos","Kluane","Kluane Plateau","KP_HT_year",60.96195,-138.4127,1734,2.224,8,2015-07-01,2016-07-04,369,"Year","1.615","No",1.864,1.49146,0.199860515021459,"None","Haydn Thomas",NA,"","60.96195_-138.4127"
"578","Kr18","Rooibos","Kluane","Kluane Plateau","KP_HT_year",60.96195,-138.4127,1734,2.238,8,2015-07-01,2016-07-04,369,"Year","1.525","No",1.877,1.40146,0.253351092168354,"None","Haydn Thomas",NA,"","60.96195_-138.4127"
"579","Kr19","Rooibos","Kluane","Kluane Plateau","KP_HT_year",60.96195,-138.4127,1734,2.212,8,2015-07-01,2016-07-04,369,"Year","1.670","No",1.853,1.54646,0.165429033998921,"None","Haydn Thomas",NA,"","60.96195_-138.4127"
"580","Kr20","Rooibos","Kluane","Kluane Plateau","KP_HT_year",60.96195,-138.4127,1734,2.22,8,2015-07-01,2016-07-04,369,"Year","1.664","No",1.86,1.54046,0.171795698924731,"None","Haydn Thomas",NA,"","60.96195_-138.4127"
"581","Kg11","Green","Kluane","Kluane Plateau","KP_HT_year",60.96195,-138.4127,1734,2.04,8,2015-07-01,2016-07-04,369,"Year","1.046","No",1.723,0.92284,0.464399303540337,"None","Haydn Thomas",NA,"","60.96195_-138.4127"
"582","Kg12","Green","Kluane","Kluane Plateau","KP_HT_year",60.96195,-138.4127,1734,2.061,8,2015-07-01,2016-07-04,369,"Year","1.064","No",1.743,0.94084,0.46021801491681,"None","Haydn Thomas",NA,"","60.96195_-138.4127"
"583","Kg13","Green","Kluane","Kluane Plateau","KP_HT_year",60.96195,-138.4127,1734,2.03,8,2015-07-01,2016-07-04,369,"Year","1.010","No",1.714,0.88684,0.482590431738623,"None","Haydn Thomas",NA,"","60.96195_-138.4127"
"584","Kg14","Green","Kluane","Kluane Plateau","KP_HT_year",60.96195,-138.4127,1734,2.005,8,2015-07-01,2016-07-04,369,"Year","1.096","No",1.69,0.97284,0.424355029585799,"None","Haydn Thomas",NA,"","60.96195_-138.4127"
"585","Kg15","Green","Kluane","Kluane Plateau","KP_HT_year",60.96195,-138.4127,1734,2.111,8,2015-07-01,2016-07-04,369,"Year","1.138","No",1.792,1.01484,0.433683035714286,"None","Haydn Thomas",NA,"","60.96195_-138.4127"
"586","Kg16","Green","Kluane","Kluane Plateau","KP_HT_year",60.96195,-138.4127,1734,2.045,8,2015-07-01,2016-07-04,369,"Year","0.915","No",1.728,0.79184,0.541759259259259,"None","Haydn Thomas",NA,"","60.96195_-138.4127"
"587","Kg17","Green","Kluane","Kluane Plateau","KP_HT_year",60.96195,-138.4127,1734,2.111,8,2015-07-01,2016-07-04,369,"Year","1.033","No",1.792,0.90984,0.492276785714286,"None","Haydn Thomas",NA,"","60.96195_-138.4127"
"588","Kg18","Green","Kluane","Kluane Plateau","KP_HT_year",60.96195,-138.4127,1734,1.963,8,2015-07-01,2016-07-04,369,"Year","0.986","No",1.649,0.86284,0.476749545178896,"None","Haydn Thomas",NA,"","60.96195_-138.4127"
"589","Kg19","Green","Kluane","Kluane Plateau","KP_HT_year",60.96195,-138.4127,1734,2.207,8,2015-07-01,2016-07-04,369,"Year","1.148","No",1.884,1.02484,0.456029723991507,"None","Haydn Thomas",NA,"","60.96195_-138.4127"
"590","Kg20","Green","Kluane","Kluane Plateau","KP_HT_year",60.96195,-138.4127,1734,2.022,8,2015-07-01,2016-07-04,369,"Year","1.030","No",1.706,0.90684,0.468440797186401,"None","Haydn Thomas",NA,"","60.96195_-138.4127"
"591","KPg31","Green","Kluane","Kluane Plateau","KP_HT_winter",60.96195,-138.4127,1734,2.048,8,2015-08-18,2016-07-04,321,"Winter","1.080","No",1.731,0.95684,0.447232813402657,"None","Haydn Thomas",NA,"","60.96195_-138.4127"
"592","KPg32","Green","Kluane","Kluane Plateau","KP_HT_winter",60.96195,-138.4127,1734,2.069,8,2015-08-18,2016-07-04,321,"Winter","1.126","No",1.751,1.00284,0.427275842375785,"None","Haydn Thomas",NA,"","60.96195_-138.4127"
"593","KPg33","Green","Kluane","Kluane Plateau","KP_HT_winter",60.96195,-138.4127,1734,2.005,8,2015-08-18,2016-07-04,321,"Winter","1.075","No",1.69,0.95184,0.436781065088757,"None","Haydn Thomas",NA,"","60.96195_-138.4127"
"594","KPg34","Green","Kluane","Kluane Plateau","KP_HT_winter",60.96195,-138.4127,1734,2.104,8,2015-08-18,2016-07-04,321,"Winter","1.173","No",1.785,1.04984,0.411854341736695,"None","Haydn Thomas",NA,"","60.96195_-138.4127"
"595","KPg35","Green","Kluane","Kluane Plateau","KP_HT_winter",60.96195,-138.4127,1734,2.191,8,2015-08-18,2016-07-04,321,"Winter","1.214","No",1.869,1.09084,0.416350989834136,"None","Haydn Thomas",NA,"","60.96195_-138.4127"
"596","KPg36","Green","Kluane","Kluane Plateau","KP_HT_winter",60.96195,-138.4127,1734,2.196,8,2015-08-18,2016-07-04,321,"Winter","1.186","No",1.873,1.06284,0.432546716497597,"None","Haydn Thomas",NA,"","60.96195_-138.4127"
"597","KPg37","Green","Kluane","Kluane Plateau","KP_HT_winter",60.96195,-138.4127,1734,2.076,8,2015-08-18,2016-07-04,321,"Winter","1.116","No",1.758,0.99284,0.435244596131968,"None","Haydn Thomas",NA,"","60.96195_-138.4127"
"598","KPg38","Green","Kluane","Kluane Plateau","KP_HT_winter",60.96195,-138.4127,1734,2.078,8,2015-08-18,2016-07-04,321,"Winter","1.050","No",1.76,0.92684,0.473386363636364,"None","Haydn Thomas",NA,"","60.96195_-138.4127"
"599","KPg39","Green","Kluane","Kluane Plateau","KP_HT_winter",60.96195,-138.4127,1734,2.207,8,2015-08-18,2016-07-04,321,"Winter","1.159","No",1.884,1.03584,0.450191082802548,"None","Haydn Thomas",NA,"","60.96195_-138.4127"
"600","KPg40","Green","Kluane","Kluane Plateau","KP_HT_winter",60.96195,-138.4127,1734,1.976,8,2015-08-18,2016-07-04,321,"Winter","1.050","No",1.662,0.92684,0.442334536702768,"None","Haydn Thomas",NA,"","60.96195_-138.4127"
"601","KPR31","Rooibos","Kluane","Kluane Plateau","KP_HT_winter",60.96195,-138.4127,1734,2.293,8,2015-08-18,2016-07-04,321,"Winter","1.714","No",1.929,1.59046,0.175500259201659,"None","Haydn Thomas",NA,"","60.96195_-138.4127"
"602","KPR32","Rooibos","Kluane","Kluane Plateau","KP_HT_winter",60.96195,-138.4127,1734,2.218,8,2015-08-18,2016-07-04,321,"Winter","1.691","No",1.859,1.56746,0.156826250672405,"None","Haydn Thomas",NA,"","60.96195_-138.4127"
"603","KPR33","Rooibos","Kluane","Kluane Plateau","KP_HT_winter",60.96195,-138.4127,1734,2.239,8,2015-08-18,2016-07-04,321,"Winter","1.689","No",1.878,1.56546,0.166421725239617,"None","Haydn Thomas",NA,"","60.96195_-138.4127"
"604","KPR34","Rooibos","Kluane","Kluane Plateau","KP_HT_winter",60.96195,-138.4127,1734,2.179,8,2015-08-18,2016-07-04,321,"Winter","1.634","No",1.822,1.51046,0.170987925356751,"None","Haydn Thomas",NA,"","60.96195_-138.4127"
"605","KPR35","Rooibos","Kluane","Kluane Plateau","KP_HT_winter",60.96195,-138.4127,1734,2.323,8,2015-08-18,2016-07-04,321,"Winter","1.725","No",1.958,1.60146,0.182093973442288,"None","Haydn Thomas",NA,"","60.96195_-138.4127"
"606","KPR36","Rooibos","Kluane","Kluane Plateau","KP_HT_winter",60.96195,-138.4127,1734,2.318,8,2015-08-18,2016-07-04,321,"Winter","1.713","No",1.953,1.58946,0.186144393241167,"None","Haydn Thomas",NA,"","60.96195_-138.4127"
"607","KPR38","Rooibos","Kluane","Kluane Plateau","KP_HT_winter",60.96195,-138.4127,1734,2.219,8,2015-08-18,2016-07-04,321,"Winter","1.680","No",1.86,1.55646,0.163193548387097,"None","Haydn Thomas",NA,"","60.96195_-138.4127"
"608","KPR39","Rooibos","Kluane","Kluane Plateau","KP_HT_winter",60.96195,-138.4127,1734,2.185,8,2015-08-18,2016-07-04,321,"Winter","1.664","No",1.827,1.54046,0.156836343732895,"None","Haydn Thomas",NA,"","60.96195_-138.4127"
"609","KPR40","Rooibos","Kluane","Kluane Plateau","KP_HT_winter",60.96195,-138.4127,1734,2.249,8,2015-08-18,2016-07-04,321,"Winter","1.708","No",1.888,1.58446,0.160773305084746,"None","Haydn Thomas",NA,"Decomp Experiment","60.96195_-138.4127"
"610","Kr1","Rooibos","Kluane","Kluane Plateau","KP_Y1_3m",60.96195,-138.4127,1734,2.254,8,2015-07-01,2015-08-18,48,"Summer","1.856","Yes",1.893,1.606943356,0.151112860010565,"None","Haydn Thomas",NA,"","60.96195_-138.4127"
"611","Kr2","Rooibos","Kluane","Kluane Plateau","KP_Y1_3m",60.96195,-138.4127,1734,2.275,8,2015-07-01,2015-08-18,48,"Summer","1.849","Yes",1.912,1.599943356,0.163209541841004,"None","Haydn Thomas",NA,"","60.96195_-138.4127"
"612","Kr3","Rooibos","Kluane","Kluane Plateau","KP_Y1_3m",60.96195,-138.4127,1734,2.22,8,2015-07-01,2015-08-18,48,"Summer","1.885","Yes",1.86,1.635943356,0.120460561290323,"None","Haydn Thomas",NA,"","60.96195_-138.4127"
"613","Kr4","Rooibos","Kluane","Kluane Plateau","KP_Y1_3m",60.96195,-138.4127,1734,2.221,8,2015-07-01,2015-08-18,48,"Summer","1.807","Yes",1.861,1.557943356,0.162846127888232,"None","Haydn Thomas",NA,"","60.96195_-138.4127"
"614","Kr5","Rooibos","Kluane","Kluane Plateau","KP_Y1_3m",60.96195,-138.4127,1734,2.226,8,2015-07-01,2015-08-18,48,"Summer","1.816","Yes",1.866,1.566943356,0.160266154340836,"None","Haydn Thomas",NA,"","60.96195_-138.4127"
"615","Kr7","Rooibos","Kluane","Kluane Plateau","KP_Y1_3m",60.96195,-138.4127,1734,2.257,8,2015-07-01,2015-08-18,48,"Summer","1.931","Yes",1.895,1.681943356,0.112430946701847,"None","Haydn Thomas",NA,"","60.96195_-138.4127"
"616","Kr8","Rooibos","Kluane","Kluane Plateau","KP_Y1_3m",60.96195,-138.4127,1734,2.213,8,2015-07-01,2015-08-18,48,"Summer","1.838","Yes",1.854,1.588943356,0.142964748651564,"None","Haydn Thomas",NA,"","60.96195_-138.4127"
"617","Kr9","Rooibos","Kluane","Kluane Plateau","KP_Y1_3m",60.96195,-138.4127,1734,2.197,8,2015-07-01,2015-08-18,48,"Summer","1.842","Yes",1.839,1.592943356,0.133799153887983,"None","Haydn Thomas",NA,"","60.96195_-138.4127"
"618","Kr10","Rooibos","Kluane","Kluane Plateau","KP_Y1_3m",60.96195,-138.4127,1734,2.256,8,2015-07-01,2015-08-18,48,"Summer","1.883","Yes",1.894,1.633943356,0.137305514255544,"None","Haydn Thomas",NA,"","60.96195_-138.4127"
"619","Kg1","Green","Kluane","Kluane Plateau","KP_Y1_3m",60.96195,-138.4127,1734,2.053,8,2015-07-01,2015-08-18,48,"Summer","1.372","Yes",1.736,1.123309356,0.352932398617511,"None","Haydn Thomas",NA,"","60.96195_-138.4127"
"620","Kg2","Green","Kluane","Kluane Plateau","KP_Y1_3m",60.96195,-138.4127,1734,1.957,8,2015-07-01,2015-08-18,48,"Summer","1.224","Yes",1.643,0.975309356,0.406385054169203,"None","Haydn Thomas",NA,"","60.96195_-138.4127"
"621","Kg3","Green","Kluane","Kluane Plateau","KP_Y1_3m",60.96195,-138.4127,1734,2.128,8,2015-07-01,2015-08-18,48,"Summer","1.347","Yes",1.808,1.098309356,0.392528011061947,"None","Haydn Thomas",NA,"","60.96195_-138.4127"
"622","Kg4","Green","Kluane","Kluane Plateau","KP_Y1_3m",60.96195,-138.4127,1734,2.048,8,2015-07-01,2015-08-18,48,"Summer","1.235","Yes",1.731,0.986309356,0.430208344309648,"None","Haydn Thomas",NA,"","60.96195_-138.4127"
"623","Kg5","Green","Kluane","Kluane Plateau","KP_Y1_3m",60.96195,-138.4127,1734,2.087,8,2015-07-01,2015-08-18,48,"Summer","1.252","Yes",1.768,1.003309356,0.432517332579186,"None","Haydn Thomas",NA,"","60.96195_-138.4127"
"624","Kg6","Green","Kluane","Kluane Plateau","KP_Y1_3m",60.96195,-138.4127,1734,2.091,8,2015-07-01,2015-08-18,48,"Summer","1.307","Yes",1.772,1.058309356,0.402759957110609,"None","Haydn Thomas",NA,"","60.96195_-138.4127"
"625","Kg7","Green","Kluane","Kluane Plateau","KP_Y1_3m",60.96195,-138.4127,1734,2.096,8,2015-07-01,2015-08-18,48,"Summer","1.326","Yes",1.777,1.077309356,0.393748252110298,"None","Haydn Thomas",NA,"","60.96195_-138.4127"
"626","Kg8","Green","Kluane","Kluane Plateau","KP_Y1_3m",60.96195,-138.4127,1734,2.117,8,2015-07-01,2015-08-18,48,"Summer","1.344","Yes",1.797,1.095309356,0.39047893377852,"None","Haydn Thomas",NA,"","60.96195_-138.4127"
"627","Kg9","Green","Kluane","Kluane Plateau","KP_Y1_3m",60.96195,-138.4127,1734,2.109,8,2015-07-01,2015-08-18,48,"Summer","1.352","Yes",1.79,1.103309356,0.383626058100559,"None","Haydn Thomas",NA,"","60.96195_-138.4127"
"628","Kg10","Green","Kluane","Kluane Plateau","KP_Y1_3m",60.96195,-138.4127,1734,1.893,8,2015-07-01,2015-08-18,48,"Summer","1.126","Yes",1.582,0.877309356,0.445442884955752,"None","Haydn Thomas",NA,"","60.96195_-138.4127"
"629","9A1","Green","Kluane","Kluane Elevation Transect 9","9A",60.95791,-138.4175,1799,2.097,8,2016-06-24,2016-08-13,50,"Summer","1.091","Yes",1.778,0.842309356,0.526260204724409,"None","Eleanor Walker, Haydn Thomas",NA,"","60.95791_-138.4175"
"630","9A2","Green","Kluane","Kluane Elevation Transect 9","9A",60.95791,-138.4175,1799,2.016,8,2016-06-24,2016-08-13,50,"Summer","1.044","Yes",1.7,0.795309356,0.532170967058823,"None","Eleanor Walker, Haydn Thomas",NA,"","60.95791_-138.4175"
"631","9A3","Green","Kluane","Kluane Elevation Transect 9","9A",60.95791,-138.4175,1799,2.063,8,2016-06-24,2016-08-13,50,"Summer","1.185","Yes",1.745,0.936309356,0.463433033810888,"None","Eleanor Walker, Haydn Thomas",NA,"","60.95791_-138.4175"
"632","9A4","Green","Kluane","Kluane Elevation Transect 9","9A",60.95791,-138.4175,1799,2.086,8,2016-06-24,2016-08-13,50,"Summer","1.047","Yes",1.768,0.798309356,0.548467558823529,"None","Eleanor Walker, Haydn Thomas",NA,"","60.95791_-138.4175"
"633","9A1","Rooibos","Kluane","Kluane Elevation Transect 9","9A",60.95791,-138.4175,1799,2.294,8,2016-06-24,2016-08-13,50,"Summer","1.812","Yes",1.93,1.562943356,0.190184789637306,"None","Eleanor Walker, Haydn Thomas",NA,"","60.95791_-138.4175"
"634","9A3","Rooibos","Kluane","Kluane Elevation Transect 9","9A",60.95791,-138.4175,1799,2.255,8,2016-06-24,2016-08-13,50,"Summer","1.824","Yes",1.893,1.574943356,0.168017244585314,"None","Eleanor Walker, Haydn Thomas",NA,"","60.95791_-138.4175"
"635","9A4","Rooibos","Kluane","Kluane Elevation Transect 9","9A",60.95791,-138.4175,1799,2.248,8,2016-06-24,2016-08-13,50,"Summer","1.854","Yes",1.887,1.604943356,0.149473579226285,"None","Eleanor Walker, Haydn Thomas",NA,"","60.95791_-138.4175"
"636","10A2","Green","Kluane","Kluane Elevation Transect 10","10A",60.95241,-138.42418,1926,2.057,8,2016-06-24,2016-08-13,50,"Summer","0.835","Yes",1.74,0.586309356,0.6630406,"None","Eleanor Walker, Haydn Thomas",NA,"","60.95241_-138.42418"
"637","10A3","Green","Kluane","Kluane Elevation Transect 10","10A",60.95241,-138.42418,1926,1.885,8,2016-06-24,2016-08-13,50,"Summer","0.857","Yes",1.574,0.608309356,0.613526457433291,"None","Eleanor Walker, Haydn Thomas",NA,"","60.95241_-138.42418"
"638","10A4","Green","Kluane","Kluane Elevation Transect 10","10A",60.95241,-138.42418,1926,1.957,8,2016-06-24,2016-08-13,50,"Summer","0.706","No",1.643,0.58284,0.645258673158856,"None","Eleanor Walker, Haydn Thomas",NA,"","60.95241_-138.42418"
"639","10M1","Green","Kluane","Kluane Elevation Transect 10","10M",60.95241,-138.42418,1926,2.008,8,2016-06-24,2016-08-13,50,"Summer","1.152","Yes",1.692,0.903309356,0.466129222222222,"Moisture","Eleanor Walker, Haydn Thomas",NA,"","60.95241_-138.42418"
"640","10M2","Green","Kluane","Kluane Elevation Transect 10","10M",60.95241,-138.42418,1926,2.052,8,2016-06-24,2016-08-13,50,"Summer","1.139","Yes",1.735,0.890309356,0.486853397118156,"Moisture","Eleanor Walker, Haydn Thomas",NA,"","60.95241_-138.42418"
"641","10M3","Green","Kluane","Kluane Elevation Transect 10","10M",60.95241,-138.42418,1926,2.039,8,2016-06-24,2016-08-13,50,"Summer","1.172","Yes",1.722,0.923309356,0.463815704994193,"Moisture","Eleanor Walker, Haydn Thomas",NA,"","60.95241_-138.42418"
"642","10M4","Green","Kluane","Kluane Elevation Transect 10","10M",60.95241,-138.42418,1926,2.018,8,2016-06-24,2016-08-13,50,"Summer","1.171","Yes",1.702,0.922309356,0.458102611045828,"Moisture","Eleanor Walker, Haydn Thomas",NA,"","60.95241_-138.42418"
"643","10T1","Green","Kluane","Kluane Elevation Transect 10","10T",60.95241,-138.42418,1926,1.978,8,2016-06-24,2016-08-13,50,"Summer","0.979","Yes",1.664,0.730309356,0.561112165865385,"Warming","Eleanor Walker, Haydn Thomas",NA,"","60.95241_-138.42418"
"644","10T2","Green","Kluane","Kluane Elevation Transect 10","10T",60.95241,-138.42418,1926,1.968,8,2016-06-24,2016-08-13,50,"Summer","1.05","Yes",1.654,0.801309356,0.515532432889964,"Warming","Eleanor Walker, Haydn Thomas",NA,"","60.95241_-138.42418"
"645","10T3","Green","Kluane","Kluane Elevation Transect 10","10T",60.95241,-138.42418,1926,2.08,8,2016-06-24,2016-08-13,50,"Summer","1.186","Yes",1.762,0.937309356,0.46804236322361,"Warming","Eleanor Walker, Haydn Thomas",NA,"","60.95241_-138.42418"
"646","10T4","Green","Kluane","Kluane Elevation Transect 10","10T",60.95241,-138.42418,1926,2.044,8,2016-06-24,2016-08-13,50,"Summer","0.911","Yes",1.727,0.662309356,0.616497188187609,"Warming","Eleanor Walker, Haydn Thomas",NA,"","60.95241_-138.42418"
"647","10B1","Green","Kluane","Kluane Elevation Transect 10","10B",60.95241,-138.42418,1926,2.139,8,2016-06-24,2016-08-13,50,"Summer","1.127","Yes",1.819,0.878309356,0.517147137987905,"Warming + Moisture","Eleanor Walker, Haydn Thomas",NA,"","60.95241_-138.42418"
"648","10B2","Green","Kluane","Kluane Elevation Transect 10","10B",60.95241,-138.42418,1926,2.051,8,2016-06-24,2016-08-13,50,"Summer","1.16","Yes",1.734,0.911309356,0.474446738177624,"Warming + Moisture","Eleanor Walker, Haydn Thomas",NA,"","60.95241_-138.42418"
"649","10B3","Green","Kluane","Kluane Elevation Transect 10","10B",60.95241,-138.42418,1926,2.143,8,2016-06-24,2016-08-13,50,"Summer","1.334","Yes",1.822,1.085309356,0.40433075960483,"Warming + Moisture","Eleanor Walker, Haydn Thomas",NA,"","60.95241_-138.42418"
"650","10B4","Green","Kluane","Kluane Elevation Transect 10","10B",60.95241,-138.42418,1926,2.158,8,2016-06-24,2016-08-13,50,"Summer","1.234","Yes",1.837,0.985309356,0.463631270549809,"Warming + Moisture","Eleanor Walker, Haydn Thomas",NA,"","60.95241_-138.42418"
"651","10A1","Green","Kluane","Kluane Elevation Transect 10","10A",60.95241,-138.42418,1926,1.962,8,2016-06-24,2016-08-13,50,"Summer","0.811","Yes",1.648,0.562309356,0.658792866504854,"None","Eleanor Walker, Haydn Thomas",NA,"","60.95241_-138.42418"
"652","10A2","Rooibos","Kluane","Kluane Elevation Transect 10","10A",60.95241,-138.42418,1926,2.266,8,2016-06-24,2016-08-13,50,"Summer","1.756","Yes",1.904,1.506943356,0.208538153361345,"None","Eleanor Walker, Haydn Thomas",NA,"","60.95241_-138.42418"
"653","10A3","Rooibos","Kluane","Kluane Elevation Transect 10","10A",60.95241,-138.42418,1926,2.217,8,2016-06-24,2016-08-13,50,"Summer","1.665","Yes",1.858,1.415943356,0.237920691065662,"None","Eleanor Walker, Haydn Thomas",NA,"","60.95241_-138.42418"
"654","10A4","Rooibos","Kluane","Kluane Elevation Transect 10","10A",60.95241,-138.42418,1926,2.203,8,2016-06-24,2016-08-13,50,"Summer","1.626","Yes",1.844,1.376943356,0.253284514099783,"None","Eleanor Walker, Haydn Thomas",NA,"","60.95241_-138.42418"
"655","10M1","Rooibos","Kluane","Kluane Elevation Transect 10","10M",60.95241,-138.42418,1926,2.258,8,2016-06-24,2016-08-13,50,"Summer","1.795","Yes",1.896,1.545943356,0.18462903164557,"Moisture","Eleanor Walker, Haydn Thomas",NA,"","60.95241_-138.42418"
"656","10M2","Rooibos","Kluane","Kluane Elevation Transect 10","10M",60.95241,-138.42418,1926,2.273,8,2016-06-24,2016-08-13,50,"Summer","1.798","Yes",1.91,1.548943356,0.189034892146597,"Moisture","Eleanor Walker, Haydn Thomas",NA,"","60.95241_-138.42418"
"657","10M3","Rooibos","Kluane","Kluane Elevation Transect 10","10M",60.95241,-138.42418,1926,2.189,8,2016-06-24,2016-08-13,50,"Summer","1.784","Yes",1.831,1.534943356,0.1616912310213,"Moisture","Eleanor Walker, Haydn Thomas",NA,"","60.95241_-138.42418"
"658","10M4","Rooibos","Kluane","Kluane Elevation Transect 10","10M",60.95241,-138.42418,1926,2.226,8,2016-06-24,2016-08-13,50,"Summer","1.796","Yes",1.866,1.546943356,0.17098426795284,"Moisture","Eleanor Walker, Haydn Thomas",NA,"","60.95241_-138.42418"
"659","10T1","Rooibos","Kluane","Kluane Elevation Transect 10","10T",60.95241,-138.42418,1926,2.276,8,2016-06-24,2016-08-13,50,"Summer","1.8","Yes",1.913,1.550943356,0.189261183481443,"Warming","Eleanor Walker, Haydn Thomas",NA,"","60.95241_-138.42418"
"660","10T2","Rooibos","Kluane","Kluane Elevation Transect 10","10T",60.95241,-138.42418,1926,2.272,8,2016-06-24,2016-08-13,50,"Summer","1.742","Yes",1.91,1.492943356,0.218354263874346,"Warming","Eleanor Walker, Haydn Thomas",NA,"","60.95241_-138.42418"
"661","10T3","Rooibos","Kluane","Kluane Elevation Transect 10","10T",60.95241,-138.42418,1926,2.18,8,2016-06-24,2016-08-13,50,"Summer","1.798","Yes",1.823,1.548943356,0.150332772353264,"Warming","Eleanor Walker, Haydn Thomas",NA,"","60.95241_-138.42418"
"662","10T4","Rooibos","Kluane","Kluane Elevation Transect 10","10T",60.95241,-138.42418,1926,2.245,8,2016-06-24,2016-08-13,50,"Summer","1.784","Yes",1.884,1.534943356,0.185274227176221,"Warming","Eleanor Walker, Haydn Thomas",NA,"","60.95241_-138.42418"
"663","10B1","Rooibos","Kluane","Kluane Elevation Transect 10","10B",60.95241,-138.42418,1926,2.315,8,2016-06-24,2016-08-13,50,"Summer","1.931","Yes",1.95,1.681943356,0.137464945641026,"Warming + Moisture","Eleanor Walker, Haydn Thomas",NA,"","60.95241_-138.42418"
"664","10B2","Rooibos","Kluane","Kluane Elevation Transect 10","10B",60.95241,-138.42418,1926,2.244,8,2016-06-24,2016-08-13,50,"Summer","1.842","Yes",1.883,1.592943356,0.154039640998407,"Warming + Moisture","Eleanor Walker, Haydn Thomas",NA,"","60.95241_-138.42418"
"665","10B3","Rooibos","Kluane","Kluane Elevation Transect 10","10B",60.95241,-138.42418,1926,2.251,8,2016-06-24,2016-08-13,50,"Summer","1.831","Yes",1.89,1.581943356,0.162992933333333,"Warming + Moisture","Eleanor Walker, Haydn Thomas",NA,"","60.95241_-138.42418"
"666","10B4","Rooibos","Kluane","Kluane Elevation Transect 10","10B",60.95241,-138.42418,1926,2.266,8,2016-06-24,2016-08-13,50,"Summer","1.842","Yes",1.904,1.592943356,0.163370086134454,"Warming + Moisture","Eleanor Walker, Haydn Thomas",NA,"","60.95241_-138.42418"
"667","10A1","Rooibos","Kluane","Kluane Elevation Transect 10","10A",60.95241,-138.42418,1926,2.214,8,2016-06-24,2016-08-13,50,"Summer","1.658","Yes",1.855,1.408943356,0.240461802695418,"None","Eleanor Walker, Haydn Thomas",NA,"","60.95241_-138.42418"
"668","11A1","Green","Kluane","Kluane Elevation Transect 11","11A",60.95047,-138.43078,2002,2.113,8,2016-06-24,2016-08-13,50,"Summer","1.278","Yes",1.793,1.029309356,0.425928970440602,"None","Eleanor Walker, Haydn Thomas",NA,"","60.95047_-138.43078"
"669","11A2","Green","Kluane","Kluane Elevation Transect 11","11A",60.95047,-138.43078,2002,2.182,8,2016-06-24,2016-08-13,50,"Summer","1.119","Yes",1.86,0.870309356,0.532091744086022,"None","Eleanor Walker, Haydn Thomas",NA,"","60.95047_-138.43078"
"670","11A3","Green","Kluane","Kluane Elevation Transect 11","11A",60.95047,-138.43078,2002,1.9,8,2016-06-24,2016-08-13,50,"Summer","1.092","Yes",1.589,0.843309356,0.469282972938955,"None","Eleanor Walker, Haydn Thomas",NA,"","60.95047_-138.43078"
"671","11A4","Green","Kluane","Kluane Elevation Transect 11","11A",60.95047,-138.43078,2002,1.935,8,2016-06-24,2016-08-13,50,"Summer","1.024","Yes",1.622,0.775309356,0.522004096177559,"None","Eleanor Walker, Haydn Thomas",NA,"","60.95047_-138.43078"
"672","11A5","Green","Kluane","Kluane Elevation Transect 11","11A",60.95047,-138.43078,2002,2.217,8,2016-06-24,2016-08-13,50,"Summer","1.43","Yes",1.894,1.181309356,0.376288618796198,"None","Eleanor Walker, Haydn Thomas",NA,"","60.95047_-138.43078"
"673","11A1","Rooibos","Kluane","Kluane Elevation Transect 11","11A",60.95047,-138.43078,2002,2.238,8,2016-06-24,2016-08-13,50,"Summer","1.823","Yes",1.877,1.573943356,0.161457988279169,"None","Eleanor Walker, Haydn Thomas",NA,"","60.95047_-138.43078"
"674","11A2","Rooibos","Kluane","Kluane Elevation Transect 11","11A",60.95047,-138.43078,2002,2.281,8,2016-06-24,2016-08-13,50,"Summer","1.786","Yes",1.918,1.536943356,0.198673954118874,"None","Eleanor Walker, Haydn Thomas",NA,"","60.95047_-138.43078"
"675","11A3","Rooibos","Kluane","Kluane Elevation Transect 11","11A",60.95047,-138.43078,2002,2.251,8,2016-06-24,2016-08-13,50,"Summer","1.751","Yes",1.89,1.501943356,0.205320975661376,"None","Eleanor Walker, Haydn Thomas",NA,"","60.95047_-138.43078"
"676","11A4","Rooibos","Kluane","Kluane Elevation Transect 11","11A",60.95047,-138.43078,2002,2.192,8,2016-06-24,2016-08-13,50,"Summer","1.75","Yes",1.834,1.500943356,0.181601223555071,"None","Eleanor Walker, Haydn Thomas",NA,"","60.95047_-138.43078"
"677","11A5","Rooibos","Kluane","Kluane Elevation Transect 11","11A",60.95047,-138.43078,2002,2.202,8,2016-06-24,2016-08-13,50,"Summer","1.827","Yes",1.843,1.577943356,0.143818037981552,"None","Eleanor Walker, Haydn Thomas",NA,"","60.95047_-138.43078"
"678","HT_K1","Green","Kluane","Common Garden","CG_Y2_3m",61.03248,-138.40834,792,1.986,8,2016-06-22,2016-08-14,53,"Summer","0.755","Yes",1.671,0.506309356,0.697002180730102,"None","Haydn Thomas",NA,"","61.03248_-138.40834"
"679","HT_K2","Green","Kluane","Common Garden","CG_Y2_3m",61.03248,-138.40834,792,2.021,8,2016-06-22,2016-08-14,53,"Summer","0.794","Yes",1.705,0.545309356,0.68017046568915,"None","Haydn Thomas",NA,"","61.03248_-138.40834"
"680","HT_K3","Green","Kluane","Common Garden","CG_Y2_3m",61.03248,-138.40834,792,2.084,8,2016-06-22,2016-08-14,53,"Summer","0.846","Yes",1.766,0.597309356,0.661772731596829,"None","Haydn Thomas",NA,"","61.03248_-138.40834"
"681","HT_K4","Green","Kluane","Common Garden","CG_Y2_3m",61.03248,-138.40834,792,2.133,8,2016-06-22,2016-08-14,53,"Summer","0.775","Yes",1.813,0.526309356,0.709702506343078,"None","Haydn Thomas",NA,"","61.03248_-138.40834"
"682","HT_K5","Green","Kluane","Common Garden","CG_Y2_3m",61.03248,-138.40834,792,2.062,8,2016-06-22,2016-08-14,53,"Summer","0.802","Yes",1.744,0.553309356,0.682735461009174,"None","Haydn Thomas",NA,"","61.03248_-138.40834"
"683","HT_K6","Green","Kluane","Common Garden","CG_Y2_3m",61.03248,-138.40834,792,2.213,8,2016-06-22,2016-08-14,53,"Summer","0.779","Yes",1.89,0.530309356,0.719413039153439,"None","Haydn Thomas",NA,"","61.03248_-138.40834"
"684","HT_K7","Green","Kluane","Common Garden","CG_Y2_3m",61.03248,-138.40834,792,2.104,8,2016-06-22,2016-08-14,53,"Summer","0.769","Yes",1.785,0.520309356,0.708510164705882,"None","Haydn Thomas",NA,"","61.03248_-138.40834"
"685","HT_K8","Green","Kluane","Common Garden","CG_Y2_3m",61.03248,-138.40834,792,2.11,8,2016-06-22,2016-08-14,53,"Summer","0.804","Yes",1.791,0.555309356,0.689944524846455,"None","Haydn Thomas",NA,"","61.03248_-138.40834"
"686","HT_K9","Green","Kluane","Common Garden","CG_Y2_3m",61.03248,-138.40834,792,1.978,8,2016-06-22,2016-08-14,53,"Summer","0.874","Yes",1.664,0.625309356,0.624213127403846,"None","Haydn Thomas",NA,"","61.03248_-138.40834"
"687","HT_K10","Green","Kluane","Common Garden","CG_Y2_3m",61.03248,-138.40834,792,2.067,8,2016-06-22,2016-08-14,53,"Summer","0.881","Yes",1.749,0.632309356,0.63847378158948,"None","Haydn Thomas",NA,"","61.03248_-138.40834"
"688","HT_K1","Rooibos","Kluane","Common Garden","CG_Y2_3m",61.03248,-138.40834,792,2.267,8,2016-06-22,2016-08-14,53,"Summer","1.817","Yes",1.905,1.567943356,0.17693262152231,"None","Haydn Thomas",NA,"","61.03248_-138.40834"
"689","HT_K2","Rooibos","Kluane","Common Garden","CG_Y2_3m",61.03248,-138.40834,792,2.267,8,2016-06-22,2016-08-14,53,"Summer","1.738","Yes",1.905,1.488943356,0.218402437795276,"None","Haydn Thomas",NA,"","61.03248_-138.40834"
"690","HT_K3","Rooibos","Kluane","Common Garden","CG_Y2_3m",61.03248,-138.40834,792,2.228,8,2016-06-22,2016-08-14,53,"Summer","1.651","Yes",1.868,1.401943356,0.249494991434689,"None","Haydn Thomas",NA,"","61.03248_-138.40834"
"691","HT_K4","Rooibos","Kluane","Common Garden","CG_Y2_3m",61.03248,-138.40834,792,2.266,8,2016-06-22,2016-08-14,53,"Summer","1.76","Yes",1.904,1.510943356,0.20643731302521,"None","Haydn Thomas",NA,"","61.03248_-138.40834"
"692","HT_K5","Rooibos","Kluane","Common Garden","CG_Y2_3m",61.03248,-138.40834,792,2.238,8,2016-06-22,2016-08-14,53,"Summer","1.638","Yes",1.877,1.388943356,0.260019522642515,"None","Haydn Thomas",NA,"","61.03248_-138.40834"
"693","HT_K6","Rooibos","Kluane","Common Garden","CG_Y2_3m",61.03248,-138.40834,792,2.275,8,2016-06-22,2016-08-14,53,"Summer","1.77","Yes",1.912,1.520943356,0.204527533472803,"None","Haydn Thomas",NA,"","61.03248_-138.40834"
"694","HT_K7","Rooibos","Kluane","Common Garden","CG_Y2_3m",61.03248,-138.40834,792,2.248,8,2016-06-22,2016-08-14,53,"Summer","1.847","Yes",1.887,1.597943356,0.153183171171171,"None","Haydn Thomas",NA,"","61.03248_-138.40834"
"695","HT_K8","Rooibos","Kluane","Common Garden","CG_Y2_3m",61.03248,-138.40834,792,2.237,8,2016-06-22,2016-08-14,53,"Summer","1.776","Yes",1.877,1.526943356,0.186497945657965,"None","Haydn Thomas",NA,"","61.03248_-138.40834"
"696","HT_K9","Rooibos","Kluane","Common Garden","CG_Y2_3m",61.03248,-138.40834,792,2.193,8,2016-06-22,2016-08-14,53,"Summer","1.663","Yes",1.835,1.413943356,0.229458661580381,"None","Haydn Thomas",NA,"","61.03248_-138.40834"
"697","HT_K10","Rooibos","Kluane","Common Garden","CG_Y2_3m",61.03248,-138.40834,792,2.265,8,2016-06-22,2016-08-14,53,"Summer","1.807","Yes",1.903,1.557943356,0.181322461376774,"None","Haydn Thomas",NA,"","61.03248_-138.40834"
"698","Cgg51","Green","Kluane","Common Garden","CG_2Y",61.03248,-138.40834,792,2.18,8,2015-08-17,2017-08-08,722,"Two_Year","1.029","Yes",1.858,0.780309356,0.580027257265877,"None","Haydn Thomas",NA,"","61.03248_-138.40834"
"699","Cgg52","Green","Kluane","Common Garden","CG_2Y",61.03248,-138.40834,792,1.942,8,2015-08-17,2017-08-08,722,"Two_Year","0.973","Yes",1.629,0.724309356,0.555365650092081,"None","Haydn Thomas",NA,"","61.03248_-138.40834"
"700","Cgg53","Green","Kluane","Common Garden","CG_2Y",61.03248,-138.40834,792,2.037,8,2015-08-17,2017-08-08,722,"Two_Year","1","Yes",1.72,0.751309356,0.563192234883721,"None","Haydn Thomas",NA,"","61.03248_-138.40834"
"701","Cgg54","Green","Kluane","Common Garden","CG_2Y",61.03248,-138.40834,792,2.16,8,2015-08-17,2017-08-08,722,"Two_Year","1.014","Yes",1.839,0.765309356,0.583844830886351,"None","Haydn Thomas",NA,"","61.03248_-138.40834"
"702","Cgg55","Green","Kluane","Common Garden","CG_2Y",61.03248,-138.40834,792,2.023,8,2015-08-17,2017-08-08,722,"Two_Year","0.962","Yes",1.707,0.713309356,0.582126915055653,"None","Haydn Thomas",NA,"","61.03248_-138.40834"
"703","Cgg56","Green","Kluane","Common Garden","CG_2Y",61.03248,-138.40834,792,2.086,8,2015-08-17,2017-08-08,722,"Two_Year","0.958","Yes",1.768,0.709309356,0.598806925339367,"None","Haydn Thomas",NA,"","61.03248_-138.40834"
"704","Cgg57","Green","Kluane","Common Garden","CG_2Y",61.03248,-138.40834,792,2.112,8,2015-08-17,2017-08-08,722,"Two_Year","0.741","Yes",1.793,0.492309356,0.725427018404908,"None","Haydn Thomas",NA,"","61.03248_-138.40834"
"705","Cgg58","Green","Kluane","Common Garden","CG_2Y",61.03248,-138.40834,792,2.108,8,2015-08-17,2017-08-08,722,"Two_Year","1.024","Yes",1.789,0.775309356,0.56662417216322,"None","Haydn Thomas",NA,"","61.03248_-138.40834"
"706","Cgg59","Green","Kluane","Common Garden","CG_2Y",61.03248,-138.40834,792,2.196,8,2015-08-17,2017-08-08,722,"Two_Year","0.887","Yes",1.873,0.638309356,0.659204828617192,"None","Haydn Thomas",NA,"","61.03248_-138.40834"
"707","Cgg60","Green","Kluane","Common Garden","CG_2Y",61.03248,-138.40834,792,2.07,8,2015-08-17,2017-08-08,722,"Two_Year","0.806","Yes",1.752,0.557309356,0.681901052511416,"None","Haydn Thomas",NA,"","61.03248_-138.40834"
"708","Cgr51","Rooibos","Kluane","Common Garden","CG_2Y",61.03248,-138.40834,792,2.327,8,2015-08-17,2017-08-08,722,"Two_Year","1.468","Yes",1.961,1.218943356,0.378407263641,"None","Haydn Thomas",NA,"","61.03248_-138.40834"
"709","Cgr52","Rooibos","Kluane","Common Garden","CG_2Y",61.03248,-138.40834,792,2.241,8,2015-08-17,2017-08-08,722,"Two_Year","1.357","Yes",1.88,1.107943356,0.410668427659574,"None","Haydn Thomas",NA,"","61.03248_-138.40834"
"710","Cgr53","Rooibos","Kluane","Common Garden","CG_2Y",61.03248,-138.40834,792,2.201,8,2015-08-17,2017-08-08,722,"Two_Year","1.182","Yes",1.843,0.932943356,0.493790908301682,"None","Haydn Thomas",NA,"","61.03248_-138.40834"
"711","Cgr54","Rooibos","Kluane","Common Garden","CG_2Y",61.03248,-138.40834,792,2.272,8,2015-08-17,2017-08-08,722,"Two_Year","1.43","Yes",1.91,1.180943356,0.38170504921466,"None","Haydn Thomas",NA,"","61.03248_-138.40834"
"712","Cgr55","Rooibos","Kluane","Common Garden","CG_2Y",61.03248,-138.40834,792,2.229,8,2015-08-17,2017-08-08,722,"Two_Year","1.305","Yes",1.869,1.055943356,0.435022281433922,"None","Haydn Thomas",NA,"","61.03248_-138.40834"
"713","Cgr56","Rooibos","Kluane","Common Garden","CG_2Y",61.03248,-138.40834,792,2.231,8,2015-08-17,2017-08-08,722,"Two_Year","1.292","Yes",1.871,1.042943356,0.442574368786745,"None","Haydn Thomas",NA,"","61.03248_-138.40834"
"714","Cgr57","Rooibos","Kluane","Common Garden","CG_2Y",61.03248,-138.40834,792,2.298,8,2015-08-17,2017-08-08,722,"Two_Year","1.254","Yes",1.934,1.004943356,0.480380891416753,"None","Haydn Thomas",NA,"","61.03248_-138.40834"
"715","Cgr58","Rooibos","Kluane","Common Garden","CG_2Y",61.03248,-138.40834,792,2.235,8,2015-08-17,2017-08-08,722,"Two_Year","1.432","Yes",1.875,1.182943356,0.3690968768,"None","Haydn Thomas",NA,"","61.03248_-138.40834"
"716","Cgr59","Rooibos","Kluane","Common Garden","CG_2Y",61.03248,-138.40834,792,2.161,8,2015-08-17,2017-08-08,722,"Two_Year","1.3","Yes",1.805,1.050943356,0.417759913573407,"None","Haydn Thomas",NA,"","61.03248_-138.40834"
"717","Cgr60","Rooibos","Kluane","Common Garden","CG_2Y",61.03248,-138.40834,792,2.2,8,2015-08-17,2017-08-08,722,"Two_Year","1.268","Yes",1.842,1.018943356,0.446827711183496,"None","Haydn Thomas",NA,"","61.03248_-138.40834"
"718","DCR1","Rooibos","Kluane","Common Garden","DC_HT_2yr",61.03248,-138.40834,792,2.276,8,2015-07-21,2017-08-08,749,"Two_Year","1.524","No",1.913,1.40046,0.267924725561945,"None","Haydn Thomas",NA,"","61.03248_-138.40834"
"719","DCR2","Rooibos","Kluane","Common Garden","DC_HT_2yr",61.03248,-138.40834,792,2.272,8,2015-07-21,2017-08-08,749,"Two_Year","1.496","No",1.91,1.37246,0.281434554973822,"None","Haydn Thomas",NA,"","61.03248_-138.40834"
"720","DCR3","Rooibos","Kluane","Common Garden","DC_HT_2yr",61.03248,-138.40834,792,2.29,8,2015-07-21,2017-08-08,749,"Two_Year","1.617","No",1.927,1.49346,0.224981837052413,"None","Haydn Thomas",NA,"","61.03248_-138.40834"
"721","DCR4","Rooibos","Kluane","Common Garden","DC_HT_2yr",61.03248,-138.40834,792,2.184,8,2015-07-21,2017-08-08,749,"Two_Year","1.561","No",1.826,1.43746,0.212782037239869,"None","Haydn Thomas",NA,"","61.03248_-138.40834"
"722","DCR5","Rooibos","Kluane","Common Garden","DC_HT_2yr",61.03248,-138.40834,792,2.278,8,2015-07-21,2017-08-08,749,"Two_Year","1.515","No",1.915,1.39146,0.273389033942559,"None","Haydn Thomas",NA,"","61.03248_-138.40834"
"723","DCR6","Rooibos","Kluane","Common Garden","DC_HT_2yr",61.03248,-138.40834,792,2.277,8,2015-07-21,2017-08-08,749,"Two_Year","1.566","No",1.914,1.44246,0.246363636363636,"None","Haydn Thomas",NA,"","61.03248_-138.40834"
"724","DCR7","Rooibos","Kluane","Common Garden","DC_HT_2yr",61.03248,-138.40834,792,2.262,8,2015-07-21,2017-08-08,749,"Two_Year","1.542","No",1.9,1.41846,0.253442105263158,"None","Haydn Thomas",NA,"","61.03248_-138.40834"
"725","DCR8","Rooibos","Kluane","Common Garden","DC_HT_2yr",61.03248,-138.40834,792,2.328,8,2015-07-21,2017-08-08,749,"Two_Year","1.513","No",1.962,1.38946,0.291814475025484,"None","Haydn Thomas",NA,"","61.03248_-138.40834"
"726","DCR9","Rooibos","Kluane","Common Garden","DC_HT_2yr",61.03248,-138.40834,792,2.264,8,2015-07-21,2017-08-08,749,"Two_Year","1.528","No",1.902,1.40446,0.261587802313354,"None","Haydn Thomas",NA,"","61.03248_-138.40834"
"727","DCR10","Rooibos","Kluane","Common Garden","DC_HT_2yr",61.03248,-138.40834,792,2.231,8,2015-07-21,2017-08-08,749,"Two_Year","1.55","No",1.871,1.42646,0.237594869053982,"None","Haydn Thomas",NA,"","61.03248_-138.40834"
"728","DCG1","Green","Kluane","Common Garden","DC_HT_2yr",61.03248,-138.40834,792,2.107,8,2015-07-21,2017-08-08,749,"Two_Year","1.108","No",1.788,0.98484,0.449194630872483,"None","Haydn Thomas",NA,"","61.03248_-138.40834"
"729","DCG2","Green","Kluane","Common Garden","DC_HT_2yr",61.03248,-138.40834,792,2.161,8,2015-07-21,2017-08-08,749,"Two_Year","0.992","No",1.84,0.86884,0.527804347826087,"None","Haydn Thomas",NA,"","61.03248_-138.40834"
"730","DCG3","Green","Kluane","Common Garden","DC_HT_2yr",61.03248,-138.40834,792,2.076,8,2015-07-21,2017-08-08,749,"Two_Year","0.948","No",1.758,0.82484,0.530807736063709,"None","Haydn Thomas",NA,"","61.03248_-138.40834"
"731","DCG4","Green","Kluane","Common Garden","DC_HT_2yr",61.03248,-138.40834,792,2.114,8,2015-07-21,2017-08-08,749,"Two_Year","1.006","No",1.794,0.88284,0.507892976588629,"None","Haydn Thomas",NA,"","61.03248_-138.40834"
"732","DCG5","Green","Kluane","Common Garden","DC_HT_2yr",61.03248,-138.40834,792,2.061,8,2015-07-21,2017-08-08,749,"Two_Year","1","No",1.743,0.87684,0.496936316695353,"None","Haydn Thomas",NA,"","61.03248_-138.40834"
"733","DCG6","Green","Kluane","Common Garden","DC_HT_2yr",61.03248,-138.40834,792,2.03,8,2015-07-21,2017-08-08,749,"Two_Year","0.944","No",1.714,0.82084,0.521096849474912,"None","Haydn Thomas",NA,"","61.03248_-138.40834"
"734","DCG7","Green","Kluane","Common Garden","DC_HT_2yr",61.03248,-138.40834,792,2.148,8,2015-07-21,2017-08-08,749,"Two_Year","1.067","No",1.827,0.94384,0.483393541324576,"None","Haydn Thomas",NA,"","61.03248_-138.40834"
"735","DCG8","Green","Kluane","Common Garden","DC_HT_2yr",61.03248,-138.40834,792,2.156,8,2015-07-21,2017-08-08,749,"Two_Year","0.948","No",1.835,0.82484,0.550495912806539,"None","Haydn Thomas",NA,"","61.03248_-138.40834"
"736","DCG9","Green","Kluane","Common Garden","DC_HT_2yr",61.03248,-138.40834,792,2.103,8,2015-07-21,2017-08-08,749,"Two_Year","0.97","No",1.784,0.84684,0.525313901345291,"None","Haydn Thomas",NA,"","61.03248_-138.40834"
"737","DCG10","Green","Kluane","Common Garden","DC_HT_2yr",61.03248,-138.40834,792,2.021,8,2015-07-21,2017-08-08,749,"Two_Year","0.829","No",1.705,0.70584,0.586017595307918,"None","Haydn Thomas",NA,"","61.03248_-138.40834"
"738","Kr21","Rooibos","Kluane","Kluane Plateau","KP_HT_2yr",60.96195,-138.4127,1734,2.252,8,2015-07-01,2017-08-09,770,"Two_Year","1.524","No",1.891,1.40046,0.259407720782655,"None","Haydn Thomas",NA,"","60.96195_-138.4127"
"739","Kr22","Rooibos","Kluane","Kluane Plateau","KP_HT_2yr",60.96195,-138.4127,1734,2.198,8,2015-07-01,2017-08-09,770,"Two_Year","1.496","No",1.84,1.37246,0.254097826086957,"None","Haydn Thomas",NA,"","60.96195_-138.4127"
"740","Kr23","Rooibos","Kluane","Kluane Plateau","KP_HT_2yr",60.96195,-138.4127,1734,2.194,8,2015-07-01,2017-08-09,770,"Two_Year","1.617","No",1.836,1.49346,0.18656862745098,"None","Haydn Thomas",NA,"","60.96195_-138.4127"
"741","Kr24","Rooibos","Kluane","Kluane Plateau","KP_HT_2yr",60.96195,-138.4127,1734,2.27,8,2015-07-01,2017-08-09,770,"Two_Year","1.561","No",1.908,1.43746,0.246614255765199,"None","Haydn Thomas",NA,"","60.96195_-138.4127"
"742","Kr25","Rooibos","Kluane","Kluane Plateau","KP_HT_2yr",60.96195,-138.4127,1734,2.248,8,2015-07-01,2017-08-09,770,"Two_Year","1.515","No",1.887,1.39146,0.262607313195549,"None","Haydn Thomas",NA,"","60.96195_-138.4127"
"743","Kr26","Rooibos","Kluane","Kluane Plateau","KP_HT_2yr",60.96195,-138.4127,1734,2.279,8,2015-07-01,2017-08-09,770,"Two_Year","1.566","No",1.916,1.44246,0.247150313152401,"None","Haydn Thomas",NA,"","60.96195_-138.4127"
"744","Kr27","Rooibos","Kluane","Kluane Plateau","KP_HT_2yr",60.96195,-138.4127,1734,2.203,8,2015-07-01,2017-08-09,770,"Two_Year","1.542","No",1.844,1.41846,0.230770065075922,"None","Haydn Thomas",NA,"","60.96195_-138.4127"
"745","Kr28","Rooibos","Kluane","Kluane Plateau","KP_HT_2yr",60.96195,-138.4127,1734,2.317,8,2015-07-01,2017-08-09,770,"Two_Year","1.513","No",1.952,1.38946,0.288186475409836,"None","Haydn Thomas",NA,"","60.96195_-138.4127"
"746","Kr29","Rooibos","Kluane","Kluane Plateau","KP_HT_2yr",60.96195,-138.4127,1734,2.216,8,2015-07-01,2017-08-09,770,"Two_Year","1.528","No",1.857,1.40446,0.243694130317717,"None","Haydn Thomas",NA,"","60.96195_-138.4127"
"747","Kr30","Rooibos","Kluane","Kluane Plateau","KP_HT_2yr",60.96195,-138.4127,1734,2.233,8,2015-07-01,2017-08-09,770,"Two_Year","1.55","No",1.873,1.42646,0.238408969567539,"None","Haydn Thomas",NA,"","60.96195_-138.4127"
"748","Kg21","Green","Kluane","Kluane Plateau","KP_HT_2yr",60.96195,-138.4127,1734,2.084,8,2015-07-01,2017-08-09,770,"Two_Year","1.151","No",1.766,1.02784,0.417984144960362,"None","Haydn Thomas",NA,"","60.96195_-138.4127"
"749","Kg22","Green","Kluane","Kluane Plateau","KP_HT_2yr",60.96195,-138.4127,1734,2.14,8,2015-07-01,2017-08-09,770,"Two_Year","1.061","No",1.819,0.93784,0.484420010995052,"None","Haydn Thomas",NA,"","60.96195_-138.4127"
"750","Kg23","Green","Kluane","Kluane Plateau","KP_HT_2yr",60.96195,-138.4127,1734,2.084,8,2015-07-01,2017-08-09,770,"Two_Year","0.830","No",1.766,0.70684,0.599750849377123,"None","Haydn Thomas",NA,"","60.96195_-138.4127"
"751","Kg24","Green","Kluane","Kluane Plateau","KP_HT_2yr",60.96195,-138.4127,1734,2.085,8,2015-07-01,2017-08-09,770,"Two_Year","1.017","No",1.767,0.89384,0.494148273910583,"None","Haydn Thomas",NA,"","60.96195_-138.4127"
"752","Kg25","Green","Kluane","Kluane Plateau","KP_HT_2yr",60.96195,-138.4127,1734,2.069,8,2015-07-01,2017-08-09,770,"Two_Year","0.934","No",1.751,0.81084,0.536927470017133,"None","Haydn Thomas",NA,"","60.96195_-138.4127"
"753","Kg26","Green","Kluane","Kluane Plateau","KP_HT_2yr",60.96195,-138.4127,1734,2.041,8,2015-07-01,2017-08-09,770,"Two_Year","0.920","No",1.724,0.79684,0.537795823665893,"None","Haydn Thomas",NA,"","60.96195_-138.4127"
"754","Kg27","Green","Kluane","Kluane Plateau","KP_HT_2yr",60.96195,-138.4127,1734,2.147,8,2015-07-01,2017-08-09,770,"Two_Year","1.001","No",1.826,0.87784,0.519255202628697,"None","Haydn Thomas",NA,"","60.96195_-138.4127"
"755","Kg28","Green","Kluane","Kluane Plateau","KP_HT_2yr",60.96195,-138.4127,1734,2.172,8,2015-07-01,2017-08-09,770,"Two_Year","1.002","No",1.85,0.87884,0.524951351351351,"None","Haydn Thomas",NA,"","60.96195_-138.4127"
"756","Kg29","Green","Kluane","Kluane Plateau","KP_HT_2yr",60.96195,-138.4127,1734,2.071,8,2015-07-01,2017-08-09,770,"Two_Year","1.182","No",1.753,1.05884,0.395984027381631,"None","Haydn Thomas",NA,"","60.96195_-138.4127"
"757","Kg30","Green","Kluane","Kluane Plateau","KP_HT_2yr",60.96195,-138.4127,1734,1.939,8,2015-07-01,2017-08-09,770,"Two_Year","0.949","No",1.626,0.82584,0.49210332103321,"None","Haydn Thomas",NA,"","60.96195_-138.4127"
